{
  "type": "FeatureCollection",
  "features": [
    {
      "type": "Feature",
      "properties": {
        "設施名稱": "內湖垃圾焚化廠",
        "設施類型": "垃圾焚化廠",
        "位置": "臺北市內湖區",
        "地址": "臺北市內湖區安康路290號"
      },
      "geometry": {
        "type": "Point",
        "coordinates": [121.603567, 25.062766]
      }
    },
    {
      "type": "Feature",
      "properties": {
        "設施名稱": "木柵垃圾焚化廠",
        "設施類型": "垃圾焚化廠",
        "位置": "臺北市文山區",
        "地址": "臺北市文山區木柵路五段53號"
      },
      "geometry": {
        "type": "Point",
        "coordinates": [121.587653, 25.005823]
      }
    },
    {
      "type": "Feature",
      "properties": {
        "設施名稱": "北投垃圾焚化廠",
        "設施類型": "垃圾焚化廠",
        "位置": "臺北市北投區",
        "地址": "臺北市北投區洲美街271號"
      },
      "geometry": {
        "type": "Point",
        "coordinates": [121.500444, 25.108094]
      }
    },
    {
      "type": "Feature",
      "properties": {
        "設施名稱": "臺北市懷愛館火化場",
        "設施類型": "火化場",
        "位置": "臺北市士林區",
        "地址": "臺北市士林區懷愛街1號"
      },
      "geometry": {
        "type": "Point",
        "coordinates": [121.55312377639319, 25.012540062377077]
      }
    }
  ]
}
