{
	"type": "FeatureCollection",
	"features": [
		{
			"type": "Feature",
			"properties": {
				"設施名稱": "林口發電廠",
				"設施類型": "火力發電廠",
				"位置": "新北市林口區",
				"地址": "新北市林口區下福里139之1號"
			},
			"geometry": {
				"type": "Point",
				"coordinates": [121.2983, 25.1208]
			}
		},
		{
			"type": "Feature",
			"properties": {
				"設施名稱": "新店垃圾焚化廠",
				"設施類型": "垃圾焚化廠",
				"位置": "新北市新店區",
				"地址": "新北市新店區薏仁坑路自強巷1號"
			},
			"geometry": {
				"type": "Point",
				"coordinates": [121.533, 25.008]
			}
		},
		{
			"type": "Feature",
			"properties": {
				"設施名稱": "樹林垃圾焚化廠",
				"設施類型": "垃圾焚化廠",
				"位置": "新北市樹林區",
				"地址": "新北市樹林區中山路三段212號"
			},
			"geometry": {
				"type": "Point",
				"coordinates": [121.425, 24.971]
			}
		},
		{
			"type": "Feature",
			"properties": {
				"設施名稱": "八里垃圾焚化廠",
				"設施類型": "垃圾焚化廠",
				"位置": "新北市八里區",
				"地址": "新北市八里區中山路3段409號"
			},
			"geometry": {
				"type": "Point",
				"coordinates": [121.37, 25.144]
			}
		},
		{
			"type": "Feature",
			"properties": {
				"設施名稱": "新北市立殯儀館火化場",
				"設施類型": "火化場",
				"位置": "新北市三峽區",
				"地址": "新北市三峽區介壽路三段260巷1號"
			},
			"geometry": {
				"type": "Point",
				"coordinates": [121.3659, 24.9142]
			}
		}
	]
}
