{
   "type": "FeatureCollection",
   "features": [
  {
    "type": "Feature",
    "geometry": {
       "type": "Point",
       "coordinates":  [ 121.5663884,25.0352534 ]
    },
    "properties": {
    "作業時間":"11:00~18:00",
    "日期":"2025/5/31",
    "類型":"活動",
    "捐血點/主辦單位":"國際獅子會300A 1區台北市大眾獅子會",
    "地點":"臺北市信義區松壽路16巷",
    "等候人數":"0",
    "活動ID":"0P143481189603602982",
    "頁碼":1,
    "縣市":"臺北市",
    "行政區":"信義區"
    }
  },
  {
    "type": "Feature",
    "geometry": {
       "type": "Point",
       "coordinates":  [ 121.5374572,25.0318211 ]
    },
    "properties": {
    "作業時間":"09:00~17:00(114/5/5~5/9暫停作業)",
    "日期":"",
    "類型":"固定點",
    "捐血點/主辦單位":"大安號捐血車",
    "地點":"台北市大安區建國南路二段大安森林公園地下停車場入口旁空地(捷運淡水信義線R大安森林公園站5號出口，步行約5分鐘)",
    "等候人數":"0",
    "活動ID":"0P091704354367760507",
    "頁碼":1,
    "縣市":"臺北市",
    "行政區":"大安區"
    }
  },
  {
    "type": "Feature",
    "geometry": {
       "type": "Point",
       "coordinates":  [ 121.5475316,25.0415737 ]
    },
    "properties": {
    "作業時間":"11:00~19:00",
    "日期":"",
    "類型":"固定點",
    "捐血點/主辦單位":"忠孝捐血室",
    "地點":"B1東區地下街9號出口旁副走道(第四廣場旁)",
    "等候人數":"0",
    "活動ID":"0P091704351818993076",
    "頁碼":1,
    "縣市":"臺北市",
    "行政區":"大安區"
    }
  },
  {
    "type": "Feature",
    "geometry": {
       "type": "Point",
       "coordinates":  [ 121.5153266,25.0466575 ]
    },
    "properties": {
    "作業時間":"11:00~19:00(114/5/5~5/9暫停作業)",
    "日期":"",
    "類型":"固定點",
    "捐血點/主辦單位":"新光站前號捐血車",
    "地點":"台北市中正區忠孝西路一段66號面對新光摩天大樓左側腹地(捷運台北車站M6出口，步行約5分鐘)",
    "等候人數":"0",
    "活動ID":"0P091704339830832536",
    "頁碼":1,
    "縣市":"臺北市",
    "行政區":"中正區"
    }
  },
  {
    "type": "Feature",
    "geometry": {
       "type": "Point",
       "coordinates":  [ 121.5048862,25.0440139 ]
    },
    "properties": {
    "作業時間":"13:00~21:00",
    "日期":"",
    "類型":"固定點",
    "捐血點/主辦單位":"峨嵋號捐血車",
    "地點":"台北市萬華區峨嵋街立體停車場旁(昆明街口，捷運板南線BL西門站6號出口，步行約10分鐘)",
    "等候人數":"0",
    "活動ID":"0P091704339396863519",
    "頁碼":1,
    "縣市":"臺北市",
    "行政區":"萬華區"
    }
  },
  {
    "type": "Feature",
    "geometry": {
       "type": "Point",
       "coordinates":  [ 121.513107,25.042585 ]
    },
    "properties": {
    "作業時間":"10:00~18:00(114/4/28~4/30暫停作業)",
    "日期":"",
    "類型":"固定點",
    "捐血點/主辦單位":"公園號捐血車",
    "地點":"台北市中正區公園路+襄陽路口(捷運淡水信義線R台大醫院站4號出口)",
    "等候人數":"0",
    "活動ID":"0P091704334024478005",
    "頁碼":1,
    "縣市":"臺北市",
    "行政區":"中正區"
    }
  },
  {
    "type": "Feature",
    "geometry": {
       "type": "Point",
       "coordinates":  [ 121.5442581,25.0508912 ]
    },
    "properties": {
    "作業時間":"09:00~17:00(每週日公休。)",
    "日期":"",
    "類型":"固定點",
    "捐血點/主辦單位":"長春捐血室",
    "地點":"台北市松山區復興北路69號5樓(捷運文湖線BR南京復興站5號出口，步行約3分鐘)",
    "等候人數":"0",
    "活動ID":"0P091704328573146537",
    "頁碼":1,
    "縣市":"臺北市",
    "行政區":"松山區"
    }
  },
  {
    "type": "Feature",
    "geometry": {
       "type": "Point",
       "coordinates":  [ 121.5175482,25.0329071 ]
    },
    "properties": {
    "作業時間":"08:00~17:30",
    "日期":"",
    "類型":"固定點",
    "捐血點/主辦單位":"南海捐血室",
    "地點":"台北市中正區南海路1號3樓(南門市場對面，中正紀念堂站1號出口，步行約3分鐘)",
    "等候人數":"0",
    "活動ID":"0P091704327939267519",
    "頁碼":1,
    "縣市":"臺北市",
    "行政區":"中正區"
    }
  },
  {
    "type": "Feature",
    "geometry": {
       "type": "Point",
       "coordinates":  [ 121.471672,25.1274294 ]
    },
    "properties": {
    "作業時間":"08:00~17:00",
    "日期":"",
    "類型":"固定點",
    "捐血點/主辦單位":"關渡捐血室",
    "地點":"台北市北投區立德路123號(和信醫院旁，捷運淡水信義線R忠義站，步行約10分鐘)",
    "等候人數":"0",
    "活動ID":"0P091704322667872905",
    "頁碼":1,
    "縣市":"臺北市",
    "行政區":"北投區"
    }
  },
  {
    "type": "Feature",
    "geometry": {
       "type": "Point",
       "coordinates":  [ 121.5646286,25.0371665 ]
    },
    "properties": {
    "作業時間":"09:00~17:00(每週六、日公休)",
    "日期":"",
    "類型":"固定點",
    "捐血點/主辦單位":"市府捐血室",
    "地點":"台北市信義區市府路1號，市政府西大門內左側(1.捷運板南線BL市政府站2號出口。2.捷運淡水信義線R台北101/世貿站4號出口。均步行約10分鐘)",
    "等候人數":"0",
    "活動ID":"0P091704322201751023",
    "頁碼":1,
    "縣市":"臺北市",
    "行政區":"信義區"
    }
  },
  {
    "type": "Feature",
    "geometry": {
       "type": "Point",
       "coordinates":  [ 121.5249268,25.0933199 ]
    },
    "properties": {
    "作業時間":"09:30~16:30(每月17日)",
    "日期":"",
    "類型":"巡迴車",
    "捐血點/主辦單位":"士林區巡迴捐血車(每月17日)",
    "地點":"大東路士林國小前",
    "等候人數":"0",
    "活動ID":"0P094384341544681006",
    "頁碼":2,
    "縣市":"臺北市",
    "行政區":"士林區"
    }
  },
  {
    "type": "Feature",
    "geometry": {
       "type": "Point",
       "coordinates":  [ 121.5932516,25.0830096 ]
    },
    "properties": {
    "作業時間":"09:30~16:30(每月24日)",
    "日期":"",
    "類型":"巡迴車",
    "捐血點/主辦單位":"內湖區巡迴捐血車(每月24日)",
    "地點":"成功路四段166號(七海餐廳前)",
    "等候人數":"0",
    "活動ID":"0P094383895459579510",
    "頁碼":2,
    "縣市":"臺北市",
    "行政區":"內湖區"
    }
  },
  {
    "type": "Feature",
    "geometry": {
       "type": "Point",
       "coordinates":  [ 121.6057,25.0544 ]
    },
    "properties": {
    "作業時間":"09:30~16:30(每月7日，逢遇週六、日休息)",
    "日期":"",
    "類型":"巡迴車",
    "捐血點/主辦單位":"南港區巡迴捐血車(每月7日)",
    "地點":"南港路二段18號",
    "等候人數":"0",
    "活動ID":"0P094379764687471839",
    "頁碼":2,
    "縣市":"臺北市",
    "行政區":"南港區"
    }
  }
]
}