{
   "type": "FeatureCollection",
   "features": [
  {
    "type": "Feature",
    "geometry": {
       "type": "Point",
       "coordinates":  [ 121.505039,25.136177 ]
    },
    "properties": {
    "分區":"北投區",
    "商圈名稱":"新北投溫泉(商圈)",
    "組織或里辦公處":"台北市溫泉發展協會",
    "組織代表":"林致宇",
    "職稱":"理事長",
    "聯絡電話":"02-2895-5418",
    "傳真":"02-2898-4507",
    "商圈通訊地址":"臺北市光明路224號1樓",
    "update_time":"2025-03-27 09:42:43.325035"
    }
  },
  {
    "type": "Feature",
    "geometry": {
       "type": "Point",
       "coordinates":  [ 121.505039,25.136177 ]
    },
    "properties": {
    "分區":"北投區",
    "商圈名稱":"新北投溫泉(商圈)",
    "組織或里辦公處":"台北市溫泉發展協會",
    "組織代表":"陳雅玉",
    "職稱":"特助",
    "聯絡電話":"02-2895-5418",
    "傳真":"02-2898-4507",
    "商圈通訊地址":"臺北市光明路224號1樓",
    "update_time":"2025-03-27 09:42:43.326535"
    }
  },
  {
    "type": "Feature",
    "geometry": {
       "type": "Point",
       "coordinates":  [ 121.505039,25.136177 ]
    },
    "properties": {
    "分區":"北投區",
    "商圈名稱":"新北投溫泉(商圈)",
    "組織或里辦公處":"台北市溫泉發展協會",
    "組織代表":"翁錦芳",
    "職稱":"秘書",
    "聯絡電話":"02-2895-5418",
    "傳真":"02-2898-4507",
    "商圈通訊地址":"臺北市光明路224號1樓",
    "update_time":"2025-03-27 09:42:43.328120"
    }
  },
  {
    "type": "Feature",
    "geometry": {
       "type": "Point",
       "coordinates":  [ 121.528054,25.137716 ]
    },
    "properties": {
    "分區":"北投區",
    "商圈名稱":"行義路溫泉美食(商圈)",
    "組織或里辦公處":"台北市紗帽山溫泉發展協會",
    "組織代表":"游騰在",
    "職稱":"理事長",
    "聯絡電話":"02-2599-2875",
    "傳真":"02-2862-2988",
    "商圈通訊地址":"臺北市行義路269號",
    "update_time":"2025-03-27 09:42:43.329700"
    }
  },
  {
    "type": "Feature",
    "geometry": {
       "type": "Point",
       "coordinates":  [ 121.528054,25.137716 ]
    },
    "properties": {
    "分區":"北投區",
    "商圈名稱":"行義路溫泉美食(商圈)",
    "組織或里辦公處":"台北市紗帽山溫泉發展協會",
    "組織代表":"潘書儀",
    "職稱":"秘書",
    "聯絡電話":"02-2862-3688",
    "傳真":"02-2862-2988",
    "商圈通訊地址":"臺北市行義路269號",
    "update_time":"2025-03-27 09:42:43.331287"
    }
  },
  {
    "type": "Feature",
    "geometry": {
       "type": "Point",
       "coordinates":  [ 121.516653,25.116261 ]
    },
    "properties": {
    "分區":"北投區",
    "商圈名稱":"石牌捷運(商圈)",
    "組織或里辦公處":"臺北市北投石牌商城商圈促進會",
    "組織代表":"蕭淑霞",
    "職稱":"理事長",
    "聯絡電話":"02-2826-4119",
    "傳真":"",
    "商圈通訊地址":"臺北市北投區石牌路二段68巷18號1樓",
    "update_time":"2025-03-27 09:42:43.332879"
    }
  },
  {
    "type": "Feature",
    "geometry": {
       "type": "Point",
       "coordinates":  [ 121.517044,25.116709 ]
    },
    "properties": {
    "分區":"北投區",
    "商圈名稱":"石牌捷運(商圈)",
    "組織或里辦公處":"臺北市北投石牌商城商圈促進會",
    "組織代表":"周福村",
    "職稱":"榮譽理事長",
    "聯絡電話":"02-2826-4119",
    "傳真":"",
    "商圈通訊地址":"臺北市裕民一路25號2樓",
    "update_time":"2025-03-27 09:42:43.334355"
    }
  },
  {
    "type": "Feature",
    "geometry": {
       "type": "Point",
       "coordinates":  [ 121.524157,25.089739 ]
    },
    "properties": {
    "分區":"士林區",
    "商圈名稱":"士林觀光夜市(商圈)",
    "組織或里辦公處":"台北市士林老街商圈繁榮促進會",
    "組織代表":"吳忠達",
    "職稱":"理事長",
    "聯絡電話":"02-2882-0986",
    "傳真":"02-2882-0986",
    "商圈通訊地址":"臺北市士林區大西路6號1樓",
    "update_time":"2025-03-27 09:42:43.335868"
    }
  },
  {
    "type": "Feature",
    "geometry": {
       "type": "Point",
       "coordinates":  [ 121.524157,25.089739 ]
    },
    "properties": {
    "分區":"士林區",
    "商圈名稱":"士林觀光夜市(商圈)",
    "組織或里辦公處":"台北市士林老街商圈繁榮促進會",
    "組織代表":"蘇文山",
    "職稱":"前任理事長",
    "聯絡電話":"02-2883-3071",
    "傳真":"02-2881-3224",
    "商圈通訊地址":"臺北市士林區大西路6號1樓",
    "update_time":"2025-03-27 09:42:43.337470"
    }
  },
  {
    "type": "Feature",
    "geometry": {
       "type": "Point",
       "coordinates":  [ 121.524157,25.089739 ]
    },
    "properties": {
    "分區":"士林區",
    "商圈名稱":"士林觀光夜市(商圈)",
    "組織或里辦公處":"台北市士林老街商圈繁榮促進會",
    "組織代表":"林士豪",
    "職稱":"總幹事",
    "聯絡電話":"02-2883-3071",
    "傳真":"02-2883-8626",
    "商圈通訊地址":"臺北市士林區大西路6號1樓",
    "update_time":"2025-03-27 09:42:43.339101"
    }
  },
  {
    "type": "Feature",
    "geometry": {
       "type": "Point",
       "coordinates":  [ 121.525977,25.08854 ]
    },
    "properties": {
    "分區":"士林區",
    "商圈名稱":"士林觀光夜市(商圈)",
    "組織或里辦公處":"台北市士林安平街觀光夜市協會",
    "組織代表":"賴彥璉",
    "職稱":"理事長",
    "聯絡電話":"02-2881-1403、02-2881-9934",
    "傳真":"",
    "商圈通訊地址":"臺北市士林區小南街3號2樓",
    "update_time":"2025-03-27 09:42:43.340660"
    }
  },
  {
    "type": "Feature",
    "geometry": {
       "type": "Point",
       "coordinates":  [ 121.526228,25.097608 ]
    },
    "properties": {
    "分區":"士林區",
    "商圈名稱":"士林捷運商圈",
    "組織或里辦公處":"台北市士林捷運商圈創意發展協會",
    "組織代表":"何逸松",
    "職稱":"理事長",
    "聯絡電話":"02-2836-6957",
    "傳真":"02-2831-1046",
    "商圈通訊地址":"臺北市士林區中山北路五段699巷20號1樓",
    "update_time":"2025-03-27 09:42:43.342211"
    }
  },
  {
    "type": "Feature",
    "geometry": {
       "type": "Point",
       "coordinates":  [ 121.525401,25.096629 ]
    },
    "properties": {
    "分區":"士林區",
    "商圈名稱":"士林捷運商圈",
    "組織或里辦公處":"台北市士林捷運商圈創意發展協會",
    "組織代表":"曹家誠",
    "職稱":"總幹事",
    "聯絡電話":"02-2836-6957",
    "傳真":"02-2831-1046",
    "商圈通訊地址":"台北市士林區福壽街45號1樓",
    "update_time":"2025-03-27 09:42:43.343849"
    }
  },
  {
    "type": "Feature",
    "geometry": {
       "type": "Point",
       "coordinates":  [ 121.526228,25.097608 ]
    },
    "properties": {
    "分區":"士林區",
    "商圈名稱":"士林捷運商圈",
    "組織或里辦公處":"台北市士林夜市國際觀光發展協會",
    "組織代表":"鄭吉祥",
    "職稱":"理事長",
    "聯絡電話":"02-2833-2188",
    "傳真":"",
    "商圈通訊地址":"台北市士林區中山北路5段699巷20號",
    "update_time":"2025-03-27 09:42:43.345402"
    }
  },
  {
    "type": "Feature",
    "geometry": {
       "type": "Point",
       "coordinates":  [ 121.526228,25.097608 ]
    },
    "properties": {
    "分區":"士林區",
    "商圈名稱":"士林捷運商圈",
    "組織或里辦公處":"台北市士林夜市國際觀光發展協會",
    "組織代表":"賴信瑜",
    "職稱":"理事長",
    "聯絡電話":"02-2833-2188",
    "傳真":"",
    "商圈通訊地址":"台北市士林區中山北路5段699巷20號",
    "update_time":"2025-03-27 09:42:43.346939"
    }
  },
  {
    "type": "Feature",
    "geometry": {
       "type": "Point",
       "coordinates":  [ 121.52621,25.119305 ]
    },
    "properties": {
    "分區":"士林區",
    "商圈名稱":"天母(商圈)",
    "組織或里辦公處":"台北市天母商圈發展協會",
    "組織代表":"黃唐笛",
    "職稱":"理事長",
    "聯絡電話":"02-2876-1189",
    "傳真":"02-2874-5671",
    "商圈通訊地址":"臺北市士林區天母北路10號",
    "update_time":"2025-03-27 09:42:43.348678"
    }
  },
  {
    "type": "Feature",
    "geometry": {
       "type": "Point",
       "coordinates":  [ 121.530598,25.118437 ]
    },
    "properties": {
    "分區":"士林區",
    "商圈名稱":"天母(商圈)",
    "組織或里辦公處":"台北市天母商圈發展協會",
    "組織代表":"王合禮",
    "職稱":"執行長",
    "聯絡電話":"02-2876-1189",
    "傳真":"02-2876-1189",
    "商圈通訊地址":"臺北市士林區中山北路7段2號B1(天母停車場東側地下一樓管理室)",
    "update_time":"2025-03-27 09:42:43.350256"
    }
  },
  {
    "type": "Feature",
    "geometry": {
       "type": "Point",
       "coordinates":  [ 121.520697,25.089525 ]
    },
    "properties": {
    "分區":"士林區",
    "商圈名稱":"承德路中古汽車(商圈)",
    "組織或里辦公處":"台北市承德汽車商圈發展促進會",
    "組織代表":"李寶星",
    "職稱":"理事長",
    "聯絡電話":"02-2883-5356",
    "傳真":"02-2883-4565",
    "商圈通訊地址":"臺北市承德路4段257號1樓",
    "update_time":"2025-03-27 09:42:43.351938"
    }
  },
  {
    "type": "Feature",
    "geometry": {
       "type": "Point",
       "coordinates":  [ 121.520697,25.089525 ]
    },
    "properties": {
    "分區":"士林區",
    "商圈名稱":"承德路中古汽車(商圈)",
    "組織或里辦公處":"台北市承德汽車商圈發展促進會",
    "組織代表":"林美玉",
    "職稱":"理事長",
    "聯絡電話":"02-8253-6373#13",
    "傳真":"02-2883-4565",
    "商圈通訊地址":"臺北市承德路4段257號1樓",
    "update_time":"2025-03-27 09:42:43.353531"
    }
  },
  {
    "type": "Feature",
    "geometry": {
       "type": "Point",
       "coordinates":  [ 121.520697,25.089525 ]
    },
    "properties": {
    "分區":"士林區",
    "商圈名稱":"承德路中古汽車(商圈)",
    "組織或里辦公處":"台北市承德汽車商圈發展促進會",
    "組織代表":"朱文雄",
    "職稱":"副理事長",
    "聯絡電話":"02-2883-5356",
    "傳真":"02-2883-4565",
    "商圈通訊地址":"臺北市承德路4段257號1樓",
    "update_time":"2025-03-27 09:42:43.355262"
    }
  },
  {
    "type": "Feature",
    "geometry": {
       "type": "Point",
       "coordinates":  [ 121.520697,25.089525 ]
    },
    "properties": {
    "分區":"士林區",
    "商圈名稱":"承德路中古汽車(商圈)",
    "組織或里辦公處":"台北市承德汽車商圈發展促進會",
    "組織代表":"李寶星",
    "職稱":"榮譽理事長",
    "聯絡電話":"02-2883-5356",
    "傳真":"02-2883-4565",
    "商圈通訊地址":"臺北市承德路4段257號1樓",
    "update_time":"2025-03-27 09:42:43.356830"
    }
  },
  {
    "type": "Feature",
    "geometry": {
       "type": "Point",
       "coordinates":  [ 121.520697,25.089525 ]
    },
    "properties": {
    "分區":"士林區",
    "商圈名稱":"承德路中古汽車(商圈)",
    "組織或里辦公處":"台北市承德汽車商圈發展促進會",
    "組織代表":"吳毓耕",
    "職稱":"總幹事",
    "聯絡電話":"02-2883-5356",
    "傳真":"02-2883-4565",
    "商圈通訊地址":"臺北市承德路4段257號1樓",
    "update_time":"2025-03-27 09:42:43.358324"
    }
  },
  {
    "type": "Feature",
    "geometry": {
       "type": "Point",
       "coordinates":  [ 121.523619,25.110265 ]
    },
    "properties": {
    "分區":"士林區",
    "商圈名稱":"蘭雅(商圈)",
    "組織或里辦公處":"台北市蘭雅商圈市場發展協會",
    "組織代表":"賴俊宇",
    "職稱":"理事長",
    "聯絡電話":"0979-159-111",
    "傳真":"",
    "商圈通訊地址":"台北市士林區中山北路六段315巷50號",
    "update_time":"2025-03-27 09:42:43.359904"
    }
  },
  {
    "type": "Feature",
    "geometry": {
       "type": "Point",
       "coordinates":  [ 121.513783,25.055284 ]
    },
    "properties": {
    "分區":"大同區",
    "商圈名稱":"朝陽服飾材料(商圈)",
    "組織或里辦公處":"台北市朝陽服飾材料街區發展協會",
    "組織代表":"呂國維",
    "職稱":"理事長",
    "聯絡電話":"02-2552-3101 ",
    "傳真":" 02-25596995    ",
    "商圈通訊地址":"臺北市大同區重慶北路二段46巷6號1樓\t",
    "update_time":"2025-03-27 09:42:43.361455"
    }
  },
  {
    "type": "Feature",
    "geometry": {
       "type": "Point",
       "coordinates":  [ 121.512872,25.055107 ]
    },
    "properties": {
    "分區":"大同區",
    "商圈名稱":"朝陽服飾材料(商圈)",
    "組織或里辦公處":"台北市朝陽服飾材料街區發展協會",
    "組織代表":"張宮本",
    "職稱":"",
    "聯絡電話":"02-2558-8111",
    "傳真":"",
    "商圈通訊地址":"臺北市大同區重慶北路二段46巷42-1號",
    "update_time":"2025-03-27 09:42:43.363007"
    }
  },
  {
    "type": "Feature",
    "geometry": {
       "type": "Point",
       "coordinates":  [ 121.513783,25.055284 ]
    },
    "properties": {
    "分區":"大同區",
    "商圈名稱":"朝陽服飾材料(商圈)",
    "組織或里辦公處":"台北市朝陽服飾材料街區發展協會",
    "組織代表":"周文彬",
    "職稱":"總幹事",
    "聯絡電話":"02-2552-3101",
    "傳真":"02-2556-4112",
    "商圈通訊地址":"臺北市重慶北路二段46巷6號一樓",
    "update_time":"2025-03-27 09:42:43.366375"
    }
  },
  {
    "type": "Feature",
    "geometry": {
       "type": "Point",
       "coordinates":  [ 121.50901,25.058216 ]
    },
    "properties": {
    "分區":"大同區",
    "商圈名稱":"迪化街(商圈)",
    "組織或里辦公處":"台北迪化商圈發展促進會",
    "組織代表":"鄭玟和",
    "職稱":"理事長",
    "聯絡電話":"02-2550-1390",
    "傳真":"02-2550-1390",
    "商圈通訊地址":"臺北市大同區歸綏街297號",
    "update_time":"2025-03-27 09:42:43.367925"
    }
  },
  {
    "type": "Feature",
    "geometry": {
       "type": "Point",
       "coordinates":  [ 121.509722,25.05722 ]
    },
    "properties": {
    "分區":"大同區",
    "商圈名稱":"迪化街(商圈)",
    "組織或里辦公處":"台北迪化商圈發展促進會",
    "組織代表":"徐慶棋",
    "職稱":"榮譽理事長",
    "聯絡電話":"02-2553-2270",
    "傳真":"02-2552-8287",
    "商圈通訊地址":"臺北市大同區迪化街一段130號",
    "update_time":"2025-03-27 09:42:43.369651"
    }
  },
  {
    "type": "Feature",
    "geometry": {
       "type": "Point",
       "coordinates":  [ 121.509879,25.05608 ]
    },
    "properties": {
    "分區":"大同區",
    "商圈名稱":"迪化街(商圈)",
    "組織或里辦公處":"台北迪化商圈發展促進會",
    "組織代表":"陳仕哲",
    "職稱":"總幹事",
    "聯絡電話":"02-2556-7868",
    "傳真":"",
    "商圈通訊地址":"臺北市大同區迪化街1段92號",
    "update_time":"2025-03-27 09:42:43.371206"
    }
  },
  {
    "type": "Feature",
    "geometry": {
       "type": "Point",
       "coordinates":  [ 121.509652,25.055422 ]
    },
    "properties": {
    "分區":"大同區",
    "商圈名稱":"迪化街(商圈)",
    "組織或里辦公處":"台北市大稻埕創意街區發展協會",
    "組織代表":"周佩蓉",
    "職稱":"理事長",
    "聯絡電話":"02-2556-9984、02-2550-2995",
    "傳真":"02-2555-2526",
    "商圈通訊地址":"臺北市大同區迪化街一段72巷8弄1號1樓",
    "update_time":"2025-03-27 09:42:43.372719"
    }
  },
  {
    "type": "Feature",
    "geometry": {
       "type": "Point",
       "coordinates":  [ 121.509874,25.053788 ]
    },
    "properties": {
    "分區":"大同區",
    "商圈名稱":"迪化街(商圈)",
    "組織或里辦公處":"台北市大稻埕創意街區發展協會",
    "組織代表":"游添明",
    "職稱":"榮譽理事長",
    "聯絡電話":"02-2556-9984",
    "傳真":"",
    "商圈通訊地址":"臺北市大同區南京西路239巷4號1樓",
    "update_time":"2025-03-27 09:42:43.374763"
    }
  },
  {
    "type": "Feature",
    "geometry": {
       "type": "Point",
       "coordinates":  [ 121.508824,25.061126 ]
    },
    "properties": {
    "分區":"大同區",
    "商圈名稱":"迪化街(商圈)",
    "組織或里辦公處":"臺北市大稻埕國際文藝協會",
    "組織代表":"吳宛芳",
    "職稱":"理事長",
    "聯絡電話":"02-2557-5003",
    "傳真":"",
    "商圈通訊地址":"北市迪化街一段280巷12弄1號",
    "update_time":"2025-03-27 09:42:43.379433"
    }
  },
  {
    "type": "Feature",
    "geometry": {
       "type": "Point",
       "coordinates":  [ 121.508824,25.061126 ]
    },
    "properties": {
    "分區":"大同區",
    "商圈名稱":"迪化街(商圈)",
    "組織或里辦公處":"臺北市大稻埕國際文藝協會",
    "組織代表":"施正文",
    "職稱":"副理事長",
    "聯絡電話":"02-2557-5003",
    "傳真":"",
    "商圈通訊地址":"北市迪化街一段280巷12弄1號",
    "update_time":"2025-03-27 09:42:43.381001"
    }
  },
  {
    "type": "Feature",
    "geometry": {
       "type": "Point",
       "coordinates":  [ 121.508824,25.061126 ]
    },
    "properties": {
    "分區":"大同區",
    "商圈名稱":"迪化街(商圈)",
    "組織或里辦公處":"臺北市大稻埕國際文藝協會",
    "組織代表":"陳惠美",
    "職稱":"總幹事",
    "聯絡電話":"02-2557-5003",
    "傳真":"",
    "商圈通訊地址":"北市迪化街一段280巷12弄1號",
    "update_time":"2025-03-27 09:42:43.382823"
    }
  },
  {
    "type": "Feature",
    "geometry": {
       "type": "Point",
       "coordinates":  [ 121.514009,25.050138 ]
    },
    "properties": {
    "分區":"大同區",
    "商圈名稱":"後站(商圈)",
    "組織或里辦公處":"台北後站批發商圈發展促進會",
    "組織代表":"許樹勳",
    "職稱":"榮譽理事長",
    "聯絡電話":"02-2555-0858\n02-2556-6888",
    "傳真":"02-2555-5961",
    "商圈通訊地址":"臺北市大同區重慶北路一段27巷15號1樓",
    "update_time":"2025-03-27 09:42:43.384568"
    }
  },
  {
    "type": "Feature",
    "geometry": {
       "type": "Point",
       "coordinates":  [ 121.514009,25.050138 ]
    },
    "properties": {
    "分區":"大同區",
    "商圈名稱":"後站(商圈)",
    "組織或里辦公處":"台北後站批發商圈發展促進會",
    "組織代表":"黃惠珍",
    "職稱":"理事長",
    "聯絡電話":"02-2559-4495",
    "傳真":"02-2550-8367",
    "商圈通訊地址":"台北市大同區重慶北路一段27巷15號1樓",
    "update_time":"2025-03-27 09:42:43.386266"
    }
  },
  {
    "type": "Feature",
    "geometry": {
       "type": "Point",
       "coordinates":  [ 121.515255,25.050982 ]
    },
    "properties": {
    "分區":"大同區",
    "商圈名稱":"後站(商圈)",
    "組織或里辦公處":"台北後站批發商圈發展促進會",
    "組織代表":"鍾昕芸",
    "職稱":"總幹事",
    "聯絡電話":"02-2559-5410",
    "傳真":"02-2558-6377",
    "商圈通訊地址":"臺北市大同區太原路54號3樓",
    "update_time":"2025-03-27 09:42:43.388249"
    }
  },
  {
    "type": "Feature",
    "geometry": {
       "type": "Point",
       "coordinates":  [ 121.513555,25.050861 ]
    },
    "properties": {
    "分區":"大同區",
    "商圈名稱":"華陰街(商圈)",
    "組織或里辦公處":"台北市華陰街徒步區北車商圈發展協會",
    "組織代表":"李永進",
    "職稱":"榮譽理事長",
    "聯絡電話":"02-2559-2500#101",
    "傳真":"02-2559-5227",
    "商圈通訊地址":"臺北市大同區重慶北路一段30號6樓",
    "update_time":"2025-03-27 09:42:43.390230"
    }
  },
  {
    "type": "Feature",
    "geometry": {
       "type": "Point",
       "coordinates":  [ 121.514225,25.050845 ]
    },
    "properties": {
    "分區":"大同區",
    "商圈名稱":"華陰街(商圈)",
    "組織或里辦公處":"台北市華陰街徒步區北車商圈發展協會",
    "組織代表":"黃世輝",
    "職稱":"理事長",
    "聯絡電話":"02-2558-9771",
    "傳真":"02-2556-5021",
    "商圈通訊地址":"103015 台北市大同區華陰街217號 ",
    "update_time":"2025-03-27 09:42:43.391892"
    }
  },
  {
    "type": "Feature",
    "geometry": {
       "type": "Point",
       "coordinates":  [ 121.514225,25.050845 ]
    },
    "properties": {
    "分區":"大同區",
    "商圈名稱":"華陰街(商圈)",
    "組織或里辦公處":"台北市華陰街徒步區北車商圈發展協會",
    "組織代表":"黃章寬",
    "職稱":"理事",
    "聯絡電話":"02-2558-9771",
    "傳真":"02-2556-5021",
    "商圈通訊地址":"103015 台北市大同區華陰街217號",
    "update_time":"2025-03-27 09:42:43.393543"
    }
  },
  {
    "type": "Feature",
    "geometry": {
       "type": "Point",
       "coordinates":  [ 121.514225,25.050845 ]
    },
    "properties": {
    "分區":"大同區",
    "商圈名稱":"華陰街(商圈)",
    "組織或里辦公處":"台北市華陰街徒步區北車商圈發展協會",
    "組織代表":"許伯瑜",
    "職稱":"總幹事",
    "聯絡電話":"02-2559-2500#601",
    "傳真":"02-2559-5227",
    "商圈通訊地址":"103015 台北市大同區華陰街217號",
    "update_time":"2025-03-27 09:42:43.395196"
    }
  },
  {
    "type": "Feature",
    "geometry": {
       "type": "Point",
       "coordinates":  [ 121.514714,25.072906 ]
    },
    "properties": {
    "分區":"大同區",
    "商圈名稱":"大龍峒(商圈)",
    "組織或里辦公處":"台北市大龍峒人文商圈發展促進會",
    "組織代表":"張賦脈",
    "職稱":"理事長",
    "聯絡電話":"02-2591-0582",
    "傳真":"(02)25910019",
    "商圈通訊地址":"臺北市大同區哈密街96號",
    "update_time":"2025-03-27 09:42:43.396624"
    }
  },
  {
    "type": "Feature",
    "geometry": {
       "type": "Point",
       "coordinates":  [ 121.510835,25.06756 ]
    },
    "properties": {
    "分區":"大同區",
    "商圈名稱":"臺北大橋頭延三(商圈)",
    "組織或里辦公處":"台北大橋頭延三商圈發展促進會",
    "組織代表":"施懿珊",
    "職稱":"理事長",
    "聯絡電話":"02-2585-3129",
    "傳真":"02-2598-7369",
    "商圈通訊地址":"臺北市延平北路3段124號",
    "update_time":"2025-03-27 09:42:43.399807"
    }
  },
  {
    "type": "Feature",
    "geometry": {
       "type": "Point",
       "coordinates":  [ 121.510835,25.06756 ]
    },
    "properties": {
    "分區":"大同區",
    "商圈名稱":"臺北大橋頭延三(商圈)",
    "組織或里辦公處":"台北大橋頭延三商圈發展促進會",
    "組織代表":"陳穎慧",
    "職稱":"榮譽理事長",
    "聯絡電話":"02-2585-3129",
    "傳真":"02-2598-7369",
    "商圈通訊地址":"臺北市延平北路3段124號",
    "update_time":"2025-03-27 09:42:43.401425"
    }
  },
  {
    "type": "Feature",
    "geometry": {
       "type": "Point",
       "coordinates":  [ 121.510835,25.06756 ]
    },
    "properties": {
    "分區":"大同區",
    "商圈名稱":"臺北大橋頭延三(商圈)",
    "組織或里辦公處":"台北大橋頭延三商圈發展促進會",
    "組織代表":"施木彬",
    "職稱":"總幹事",
    "聯絡電話":"02-2092-9503",
    "傳真":"02-2598-7369",
    "商圈通訊地址":"臺北市延平北路3段124號",
    "update_time":"2025-03-27 09:42:43.403071"
    }
  },
  {
    "type": "Feature",
    "geometry": {
       "type": "Point",
       "coordinates":  [ 121.515356,25.056647 ]
    },
    "properties": {
    "分區":"大同區",
    "商圈名稱":"寧夏夜市(商圈)",
    "組織或里辦公處":"台北市寧夏商圈發展協會",
    "組織代表":"林定國",
    "職稱":"理事長",
    "聯絡電話":"02-2558-0957",
    "傳真":"02-2558-0957",
    "商圈通訊地址":"臺北市大同區寧夏路58號2樓",
    "update_time":"2025-03-27 09:42:43.404483"
    }
  },
  {
    "type": "Feature",
    "geometry": {
       "type": "Point",
       "coordinates":  [ 121.511613,25.054834 ]
    },
    "properties": {
    "分區":"大同區",
    "商圈名稱":"寧夏夜市(商圈)",
    "組織或里辦公處":"台北市寧夏商圈發展協會",
    "組織代表":"陳彥同",
    "職稱":"總幹事",
    "聯絡電話":"02-2558-0957",
    "傳真":"02-2558-0957",
    "商圈通訊地址":"臺北市大同區延平北路2段34號1F",
    "update_time":"2025-03-27 09:42:43.406011"
    }
  },
  {
    "type": "Feature",
    "geometry": {
       "type": "Point",
       "coordinates":  [ 121.515356,25.056647 ]
    },
    "properties": {
    "分區":"大同區",
    "商圈名稱":"寧夏夜市(商圈)",
    "組織或里辦公處":"臺北市寧夏夜市觀光協會",
    "組織代表":"林定偉",
    "職稱":"理事長",
    "聯絡電話":"02-2558-0957",
    "傳真":"02-2549-1626",
    "商圈通訊地址":"臺北市大同區寧夏路58號2樓",
    "update_time":"2025-03-27 09:42:43.407595"
    }
  },
  {
    "type": "Feature",
    "geometry": {
       "type": "Point",
       "coordinates":  [ 121.511613,25.054834 ]
    },
    "properties": {
    "分區":"大同區",
    "商圈名稱":"寧夏夜市(商圈)",
    "組織或里辦公處":"臺北市寧夏夜市觀光協會",
    "組織代表":"黃大昌",
    "職稱":"總幹事",
    "聯絡電話":"02-2558-0957",
    "傳真":"02-2558-0957",
    "商圈通訊地址":"臺北市大同區延平北路2段34號1F",
    "update_time":"2025-03-27 09:42:43.409089"
    }
  },
  {
    "type": "Feature",
    "geometry": {
       "type": "Point",
       "coordinates":  [ 121.51967,25.069863 ]
    },
    "properties": {
    "分區":"大同區",
    "商圈名稱":"圓山(商圈)",
    "組織或里辦公處":"台北市圓山商圈發展促進會",
    "組織代表":"呂映慈",
    "職稱":"理事長",
    "聯絡電話":"02-2599-2905",
    "傳真":"",
    "商圈通訊地址":"臺北市大同區酒泉街10巷25號 ",
    "update_time":"2025-03-27 09:42:43.410890"
    }
  },
  {
    "type": "Feature",
    "geometry": {
       "type": "Point",
       "coordinates":  [ 121.519503,25.068638 ]
    },
    "properties": {
    "分區":"大同區",
    "商圈名稱":"圓山(商圈)",
    "組織或里辦公處":"台北市圓山商圈發展促進會",
    "組織代表":"陳柏年",
    "職稱":"",
    "聯絡電話":"02-2599-2905",
    "傳真":"",
    "商圈通訊地址":"臺北市大同區民族西路33號",
    "update_time":"2025-03-27 09:42:43.412490"
    }
  },
  {
    "type": "Feature",
    "geometry": {
       "type": "Point",
       "coordinates":  [ 121.51967,25.069863 ]
    },
    "properties": {
    "分區":"大同區",
    "商圈名稱":"圓山(商圈)",
    "組織或里辦公處":"台北市圓山商圈發展促進會",
    "組織代表":"郭沛琳",
    "職稱":"秘書",
    "聯絡電話":"02-25851913",
    "傳真":"",
    "商圈通訊地址":"臺北市大同區酒泉街10巷25號",
    "update_time":"2025-03-27 09:42:43.413993"
    }
  },
  {
    "type": "Feature",
    "geometry": {
       "type": "Point",
       "coordinates":  [ 121.519655,25.069647 ]
    },
    "properties": {
    "分區":"大同區",
    "商圈名稱":"圓山(商圈)",
    "組織或里辦公處":"台北市圓山商圈發展促進會",
    "組織代表":"楊秀龍",
    "職稱":"總幹事",
    "聯絡電話":"02-2585-1913",
    "傳真":"",
    "商圈通訊地址":"台北市大同區民族西路31巷36號",
    "update_time":"2025-03-27 09:42:43.415552"
    }
  },
  {
    "type": "Feature",
    "geometry": {
       "type": "Point",
       "coordinates":  [ 121.51967,25.069863 ]
    },
    "properties": {
    "分區":"大同區",
    "商圈名稱":"圓山(商圈)",
    "組織或里辦公處":"台北市圓山商圈發展促進會",
    "組織代表":"劉麗足",
    "職稱":"副總幹事",
    "聯絡電話":"02-2585-1913",
    "傳真":"",
    "商圈通訊地址":"台北市大同區酒泉街10巷25號",
    "update_time":"2025-03-27 09:42:43.417095"
    }
  },
  {
    "type": "Feature",
    "geometry": {
       "type": "Point",
       "coordinates":  [ 121.519503,25.068638 ]
    },
    "properties": {
    "分區":"大同區",
    "商圈名稱":"圓山(商圈)",
    "組織或里辦公處":"台北市圓山商圈發展促進會",
    "組織代表":"張仲岳",
    "職稱":"秘書",
    "聯絡電話":"02-2585-1913",
    "傳真":"",
    "商圈通訊地址":"臺北市大同區民族西路33號",
    "update_time":"2025-03-27 09:42:43.418630"
    }
  },
  {
    "type": "Feature",
    "geometry": {
       "type": "Point",
       "coordinates":  [ 121.518953,25.070519 ]
    },
    "properties": {
    "分區":"大同區",
    "商圈名稱":"圓山(商圈)",
    "組織或里辦公處":"台北市至聖花博商圈協進會",
    "組織代表":"陳玟君",
    "職稱":"榮譽理事長",
    "聯絡電話":"02-2586-2321",
    "傳真":"",
    "商圈通訊地址":"台北市大同區酒泉街34-3號",
    "update_time":"2025-03-27 09:42:43.420078"
    }
  },
  {
    "type": "Feature",
    "geometry": {
       "type": "Point",
       "coordinates":  [ 121.514968,25.069098 ]
    },
    "properties": {
    "分區":"大同區",
    "商圈名稱":"圓山(商圈)",
    "組織或里辦公處":"台北市至聖花博商圈協進會",
    "組織代表":"曾柏翔 ",
    "職稱":"理事長",
    "聯絡電話":"0989-822-588",
    "傳真":"",
    "商圈通訊地址":"臺北市民族西路187巷9號",
    "update_time":"2025-03-27 09:42:43.421532"
    }
  },
  {
    "type": "Feature",
    "geometry": {
       "type": "Point",
       "coordinates":  [ 121.519414,25.057088 ]
    },
    "properties": {
    "分區":"大同區",
    "商圈名稱":"赤峰",
    "組織或里辦公處":"臺北市赤峰商圈永續發展協會",
    "組織代表":"陳靜筠",
    "職稱":"理事長/里長",
    "聯絡電話":"02-2559-8984(里辦)",
    "傳真":"",
    "商圈通訊地址":"臺北市大同區赤峰街44巷13號1樓",
    "update_time":"2025-03-27 09:42:43.423022"
    }
  },
  {
    "type": "Feature",
    "geometry": {
       "type": "Point",
       "coordinates":  [ 121.511613,25.054834 ]
    },
    "properties": {
    "分區":"大同區",
    "商圈名稱":"圓環太平",
    "組織或里辦公處":"台北圓環太平永樂町商圈文創協會",
    "組織代表":"蘇武賢",
    "職稱":"理事長",
    "聯絡電話":"0987-879-377",
    "傳真":"",
    "商圈通訊地址":"臺北市大同區延平北路二段34號1樓",
    "update_time":"2025-03-27 09:42:43.424420"
    }
  },
  {
    "type": "Feature",
    "geometry": {
       "type": "Point",
       "coordinates":  [ 121.578492,25.080357 ]
    },
    "properties": {
    "分區":"內湖區",
    "商圈名稱":"內湖737(商圈)",
    "組織或里辦公處":"臺北市內湖737商店街促進會",
    "組織代表":"吳上煊",
    "職稱":"理事長",
    "聯絡電話":"02-8797-5933",
    "傳真":"",
    "商圈通訊地址":"臺北市內湖路一段737 巷38 弄2 號B1",
    "update_time":"2025-03-27 09:42:43.425906"
    }
  },
  {
    "type": "Feature",
    "geometry": {
       "type": "Point",
       "coordinates":  [ 121.578492,25.080357 ]
    },
    "properties": {
    "分區":"內湖區",
    "商圈名稱":"內湖737(商圈)",
    "組織或里辦公處":"臺北市內湖737商店街促進會",
    "組織代表":"張修敏",
    "職稱":"榮譽理事長",
    "聯絡電話":"02-2657-1072",
    "傳真":"",
    "商圈通訊地址":"臺北市內湖路一段737 巷38 弄2 號B1",
    "update_time":"2025-03-27 09:42:43.427331"
    }
  },
  {
    "type": "Feature",
    "geometry": {
       "type": "Point",
       "coordinates":  [ 121.578419,25.080328 ]
    },
    "properties": {
    "分區":"內湖區",
    "商圈名稱":"內湖737(商圈)",
    "組織或里辦公處":"臺北市內湖737商店街促進會",
    "組織代表":"葉素貞",
    "職稱":"常務理事",
    "聯絡電話":"02-2657-1072",
    "傳真":"",
    "商圈通訊地址":"內湖路一段737巷8弄23號",
    "update_time":"2025-03-27 09:42:43.428800"
    }
  },
  {
    "type": "Feature",
    "geometry": {
       "type": "Point",
       "coordinates":  [ 121.578917,25.080378 ]
    },
    "properties": {
    "分區":"內湖區",
    "商圈名稱":"內湖737(商圈)",
    "組織或里辦公處":"臺北市內湖737商店街促進會",
    "組織代表":"俞水木",
    "職稱":"常務理事",
    "聯絡電話":"02-2797-9395",
    "傳真":"",
    "商圈通訊地址":"內湖路一段737巷43號",
    "update_time":"2025-03-27 09:42:43.430379"
    }
  },
  {
    "type": "Feature",
    "geometry": {
       "type": "Point",
       "coordinates":  [ 121.567004,25.083625 ]
    },
    "properties": {
    "分區":"內湖區",
    "商圈名稱":"西湖(商圈)",
    "組織或里辦公處":"台北市西湖商圈促進會",
    "組織代表":"劉宜敏",
    "職稱":"理事長",
    "聯絡電話":"02-2798-9901",
    "傳真":"",
    "商圈通訊地址":"臺北市內湖區內湖路一段285巷31號",
    "update_time":"2025-03-27 09:42:43.431941"
    }
  },
  {
    "type": "Feature",
    "geometry": {
       "type": "Point",
       "coordinates":  [ 121.561944,25.029254 ]
    },
    "properties": {
    "分區":"信義區",
    "商圈名稱":"吳興街(商圈)",
    "組織或里辦公處":"臺北市吳興商圈發展促進會",
    "組織代表":"游新章",
    "職稱":"理事長",
    "聯絡電話":"02-2737-0194",
    "傳真":"",
    "商圈通訊地址":"臺北市信義區吳興街147號",
    "update_time":"2025-03-27 09:42:43.433397"
    }
  },
  {
    "type": "Feature",
    "geometry": {
       "type": "Point",
       "coordinates":  [ 121.579615,25.045795 ]
    },
    "properties": {
    "分區":"信義區",
    "商圈名稱":"五分埔(商圈)",
    "組織或里辦公處":"台北市五分埔商圈促進會(法人)",
    "組織代表":"陳永昌",
    "職稱":"理事長",
    "聯絡電話":"02-2764-1381",
    "傳真":"02-2760-2906",
    "商圈通訊地址":"臺北市永吉路517巷1弄10號",
    "update_time":"2025-03-27 09:42:43.434917"
    }
  },
  {
    "type": "Feature",
    "geometry": {
       "type": "Point",
       "coordinates":  [ 121.579615,25.045795 ]
    },
    "properties": {
    "分區":"信義區",
    "商圈名稱":"五分埔(商圈)",
    "組織或里辦公處":"台北市五分埔商圈促進會(法人)",
    "組織代表":"鄭慶良",
    "職稱":"理事長",
    "聯絡電話":"02-2764-1381",
    "傳真":"02-2760-2906",
    "商圈通訊地址":"臺北市永吉路517巷1弄10號",
    "update_time":"2025-03-27 09:42:43.437769"
    }
  },
  {
    "type": "Feature",
    "geometry": {
       "type": "Point",
       "coordinates":  [ 121.501245,25.023026 ]
    },
    "properties": {
    "分區":"萬華區",
    "商圈名稱":"加蚋(商圈)",
    "組織或里辦公處":"台北市加蚋商圈協會",
    "組織代表":"周孟儒",
    "職稱":"理事長",
    "聯絡電話":"02-2309-6099",
    "傳真":"",
    "商圈通訊地址":"臺北市萬華區長泰街7號1樓",
    "update_time":"2025-03-27 09:42:43.439241"
    }
  },
  {
    "type": "Feature",
    "geometry": {
       "type": "Point",
       "coordinates":  [ 121.501245,25.023026 ]
    },
    "properties": {
    "分區":"萬華區",
    "商圈名稱":"加蚋(商圈)",
    "組織或里辦公處":"台北市加蚋商圈協會",
    "組織代表":"黃文祈",
    "職稱":"理事",
    "聯絡電話":"02-2332-2229",
    "傳真":"",
    "商圈通訊地址":"臺北市萬華區長泰街7號1樓",
    "update_time":"2025-03-27 09:42:43.440850"
    }
  },
  {
    "type": "Feature",
    "geometry": {
       "type": "Point",
       "coordinates":  [ 121.498662,25.033774 ]
    },
    "properties": {
    "分區":"萬華區",
    "商圈名稱":"艋舺(商圈)",
    "組織或里辦公處":"台北市艋舺服飾商圈促進會",
    "組織代表":"林韋志",
    "職稱":"理事長",
    "聯絡電話":"02-2306-5869、02-2304-5160",
    "傳真":"89666283",
    "商圈通訊地址":"臺北市萬華區西園路一段282巷25號3樓之5",
    "update_time":"2025-03-27 09:42:43.442254"
    }
  },
  {
    "type": "Feature",
    "geometry": {
       "type": "Point",
       "coordinates":  [ 121.503398,25.034074 ]
    },
    "properties": {
    "分區":"萬華區",
    "商圈名稱":"艋舺(商圈)",
    "組織或里辦公處":"台北市艋舺服飾商圈促進會",
    "組織代表":"陳文豐",
    "職稱":"榮譽理事長",
    "聯絡電話":"02-2308-8500",
    "傳真":"02-2306-3399",
    "商圈通訊地址":"臺北市萬華區和平西路3段52巷23號",
    "update_time":"2025-03-27 09:42:43.443825"
    }
  },
  {
    "type": "Feature",
    "geometry": {
       "type": "Point",
       "coordinates":  [ 121.503398,25.034074 ]
    },
    "properties": {
    "分區":"萬華區",
    "商圈名稱":"艋舺(商圈)",
    "組織或里辦公處":"台北市艋舺服飾商圈促進會",
    "組織代表":"紹秀珠",
    "職稱":"總幹事",
    "聯絡電話":"02-2308-8500",
    "傳真":"02-2306-3399",
    "商圈通訊地址":"臺北市萬華區和平西路3段52巷23號",
    "update_time":"2025-03-27 09:42:43.445394"
    }
  },
  {
    "type": "Feature",
    "geometry": {
       "type": "Point",
       "coordinates":  [ 121.499056,25.038712 ]
    },
    "properties": {
    "分區":"萬華區",
    "商圈名稱":"艋舺(夜市)",
    "組織或里辦公處":"台北市艋舺夜市商圈發展促進會",
    "組織代表":"李昭成",
    "職稱":"理事長",
    "聯絡電話":"02-2331-9570",
    "傳真":"",
    "商圈通訊地址":"臺北市萬華區華西街21巷9號1樓",
    "update_time":"2025-03-27 09:42:43.446807"
    }
  },
  {
    "type": "Feature",
    "geometry": {
       "type": "Point",
       "coordinates":  [ 121.499056,25.038712 ]
    },
    "properties": {
    "分區":"萬華區",
    "商圈名稱":"艋舺(夜市)",
    "組織或里辦公處":"台北市艋舺夜市商圈發展促進會",
    "組織代表":"陳姿卉",
    "職稱":"總幹事",
    "聯絡電話":"02-2331-9570",
    "傳真":"",
    "商圈通訊地址":"臺北市萬華區華西街21巷9號",
    "update_time":"2025-03-27 09:42:43.448177"
    }
  },
  {
    "type": "Feature",
    "geometry": {
       "type": "Point",
       "coordinates":  [ 121.499056,25.038712 ]
    },
    "properties": {
    "分區":"萬華區",
    "商圈名稱":"艋舺(夜市)",
    "組織或里辦公處":"台北市艋舺夜市商圈發展促進會",
    "組織代表":"林許銀養",
    "職稱":"會計",
    "聯絡電話":"02-2331-9570",
    "傳真":"",
    "商圈通訊地址":"臺北市萬華區華西街21巷9號",
    "update_time":"2025-03-27 09:42:43.449621"
    }
  },
  {
    "type": "Feature",
    "geometry": {
       "type": "Point",
       "coordinates":  [ 121.50739,25.041803 ]
    },
    "properties": {
    "分區":"萬華區",
    "商圈名稱":"西門町(商圈)",
    "組織或里辦公處":"台北市西門徒步區街區發展促進會(法人)",
    "組織代表":"洪明通",
    "職稱":"榮譽理事長",
    "聯絡電話":"02-2375-4205",
    "傳真":"02-2375-4201",
    "商圈通訊地址":"臺北市萬華區漢中街135號11樓之1",
    "update_time":"2025-03-27 09:42:43.451121"
    }
  },
  {
    "type": "Feature",
    "geometry": {
       "type": "Point",
       "coordinates":  [ 121.50739,25.041803 ]
    },
    "properties": {
    "分區":"萬華區",
    "商圈名稱":"西門町(商圈)",
    "組織或里辦公處":"台北市西門徒步區街區發展促進會(法人)",
    "組織代表":"劉家鑫",
    "職稱":"榮譽理事長",
    "聯絡電話":"02-2375-4205",
    "傳真":"02-2375-4201",
    "商圈通訊地址":"臺北市萬華區漢中街135號11樓之1",
    "update_time":"2025-03-27 09:42:43.452425"
    }
  },
  {
    "type": "Feature",
    "geometry": {
       "type": "Point",
       "coordinates":  [ 121.50739,25.041803 ]
    },
    "properties": {
    "分區":"萬華區",
    "商圈名稱":"西門町(商圈)",
    "組織或里辦公處":"台北市西門徒步區街區發展促進會(法人)",
    "組織代表":"劉金龍",
    "職稱":"理事長",
    "聯絡電話":"02-2375-4205#11",
    "傳真":"02-2375-4201",
    "商圈通訊地址":"臺北市萬華區漢中街135號11樓之1",
    "update_time":"2025-03-27 09:42:43.453707"
    }
  },
  {
    "type": "Feature",
    "geometry": {
       "type": "Point",
       "coordinates":  [ 121.50739,25.041803 ]
    },
    "properties": {
    "分區":"萬華區",
    "商圈名稱":"西門町(商圈)",
    "組織或里辦公處":"台北市西門徒步區街區發展促進會(法人)",
    "組織代表":"林美文",
    "職稱":"總幹事",
    "聯絡電話":"02-2375-4205",
    "傳真":"02-2375-4201",
    "商圈通訊地址":"臺北市萬華區漢中街135號11樓之1",
    "update_time":"2025-03-27 09:42:43.455232"
    }
  },
  {
    "type": "Feature",
    "geometry": {
       "type": "Point",
       "coordinates":  [ 121.50237,25.036 ]
    },
    "properties": {
    "分區":"萬華區",
    "商圈名稱":"萬華",
    "組織或里辦公處":"臺北市萬華街區發展協會",
    "組織代表":"洪文和",
    "職稱":"理事長",
    "聯絡電話":"02-2306-5988#1",
    "傳真":"02-2306-7688",
    "商圈通訊地址":"臺北市萬華區三水街62號1樓",
    "update_time":"2025-03-27 09:42:43.456609"
    }
  },
  {
    "type": "Feature",
    "geometry": {
       "type": "Point",
       "coordinates":  [ 121.50237,25.036 ]
    },
    "properties": {
    "分區":"萬華區",
    "商圈名稱":"萬華",
    "組織或里辦公處":"臺北市萬華街區發展協會",
    "組織代表":"蔡寒筠",
    "職稱":"副理事長",
    "聯絡電話":"02-2304-5168",
    "傳真":"02-2306-7688",
    "商圈通訊地址":"臺北市萬華區三水街62號1樓",
    "update_time":"2025-03-27 09:42:43.458027"
    }
  },
  {
    "type": "Feature",
    "geometry": {
       "type": "Point",
       "coordinates":  [ 121.51934,25.033638 ]
    },
    "properties": {
    "分區":"中正區",
    "商圈名稱":"愛國東路婚紗(商圈)",
    "組織或里辦公處":"台北市愛國東路國際婚紗街發展協會",
    "組織代表":"李俊龍",
    "職稱":"理事長",
    "聯絡電話":"02-2351-2151",
    "傳真":"02-2321-4216",
    "商圈通訊地址":"台北市愛國東路68號",
    "update_time":"2025-03-27 09:42:43.459346"
    }
  },
  {
    "type": "Feature",
    "geometry": {
       "type": "Point",
       "coordinates":  [ 121.519938,25.046934 ]
    },
    "properties": {
    "分區":"中正區",
    "商圈名稱":"愛國東路婚紗(商圈)",
    "組織或里辦公處":"台北市愛國東路國際婚紗街發展協會",
    "組織代表":"麥燦文",
    "職稱":"榮譽理事長",
    "聯絡電話":"02-2598-2183",
    "傳真":"",
    "商圈通訊地址":"台北市中正區中山北路三段34號",
    "update_time":"2025-03-27 09:42:43.460703"
    }
  },
  {
    "type": "Feature",
    "geometry": {
       "type": "Point",
       "coordinates":  [ 121.512925,25.042757 ]
    },
    "properties": {
    "分區":"中正區",
    "商圈名稱":"沅陵街(商圈)",
    "組織或里辦公處":"台北市沅陵商店街促進會",
    "組織代表":"廖鴻昌",
    "職稱":"理事長",
    "聯絡電話":"02-2311-1606、02-2361-6133",
    "傳真":"02-2375-4275",
    "商圈通訊地址":"臺北市中正區沅陵街2號",
    "update_time":"2025-03-27 09:42:43.462095"
    }
  },
  {
    "type": "Feature",
    "geometry": {
       "type": "Point",
       "coordinates":  [ 121.512749,25.042857 ]
    },
    "properties": {
    "分區":"中正區",
    "商圈名稱":"沅陵街(商圈)",
    "組織或里辦公處":"台北市沅陵商店街促進會",
    "組織代表":"張渭隆",
    "職稱":"榮譽理事長",
    "聯絡電話":"02-2311-1606",
    "傳真":"",
    "商圈通訊地址":"臺北市沅陵街1之1號",
    "update_time":"2025-03-27 09:42:43.463640"
    }
  },
  {
    "type": "Feature",
    "geometry": {
       "type": "Point",
       "coordinates":  [ 121.512749,25.042857 ]
    },
    "properties": {
    "分區":"中正區",
    "商圈名稱":"沅陵街(商圈)",
    "組織或里辦公處":"台北市沅陵商店街促進會",
    "組織代表":"潘斌陞",
    "職稱":"常務理事",
    "聯絡電話":"",
    "傳真":"",
    "商圈通訊地址":"臺北市沅陵街1之1號",
    "update_time":"2025-03-27 09:42:43.464893"
    }
  },
  {
    "type": "Feature",
    "geometry": {
       "type": "Point",
       "coordinates":  [ 121.509676,25.045559 ]
    },
    "properties": {
    "分區":"中正區",
    "商圈名稱":"中華路影音(商圈)",
    "組織或里辦公處":"台北市新中華路影音電器街促進會",
    "組織代表":"黃意婷",
    "職稱":"理事長",
    "聯絡電話":"02-2381-2712",
    "傳真":"02-2381-4135",
    "商圈通訊地址":"台北市中正區中華路一段29之4號1樓",
    "update_time":"2025-03-27 09:42:43.466218"
    }
  },
  {
    "type": "Feature",
    "geometry": {
       "type": "Point",
       "coordinates":  [ 121.510206,25.045881 ]
    },
    "properties": {
    "分區":"中正區",
    "商圈名稱":"中華路影音(商圈)",
    "組織或里辦公處":"台北市新中華路影音電器街促進會",
    "組織代表":"曾郁翔",
    "職稱":"總幹事",
    "聯絡電話":"02-2382-5339",
    "傳真":"02-2381-8395",
    "商圈通訊地址":"台北市中正區開封街一段98號",
    "update_time":"2025-03-27 09:42:43.467537"
    }
  },
  {
    "type": "Feature",
    "geometry": {
       "type": "Point",
       "coordinates":  [ 121.511259,25.045567 ]
    },
    "properties": {
    "分區":"中正區",
    "商圈名稱":"北門相機(商圈)",
    "組織或里辦公處":"台北市北門相機商圈發展協會",
    "組織代表":"楊銘陽",
    "職稱":"",
    "聯絡電話":"02-2381-4769",
    "傳真":"02-2331-9428",
    "商圈通訊地址":"臺北市博愛路60號1樓",
    "update_time":"2025-03-27 09:42:43.468915"
    }
  },
  {
    "type": "Feature",
    "geometry": {
       "type": "Point",
       "coordinates":  [ 121.511259,25.045567 ]
    },
    "properties": {
    "分區":"中正區",
    "商圈名稱":"北門相機(商圈)",
    "組織或里辦公處":"台北市北門相機商圈發展協會",
    "組織代表":"楊純",
    "職稱":"理事長(現任)",
    "聯絡電話":"02-2314-2312",
    "傳真":"02-2314-2385",
    "商圈通訊地址":"臺北市中正區博愛路60號6樓之A左",
    "update_time":"2025-03-27 09:42:43.470275"
    }
  },
  {
    "type": "Feature",
    "geometry": {
       "type": "Point",
       "coordinates":  [ 121.511259,25.045567 ]
    },
    "properties": {
    "分區":"中正區",
    "商圈名稱":"北門相機(商圈)",
    "組織或里辦公處":"台北市北門相機商圈發展協會",
    "組織代表":"林永祥",
    "職稱":"榮譽理事長",
    "聯絡電話":"02-2381-4575",
    "傳真":"",
    "商圈通訊地址":"臺北市博愛路60號1樓",
    "update_time":"2025-03-27 09:42:43.471780"
    }
  },
  {
    "type": "Feature",
    "geometry": {
       "type": "Point",
       "coordinates":  [ 121.511259,25.045567 ]
    },
    "properties": {
    "分區":"中正區",
    "商圈名稱":"北門相機(商圈)",
    "組織或里辦公處":"台北市北門相機商圈發展協會",
    "組織代表":"林秀娟",
    "職稱":"常務監事",
    "聯絡電話":"02-2311-8331",
    "傳真":"",
    "商圈通訊地址":"臺北市博愛路60號1樓",
    "update_time":"2025-03-27 09:42:43.473319"
    }
  },
  {
    "type": "Feature",
    "geometry": {
       "type": "Point",
       "coordinates":  [ 121.511259,25.045567 ]
    },
    "properties": {
    "分區":"中正區",
    "商圈名稱":"北門相機(商圈)",
    "組織或里辦公處":"台北市北門相機商圈發展協會",
    "組織代表":"黃昱銘",
    "職稱":"總幹事",
    "聯絡電話":"",
    "傳真":"02-2381-3893",
    "商圈通訊地址":"臺北市博愛路60號1樓",
    "update_time":"2025-03-27 09:42:43.474892"
    }
  },
  {
    "type": "Feature",
    "geometry": {
       "type": "Point",
       "coordinates":  [ 121.513327,25.042929 ]
    },
    "properties": {
    "分區":"中正區",
    "商圈名稱":"重慶南路書店(商圈)",
    "組織或里辦公處":"台北市重南書街促進會",
    "組織代表":"沈榮裕",
    "職稱":"理事長",
    "聯絡電話":"02-2331-2666、02-2381-2033",
    "傳真":"02-2371-5525",
    "商圈通訊地址":"臺北市中正區重慶南路一段105號2樓",
    "update_time":"2025-03-27 09:42:43.476280"
    }
  },
  {
    "type": "Feature",
    "geometry": {
       "type": "Point",
       "coordinates":  [ 121.51335,25.044671 ]
    },
    "properties": {
    "分區":"中正區",
    "商圈名稱":"重慶南路書店(商圈)",
    "組織或里辦公處":"台北市重南書街促進會",
    "組織代表":"沈佳穎",
    "職稱":"秘書",
    "聯絡電話":"02-2331-2666",
    "傳真":"02-2371-5525",
    "商圈通訊地址":"台北市中正區重慶南路一段57號2樓",
    "update_time":"2025-03-27 09:42:43.479139"
    }
  },
  {
    "type": "Feature",
    "geometry": {
       "type": "Point",
       "coordinates":  [ 121.520495,25.027436 ]
    },
    "properties": {
    "分區":"中正區",
    "商圈名稱":"南昌家具(商圈)",
    "組織或里辦公處":"台北市南昌家具街發展協會(法人)",
    "組織代表":"黃世耀",
    "職稱":"理事長",
    "聯絡電話":"02- 2358-1227",
    "傳真":"02-2393-1516",
    "商圈通訊地址":"臺北市南昌路二段67號",
    "update_time":"2025-03-27 09:42:43.480472"
    }
  },
  {
    "type": "Feature",
    "geometry": {
       "type": "Point",
       "coordinates":  [ 121.531538,25.044691 ]
    },
    "properties": {
    "分區":"中正區",
    "商圈名稱":"大光華(商圈)",
    "組織或里辦公處":"台北市八德資訊商圈發展協會",
    "組織代表":"蔡若芸",
    "職稱":"理事長(現任)",
    "聯絡電話":"02-3322-2995",
    "傳真":"02-2394-8375",
    "商圈通訊地址":"臺北市中正區八德路一段43巷28號1樓",
    "update_time":"2025-03-27 09:42:43.481917"
    }
  },
  {
    "type": "Feature",
    "geometry": {
       "type": "Point",
       "coordinates":  [ 121.531538,25.044691 ]
    },
    "properties": {
    "分區":"中正區",
    "商圈名稱":"大光華(商圈)",
    "組織或里辦公處":"台北市八德資訊商圈發展協會",
    "組織代表":"蔡振乾",
    "職稱":"",
    "聯絡電話":"02- 2351-3290#1112",
    "傳真":"02-2394-8375",
    "商圈通訊地址":"臺北市中正區八德路一段43巷28號1樓",
    "update_time":"2025-03-27 09:42:43.483305"
    }
  },
  {
    "type": "Feature",
    "geometry": {
       "type": "Point",
       "coordinates":  [ 121.531538,25.044691 ]
    },
    "properties": {
    "分區":"中正區",
    "商圈名稱":"大光華(商圈)",
    "組織或里辦公處":"台北市八德資訊商圈發展協會",
    "組織代表":"陳明穗",
    "職稱":"秘書",
    "聯絡電話":"02- 2351-3290#1112",
    "傳真":"02-2394-8375",
    "商圈通訊地址":"臺北市中正區八德路一段43巷28號1樓",
    "update_time":"2025-03-27 09:42:43.484636"
    }
  },
  {
    "type": "Feature",
    "geometry": {
       "type": "Point",
       "coordinates":  [ 121.533728,25.014498 ]
    },
    "properties": {
    "分區":"中正區",
    "商圈名稱":"臺大公館(商圈)",
    "組織或里辦公處":"臺北市臺大公館商圈發展促進會",
    "組織代表":"林全義",
    "職稱":"理事長",
    "聯絡電話":"02-2367-1464",
    "傳真":"02-2368-2413",
    "商圈通訊地址":"臺北市中正區羅斯福路4段52巷16弄5號",
    "update_time":"2025-03-27 09:42:43.485997"
    }
  },
  {
    "type": "Feature",
    "geometry": {
       "type": "Point",
       "coordinates":  [ 121.531267,25.015872 ]
    },
    "properties": {
    "分區":"中正區",
    "商圈名稱":"臺大公館(商圈)",
    "組織或里辦公處":"臺北市臺大公館商圈發展促進會",
    "組織代表":"周麗華",
    "職稱":"榮譽理事長",
    "聯絡電話":"02-2367-1464",
    "傳真":"02-2365-8247",
    "商圈通訊地址":"臺北市中正區汀州路三段151號1樓",
    "update_time":"2025-03-27 09:42:43.487515"
    }
  },
  {
    "type": "Feature",
    "geometry": {
       "type": "Point",
       "coordinates":  [ 121.534813,25.012245 ]
    },
    "properties": {
    "分區":"中正區",
    "商圈名稱":"臺大公館(商圈)",
    "組織或里辦公處":"臺北市臺大公館商圈發展促進會",
    "組織代表":"萬瑞蘭",
    "職稱":"理事",
    "聯絡電話":"02-2367-1464",
    "傳真":"02-2365-8247",
    "商圈通訊地址":"臺北市中正區汀州路3段104巷73號",
    "update_time":"2025-03-27 09:42:43.488985"
    }
  },
  {
    "type": "Feature",
    "geometry": {
       "type": "Point",
       "coordinates":  [ 121.534813,25.012245 ]
    },
    "properties": {
    "分區":"中正區",
    "商圈名稱":"臺大公館(商圈)",
    "組織或里辦公處":"臺北市臺大公館商圈發展促進會",
    "組織代表":"高珮瑜",
    "職稱":"助理",
    "聯絡電話":"02-2367-1464",
    "傳真":"02-2365-8247",
    "商圈通訊地址":"臺北市中正區汀州路3段104巷73號",
    "update_time":"2025-03-27 09:42:43.490573"
    }
  },
  {
    "type": "Feature",
    "geometry": {
       "type": "Point",
       "coordinates":  [ 121.533728,25.014498 ]
    },
    "properties": {
    "分區":"中正區",
    "商圈名稱":"臺大公館(商圈)",
    "組織或里辦公處":"臺北市臺大公館商圈協會",
    "組織代表":"鄭碩文",
    "職稱":"創會理事長",
    "聯絡電話":"02-2368-4882",
    "傳真":"02-2368-2413",
    "商圈通訊地址":"臺北市中正區羅斯福路4段52巷16弄5號",
    "update_time":"2025-03-27 09:42:43.492030"
    }
  },
  {
    "type": "Feature",
    "geometry": {
       "type": "Point",
       "coordinates":  [ 121.533728,25.014498 ]
    },
    "properties": {
    "分區":"中正區",
    "商圈名稱":"臺大公館(商圈)",
    "組織或里辦公處":"臺北市臺大公館商圈協會",
    "組織代表":"李湘珍",
    "職稱":"榮譽理事長",
    "聯絡電話":"02-2365-6521",
    "傳真":"02-2368-2413",
    "商圈通訊地址":"臺北市中正區羅斯福路4段52巷16弄5號",
    "update_time":"2025-03-27 09:42:43.493577"
    }
  },
  {
    "type": "Feature",
    "geometry": {
       "type": "Point",
       "coordinates":  [ 121.533323,25.014223 ]
    },
    "properties": {
    "分區":"中正區",
    "商圈名稱":"臺大公館(商圈)",
    "組織或里辦公處":"臺北市臺大公館商圈協會",
    "組織代表":"林全義",
    "職稱":"理事長",
    "聯絡電話":"02-2369-0339",
    "傳真":"02-2368-2413",
    "商圈通訊地址":"臺北市中正區汀州路三段112號2樓",
    "update_time":"2025-03-27 09:42:43.495083"
    }
  },
  {
    "type": "Feature",
    "geometry": {
       "type": "Point",
       "coordinates":  [ 121.533728,25.014498 ]
    },
    "properties": {
    "分區":"中正區",
    "商圈名稱":"臺大公館(商圈)",
    "組織或里辦公處":"臺北市臺大公館商圈協會",
    "組織代表":"蔡美春",
    "職稱":"副理事長",
    "聯絡電話":"02-2369-8005",
    "傳真":"02-2368-2413",
    "商圈通訊地址":"臺北市中正區羅斯福路4段52巷16弄5號",
    "update_time":"2025-03-27 09:42:43.496618"
    }
  },
  {
    "type": "Feature",
    "geometry": {
       "type": "Point",
       "coordinates":  [ 121.511183,25.042162 ]
    },
    "properties": {
    "分區":"中正區",
    "商圈名稱":"榮町商圈",
    "組織或里辦公處":"臺北市中正區榮町商圈暨城內社區發展協會",
    "組織代表":"洪明通",
    "職稱":"理事長",
    "聯絡電話":"02-2361-8368",
    "傳真":"",
    "商圈通訊地址":"臺北市中正區衡陽路74號",
    "update_time":"2025-03-27 09:42:43.500748"
    }
  },
  {
    "type": "Feature",
    "geometry": {
       "type": "Point",
       "coordinates":  [ 121.511183,25.042162 ]
    },
    "properties": {
    "分區":"中正區",
    "商圈名稱":"榮町商圈",
    "組織或里辦公處":"臺北市中正區榮町商圈暨城內社區發展協會",
    "組織代表":"黃志浩",
    "職稱":"總幹事",
    "聯絡電話":"02-2361-8368",
    "傳真":"",
    "商圈通訊地址":"臺北市中正區衡陽路74號",
    "update_time":"2025-03-27 09:42:43.502174"
    }
  },
  {
    "type": "Feature",
    "geometry": {
       "type": "Point",
       "coordinates":  [ 121.525538,25.06433 ]
    },
    "properties": {
    "分區":"中山區",
    "商圈名稱":"晴光(商圈)",
    "組織或里辦公處":"臺北市晴光商圈雙城徒步街商業促進會",
    "組織代表":"李豐運",
    "職稱":"理事長",
    "聯絡電話":"02-2592-5899",
    "傳真":"",
    "商圈通訊地址":"臺北市中山區林森北路556號1樓",
    "update_time":"2025-03-27 09:42:43.503532"
    }
  },
  {
    "type": "Feature",
    "geometry": {
       "type": "Point",
       "coordinates":  [ 121.525538,25.06433 ]
    },
    "properties": {
    "分區":"中山區",
    "商圈名稱":"晴光(商圈)",
    "組織或里辦公處":"臺北市晴光商圈雙城徒步街商業促進會",
    "組織代表":"葉寶春",
    "職稱":"榮譽理事長",
    "聯絡電話":"02-2592-5899",
    "傳真":"02-2597-1839",
    "商圈通訊地址":"臺北市中山區林森北路556號1樓",
    "update_time":"2025-03-27 09:42:43.504956"
    }
  },
  {
    "type": "Feature",
    "geometry": {
       "type": "Point",
       "coordinates":  [ 121.525225,25.064522 ]
    },
    "properties": {
    "分區":"中山區",
    "商圈名稱":"晴光(商圈)",
    "組織或里辦公處":"臺北市晴光商圈雙城徒步街商業促進會",
    "組織代表":"林雪玉",
    "職稱":"理事長特助",
    "聯絡電話":"02-2591-1727",
    "傳真":"02-2597-1839",
    "商圈通訊地址":"臺北市雙城街17巷11號1樓",
    "update_time":"2025-03-27 09:42:43.506530"
    }
  },
  {
    "type": "Feature",
    "geometry": {
       "type": "Point",
       "coordinates":  [ 121.53448,25.053712 ]
    },
    "properties": {
    "分區":"中山區",
    "商圈名稱":"四平陽光(商圈)",
    "組織或里辦公處":"台北市四平商圈徒步區發展協會",
    "組織代表":"陳永成",
    "職稱":"理事長",
    "聯絡電話":"02-2501-8531",
    "傳真":"02-2501-8531",
    "商圈通訊地址":"臺北市四平街83號1樓",
    "update_time":"2025-03-27 09:42:43.507879"
    }
  },
  {
    "type": "Feature",
    "geometry": {
       "type": "Point",
       "coordinates":  [ 121.521676,25.053473 ]
    },
    "properties": {
    "分區":"中山區",
    "商圈名稱":"南西心中山",
    "組織或里辦公處":"臺北市南西心中山商圈發展協會",
    "組織代表":"李品濤",
    "職稱":"會長/理事長",
    "聯絡電話":"02-2596-7618",
    "傳真":"02-2596-9518",
    "商圈通訊地址":"臺北市中山區中山北路二段20巷6-1號4樓",
    "update_time":"2025-03-27 09:42:43.509331"
    }
  },
  {
    "type": "Feature",
    "geometry": {
       "type": "Point",
       "coordinates":  [ 121.595039,25.08389 ]
    },
    "properties": {
    "分區":"中山區",
    "商圈名稱":"民族濱江汽車",
    "組織或里辦公處":"台北市汽車協會(法人)",
    "組織代表":"許嘉濬",
    "職稱":"理事長",
    "聯絡電話":"02-2795-3799",
    "傳真":"02-2795-2077",
    "商圈通訊地址":"臺北市內湖區金湖路1號3樓",
    "update_time":"2025-03-27 09:42:43.510736"
    }
  },
  {
    "type": "Feature",
    "geometry": {
       "type": "Point",
       "coordinates":  [ 121.550665,25.083634 ]
    },
    "properties": {
    "分區":"中山區",
    "商圈名稱":"大直(商圈)",
    "組織或里辦公處":"台北市大直商圈發展協會",
    "組織代表":"曹邦全",
    "職稱":"理事長",
    "聯絡電話":"02-2532-1000#315",
    "傳真":"02-2532-1082",
    "商圈通訊地址":"臺北市中山區明水路659號1樓",
    "update_time":"2025-03-27 09:42:43.513638"
    }
  },
  {
    "type": "Feature",
    "geometry": {
       "type": "Point",
       "coordinates":  [ 121.54983,25.083051 ]
    },
    "properties": {
    "分區":"中山區",
    "商圈名稱":"大直(商圈)",
    "組織或里辦公處":"台北市大直商圈發展協會",
    "組織代表":"黃詠玲",
    "職稱":"秘書",
    "聯絡電話":"02-2532-1000#312",
    "傳真":"02-2532-1082",
    "商圈通訊地址":"臺北市中山區北安路630巷15號B1",
    "update_time":"2025-03-27 09:42:43.515011"
    }
  },
  {
    "type": "Feature",
    "geometry": {
       "type": "Point",
       "coordinates":  [ 121.54983,25.083051 ]
    },
    "properties": {
    "分區":"中山區",
    "商圈名稱":"大直(商圈)",
    "組織或里辦公處":"台北市大直商圈發展協會",
    "組織代表":"林長樂",
    "職稱":"會務召集",
    "聯絡電話":"02-2532-1000#312",
    "傳真":"02-2532-1082",
    "商圈通訊地址":"臺北市中山區北安路630巷15號B1",
    "update_time":"2025-03-27 09:42:43.516416"
    }
  },
  {
    "type": "Feature",
    "geometry": {
       "type": "Point",
       "coordinates":  [ 121.563089,25.050436 ]
    },
    "properties": {
    "分區":"中山區",
    "商圈名稱":"條通(商圈)",
    "組織或里辦公處":"臺北市條通商圈發展協會",
    "組織代表":"莊錫弘",
    "職稱":"理事長",
    "聯絡電話":"02-2562-6434",
    "傳真":"02-2592-7633",
    "商圈通訊地址":"台北市松山區八德路四段245巷52弄21號1樓",
    "update_time":"2025-03-27 09:42:43.517727"
    }
  },
  {
    "type": "Feature",
    "geometry": {
       "type": "Point",
       "coordinates":  [ 121.524821,25.050484 ]
    },
    "properties": {
    "分區":"中山區",
    "商圈名稱":"大正町商圈",
    "組織或里辦公處":"臺北市中山區大正町條通商圈暨社區發展協會",
    "組織代表":"吳美瑩",
    "職稱":"理事長",
    "聯絡電話":"02-2551-8951",
    "傳真":"",
    "商圈通訊地址":"臺北市中山區林森北路100號6樓之5",
    "update_time":"2025-03-27 09:42:43.519236"
    }
  },
  {
    "type": "Feature",
    "geometry": {
       "type": "Point",
       "coordinates":  [ 121.524992,25.050218 ]
    },
    "properties": {
    "分區":"中山區",
    "商圈名稱":"大正町商圈",
    "組織或里辦公處":"臺北市中山區大正町條通商圈暨社區發展協會",
    "組織代表":"陳大業",
    "職稱":"執行秘書",
    "聯絡電話":"02-2562-6434",
    "傳真":"02-2692-7633",
    "商圈通訊地址":"臺北市中山區林森北路105號5樓之2",
    "update_time":"2025-03-27 09:42:43.520705"
    }
  },
  {
    "type": "Feature",
    "geometry": {
       "type": "Point",
       "coordinates":  [ 121.515333,25.056563 ]
    },
    "properties": {
    "分區":"中山區",
    "商圈名稱":"中山北路",
    "組織或里辦公處":"臺北市中山北路婚紗商圈發展協會",
    "組織代表":"高志榮",
    "職稱":"理事長",
    "聯絡電話":"02-2592-7523",
    "傳真":"02-25923455",
    "商圈通訊地址":"臺北市大同區寧夏路54號",
    "update_time":"2025-03-27 09:42:43.522109"
    }
  },
  {
    "type": "Feature",
    "geometry": {
       "type": "Point",
       "coordinates":  [ 121.52234,25.063033 ]
    },
    "properties": {
    "分區":"中山區",
    "商圈名稱":"中山北路",
    "組織或里辦公處":"臺北市中山北路婚紗商圈發展協會",
    "組織代表":"胡秋惠",
    "職稱":"總幹事",
    "聯絡電話":"02-2586-3333",
    "傳真":"",
    "商圈通訊地址":"臺北市中山北路二段158號",
    "update_time":"2025-03-27 09:42:43.523458"
    }
  },
  {
    "type": "Feature",
    "geometry": {
       "type": "Point",
       "coordinates":  [ 121.563032,25.058278 ]
    },
    "properties": {
    "分區":"松山區",
    "商圈名稱":"民生社區",
    "組織或里辦公處":"台北市大民生地區商業發展促進會",
    "組織代表":"秦慧珠",
    "職稱":"理事長",
    "聯絡電話":"02-87863256",
    "傳真":"",
    "商圈通訊地址":"臺北市松山區民生東路五段178號2樓之1",
    "update_time":"2025-03-27 09:42:43.524957"
    }
  },
  {
    "type": "Feature",
    "geometry": {
       "type": "Point",
       "coordinates":  [ 121.563032,25.058278 ]
    },
    "properties": {
    "分區":"松山區",
    "商圈名稱":"民生社區",
    "組織或里辦公處":"台北市大民生地區商業發展促進會",
    "組織代表":"陳威璋",
    "職稱":"總幹事",
    "聯絡電話":"02-87863256",
    "傳真":"02-8786-3256",
    "商圈通訊地址":"臺北市松山區民生東路五段178號2樓之1",
    "update_time":"2025-03-27 09:42:43.526357"
    }
  },
  {
    "type": "Feature",
    "geometry": {
       "type": "Point",
       "coordinates":  [ 121.591787,24.968675 ]
    },
    "properties": {
    "分區":"文山區",
    "商圈名稱":"貓空(商圈)",
    "組織或里辦公處":"臺北市貓空休閒產業社區發展協會",
    "組織代表":"張振隆",
    "職稱":"理事長",
    "聯絡電話":"02-2939-5615",
    "傳真":"",
    "商圈通訊地址":"臺北市文山區指南路三段38巷37之1號1樓",
    "update_time":"2025-03-27 09:42:43.527948"
    }
  },
  {
    "type": "Feature",
    "geometry": {
       "type": "Point",
       "coordinates":  [ 121.591787,24.968675 ]
    },
    "properties": {
    "分區":"文山區",
    "商圈名稱":"貓空(商圈)",
    "組織或里辦公處":"臺北市貓空休閒產業社區發展協會",
    "組織代表":"張侑霖",
    "職稱":"總幹事",
    "聯絡電話":"02-2939-5615",
    "傳真":"02-2937-2525",
    "商圈通訊地址":"臺北市文山區指南路3段38巷37-1號1樓",
    "update_time":"2025-03-27 09:42:43.529745"
    }
  },
  {
    "type": "Feature",
    "geometry": {
       "type": "Point",
       "coordinates":  [ 121.580549,24.984411 ]
    },
    "properties": {
    "分區":"文山區",
    "商圈名稱":"貓空(商圈)",
    "組織或里辦公處":"臺北市貓空休閒產業社區發展協會",
    "組織代表":"張佳南",
    "職稱":"常務監事",
    "聯絡電話":"02-2234-2099",
    "傳真":"",
    "商圈通訊地址":"臺北市文山區指南路3段33巷34號",
    "update_time":"2025-03-27 09:42:43.531161"
    }
  },
  {
    "type": "Feature",
    "geometry": {
       "type": "Point",
       "coordinates":  [ 121.556121,24.999701 ]
    },
    "properties": {
    "分區":"文山區",
    "商圈名稱":"萬芳(商圈)",
    "組織或里辦公處":"臺北市萬芳商圈發展協會",
    "組織代表":"曾瑞城",
    "職稱":"理事長",
    "聯絡電話":"02-2935-5929",
    "傳真":"0920-664489",
    "商圈通訊地址":"臺北市文山區興隆路三段112巷2弄36號5樓",
    "update_time":"2025-03-27 09:42:43.532432"
    }
  },
  {
    "type": "Feature",
    "geometry": {
       "type": "Point",
       "coordinates":  [ 121.557002,24.999165 ]
    },
    "properties": {
    "分區":"文山區",
    "商圈名稱":"萬芳(商圈)",
    "組織或里辦公處":"臺北市萬芳商圈發展協會",
    "組織代表":"張容張",
    "職稱":"總幹事",
    "聯絡電話":"02-2935-5929",
    "傳真":"",
    "商圈通訊地址":"台北市文山區興隆路3段112巷2弄8號B1",
    "update_time":"2025-03-27 09:42:43.533673"
    }
  },
  {
    "type": "Feature",
    "geometry": {
       "type": "Point",
       "coordinates":  [ 121.529038,25.032246 ]
    },
    "properties": {
    "分區":"大安區",
    "商圈名稱":"永康(商圈)",
    "組織或里辦公處":"台北市永康國際商圈協進會",
    "組織代表":"李慶隆",
    "職稱":"理事長",
    "聯絡電話":"02-2324-6472",
    "傳真":"02-2391-7995",
    "商圈通訊地址":"台北市大安區麗水街3號2樓",
    "update_time":"2025-03-27 09:42:43.534966"
    }
  },
  {
    "type": "Feature",
    "geometry": {
       "type": "Point",
       "coordinates":  [ 121.541762,25.026937 ]
    },
    "properties": {
    "分區":"大安區",
    "商圈名稱":"永康(商圈)",
    "組織或里辦公處":"台北市永康國際商圈協進會",
    "組織代表":"劉珈均",
    "職稱":"副理事長",
    "聯絡電話":"",
    "傳真":"02-2391-7995",
    "商圈通訊地址":"台北市大安區和平東路二段175巷36號1樓",
    "update_time":"2025-03-27 09:42:43.536504"
    }
  },
  {
    "type": "Feature",
    "geometry": {
       "type": "Point",
       "coordinates":  [ 121.541762,25.026937 ]
    },
    "properties": {
    "分區":"大安區",
    "商圈名稱":"永康(商圈)",
    "組織或里辦公處":"台北市永康國際商圈協進會",
    "組織代表":"李岳陽",
    "職稱":"公關部部長",
    "聯絡電話":"02-2706-0100",
    "傳真":"02-2706-0150",
    "商圈通訊地址":"台北市大安區和平東路二段175巷36號1樓",
    "update_time":"2025-03-27 09:42:43.537979"
    }
  },
  {
    "type": "Feature",
    "geometry": {
       "type": "Point",
       "coordinates":  [ 121.529224,25.032389 ]
    },
    "properties": {
    "分區":"大安區",
    "商圈名稱":"永康(商圈)",
    "組織或里辦公處":"台北市東門永康商圈發展協會",
    "組織代表":"陳永通",
    "職稱":"",
    "聯絡電話":"02-2351-5793",
    "傳真":"02-2322-2687",
    "商圈通訊地址":"臺北市永康街8巷11號B1",
    "update_time":"2025-03-27 09:42:43.539530"
    }
  },
  {
    "type": "Feature",
    "geometry": {
       "type": "Point",
       "coordinates":  [ 121.529224,25.032389 ]
    },
    "properties": {
    "分區":"大安區",
    "商圈名稱":"永康(商圈)",
    "組織或里辦公處":"台北市東門永康商圈發展協會",
    "組織代表":"劉鴻翔",
    "職稱":"理事長",
    "聯絡電話":"02-2351-5793",
    "傳真":"02-2322-2687",
    "商圈通訊地址":"臺北市永康街8巷11號B1",
    "update_time":"2025-03-27 09:42:43.541127"
    }
  },
  {
    "type": "Feature",
    "geometry": {
       "type": "Point",
       "coordinates":  [ 121.529224,25.032389 ]
    },
    "properties": {
    "分區":"大安區",
    "商圈名稱":"永康(商圈)",
    "組織或里辦公處":"台北市東門永康商圈發展協會",
    "組織代表":"劉大薇",
    "職稱":"理事長特助",
    "聯絡電話":"02-2351-5793",
    "傳真":"02-2322-2687",
    "商圈通訊地址":"臺北市永康街8巷11號B1",
    "update_time":"2025-03-27 09:42:43.542606"
    }
  },
  {
    "type": "Feature",
    "geometry": {
       "type": "Point",
       "coordinates":  [ 121.52973,25.024191 ]
    },
    "properties": {
    "分區":"大安區",
    "商圈名稱":"龍泉(商圈)",
    "組織或里辦公處":"台北市師大社區文商協會",
    "組織代表":"孫茂荃",
    "職稱":"理事長",
    "聯絡電話":"02-8797-6128",
    "傳真":"",
    "商圈通訊地址":"臺北市大安區泰順街40巷34號地樓",
    "update_time":"2025-03-27 09:42:43.544005"
    }
  },
  {
    "type": "Feature",
    "geometry": {
       "type": "Point",
       "coordinates":  [ 121.529047,25.02421 ]
    },
    "properties": {
    "分區":"大安區",
    "商圈名稱":"龍泉(商圈)",
    "組織或里辦公處":"臺北市師大龍泉商圈促進會",
    "組織代表":"許勝雄",
    "職稱":"理事長",
    "聯絡電話":"02-2391-7383",
    "傳真":"",
    "商圈通訊地址":"臺北市大安區師大路49巷8號",
    "update_time":"2025-03-27 09:42:43.546803"
    }
  },
  {
    "type": "Feature",
    "geometry": {
       "type": "Point",
       "coordinates":  [ 121.528766,25.024709 ]
    },
    "properties": {
    "分區":"大安區",
    "商圈名稱":"龍泉(商圈)",
    "組織或里辦公處":"臺北市師大龍泉商圈促進會",
    "組織代表":"曾輝鵬",
    "職稱":"總幹事",
    "聯絡電話":"",
    "傳真":"",
    "商圈通訊地址":"台北市師大路39巷1號",
    "update_time":"2025-03-27 09:42:43.548417"
    }
  },
  {
    "type": "Feature",
    "geometry": {
       "type": "Point",
       "coordinates":  [ 121.555663,25.032239 ]
    },
    "properties": {
    "分區":"大安區",
    "商圈名稱":"文昌家具(商圈)",
    "組織或里辦公處":"台北市文昌家具街發展促進會",
    "組織代表":"劉松雄",
    "職稱":"理事長",
    "聯絡電話":"02-2707-4529",
    "傳真":"02-2707-3823",
    "商圈通訊地址":"臺北市大安區文昌街248號",
    "update_time":"2025-03-27 09:42:43.549834"
    }
  },
  {
    "type": "Feature",
    "geometry": {
       "type": "Point",
       "coordinates":  [ 121.545133,25.042708 ]
    },
    "properties": {
    "分區":"大安區",
    "商圈名稱":"東區商圈",
    "組織或里辦公處":"台北市東區商圈發展協會",
    "組織代表":"簡國維",
    "職稱":"理事長",
    "聯絡電話":"02-8771-6300",
    "傳真":"",
    "商圈通訊地址":"台北市大安區復興南路135巷17號5樓",
    "update_time":"2025-03-27 09:42:43.551422"
    }
  },
  {
    "type": "Feature",
    "geometry": {
       "type": "Point",
       "coordinates":  [ 121.545133,25.042708 ]
    },
    "properties": {
    "分區":"大安區",
    "商圈名稱":"東區商圈",
    "組織或里辦公處":"台北市東區商圈發展協會",
    "組織代表":"韓修和",
    "職稱":"榮譽理事長",
    "聯絡電話":"",
    "傳真":"",
    "商圈通訊地址":"台北市大安區復興南路135巷17號5樓",
    "update_time":"2025-03-27 09:42:43.552980"
    }
  },
  {
    "type": "Feature",
    "geometry": {
       "type": "Point",
       "coordinates":  [ 121.545133,25.042708 ]
    },
    "properties": {
    "分區":"大安區",
    "商圈名稱":"東區商圈",
    "組織或里辦公處":"台北市東區商圈發展協會",
    "組織代表":"章硯舒",
    "職稱":"秘書",
    "聯絡電話":"",
    "傳真":"",
    "商圈通訊地址":"台北市大安區復興南路135巷17號5樓",
    "update_time":"2025-03-27 09:42:43.554225"
    }
  },
  {
    "type": "Feature",
    "geometry": {
       "type": "Point",
       "coordinates":  [ 121.552328,25.043835 ]
    },
    "properties": {
    "分區":"大安區",
    "商圈名稱":"東區商圈",
    "組織或里辦公處":"臺北市大安區統領商圈暨社區發展協會",
    "組織代表":"溫進亮",
    "職稱":"理事長",
    "聯絡電話":"02-2771-6279",
    "傳真":"",
    "商圈通訊地址":"台北市大安區敦化南路一段161巷69弄4號2樓",
    "update_time":"2025-03-27 09:42:43.555616"
    }
  },
  {
    "type": "Feature",
    "geometry": {
       "type": "Point",
       "coordinates":  [ 121.552328,25.043835 ]
    },
    "properties": {
    "分區":"大安區",
    "商圈名稱":"東區商圈",
    "組織或里辦公處":"臺北市大安區統領商圈暨社區發展協會",
    "組織代表":"溫志雄",
    "職稱":"總幹事/里長",
    "聯絡電話":"02-2771-6279",
    "傳真":"",
    "商圈通訊地址":"台北市大安區敦化南路一段161巷69弄4號2樓",
    "update_time":"2025-03-27 09:42:43.557124"
    }
  },
  {
    "type": "Feature",
    "geometry": {
       "type": "Point",
       "coordinates":  [ 121.552328,25.043835 ]
    },
    "properties": {
    "分區":"大安區",
    "商圈名稱":"東區商圈",
    "組織或里辦公處":"臺北市大安區統領商圈暨社區發展協會",
    "組織代表":"劉湘琳",
    "職稱":"副秘書長",
    "聯絡電話":"02-2732-8031",
    "傳真":"",
    "商圈通訊地址":"台北市大安區敦化南路一段161巷69弄4號2樓",
    "update_time":"2025-03-27 09:42:43.558559"
    }
  },
  {
    "type": "Feature",
    "geometry": {
       "type": "Point",
       "coordinates":  [ 121.61671388164416,25.00250362936355 ]
    },
    "properties": {
    "分區":"深坑區",
    "商圈名稱":"新北市商圈聯合發展協會",
    "組織或里辦公處":"新北市商圈聯合發展協會",
    "組織代表":"黃建強",
    "職稱":"",
    "聯絡電話":"0939980090",
    "傳真":"",
    "商圈通訊地址":"新北市深坑區深坑街3巷2號2樓",
    "update_time":""
    }
  },
  {
    "type": "Feature",
    "geometry": {
       "type": "Point",
       "coordinates":  [ 121.34932917979336,24.952047144102128 ]
    },
    "properties": {
    "分區":"鶯歌區",
    "商圈名稱":"鶯歌商圈",
    "組織或里辦公處":"鶯歌商圈",
    "組織代表":"張素燕",
    "職稱":"",
    "聯絡電話":"0936170793",
    "傳真":"",
    "商圈通訊地址":"新北市鶯歌區重慶街69號",
    "update_time":""
    }
  },
  {
    "type": "Feature",
    "geometry": {
       "type": "Point",
       "coordinates":  [ 121.47216289514064,25.083472001141367 ]
    },
    "properties": {
    "分區":"蘆洲區",
    "商圈名稱":"蘆洲廟口商圈",
    "組織或里辦公處":"蘆洲廟口商圈",
    "組織代表":"林榮宗",
    "職稱":"",
    "聯絡電話":"0222839190",
    "傳真":"",
    "商圈通訊地址":"新北市蘆洲區得勝街131號",
    "update_time":""
    }
  },
  {
    "type": "Feature",
    "geometry": {
       "type": "Point",
       "coordinates":  [ 121.66049253746596,24.99109668898471 ]
    },
    "properties": {
    "分區":"石碇區",
    "商圈名稱":"石碇商圈",
    "組織或里辦公處":"石碇商圈",
    "組織代表":"林淑芳",
    "職稱":"",
    "聯絡電話":"0931277380",
    "傳真":"",
    "商圈通訊地址":"新北市石碇區石碇東街51號",
    "update_time":""
    }
  },
  {
    "type": "Feature",
    "geometry": {
       "type": "Point",
       "coordinates":  [ 121.5157937239734,25.01227393110324 ]
    },
    "properties": {
    "分區":"永和區",
    "商圈名稱":"韓國街商圈",
    "組織或里辦公處":"韓國街商圈",
    "組織代表":"彭守喜",
    "職稱":"",
    "聯絡電話":"0933223473",
    "傳真":"",
    "商圈通訊地址":"新北市永和區中興街9號",
    "update_time":""
    }
  },
  {
    "type": "Feature",
    "geometry": {
       "type": "Point",
       "coordinates":  [ 121.73854720863176,25.02463139830039 ]
    },
    "properties": {
    "分區":"平溪區",
    "商圈名稱":"平溪魅力商圈",
    "組織或里辦公處":"平溪魅力商圈",
    "組織代表":"王聖凱",
    "職稱":"",
    "聯絡電話":"0987091831",
    "傳真":"",
    "商圈通訊地址":"新北市平溪區靜安路2段390號",
    "update_time":""
    }
  },
  {
    "type": "Feature",
    "geometry": {
       "type": "Point",
       "coordinates":  [ 121.43903228165058,25.170538820075823 ]
    },
    "properties": {
    "分區":"淡水區",
    "商圈名稱":"淡水老街商圈",
    "組織或里辦公處":"淡水老街商圈",
    "組織代表":"盧育佑",
    "職稱":"",
    "聯絡電話":"0926377747",
    "傳真":"",
    "商圈通訊地址":"新北市淡水區中正路 11 巷 8 號",
    "update_time":""
    }
  },
  {
    "type": "Feature",
    "geometry": {
       "type": "Point",
       "coordinates":  [ 121.46071572397317,25.00813943765218 ]
    },
    "properties": {
    "分區":"板橋區",
    "商圈名稱":"板橋府中商圈",
    "組織或里辦公處":"板橋府中商圈",
    "組織代表":"劉朝翔",
    "職稱":"",
    "聯絡電話":"0955989330",
    "傳真":"",
    "商圈通訊地址":"新北市板橋區重慶路10號8樓",
    "update_time":""
    }
  },
  {
    "type": "Feature",
    "geometry": {
       "type": "Point",
       "coordinates":  [ 121.45022548164536,25.03296569831268 ]
    },
    "properties": {
    "分區":"新莊區",
    "商圈名稱":"新莊廟街商圈",
    "組織或里辦公處":"新莊廟街商圈",
    "組織代表":"孫松慶",
    "職稱":"",
    "聯絡電話":"0925095677",
    "傳真":"",
    "商圈通訊地址":"新北市新莊區武前街24號",
    "update_time":""
    }
  },
  {
    "type": "Feature",
    "geometry": {
       "type": "Point",
       "coordinates":  [ 121.36962980862816,24.933192929743385 ]
    },
    "properties": {
    "分區":"三峽區",
    "商圈名稱":"三峽民權老街商圈",
    "組織或里辦公處":"三峽民權老街商圈",
    "組織代表":"林豐斌",
    "職稱":"",
    "聯絡電話":"0913137323",
    "傳真":"",
    "商圈通訊地址":"新北市三峽區民權街75號",
    "update_time":""
    }
  },
  {
    "type": "Feature",
    "geometry": {
       "type": "Point",
       "coordinates":  [ 121.84360146630604,25.10863030824887 ]
    },
    "properties": {
    "分區":"瑞芳區",
    "商圈名稱":"九份老街商圈",
    "組織或里辦公處":"九份老街商圈",
    "組織代表":"蘇宗德",
    "職稱":"",
    "聯絡電話":"",
    "傳真":"",
    "商圈通訊地址":"新北市瑞芳區豎崎路15號",
    "update_time":""
    }
  },
  {
    "type": "Feature",
    "geometry": {
       "type": "Point",
       "coordinates":  [ 121.638885852817,25.221793709940645 ]
    },
    "properties": {
    "分區":"金山區",
    "商圈名稱":"金山商圈",
    "組織或里辦公處":"金山商圈",
    "組織代表":"羅國旺",
    "職稱":"",
    "聯絡電話":"0972163873",
    "傳真":"",
    "商圈通訊地址":"新北市金山區金包里街74號",
    "update_time":""
    }
  },
  {
    "type": "Feature",
    "geometry": {
       "type": "Point",
       "coordinates":  [ 121.61351925280842,24.999281675379443 ]
    },
    "properties": {
    "分區":"深坑區",
    "商圈名稱":"深坑老街商圈",
    "組織或里辦公處":"深坑老街商圈",
    "組織代表":"陳寶桂",
    "職稱":"",
    "聯絡電話":"0935142316",
    "傳真":"",
    "商圈通訊地址":"新北市深坑區昇高里文山路2段30巷28號",
    "update_time":""
    }
  },
  {
    "type": "Feature",
    "geometry": {
       "type": "Point",
       "coordinates":  [ 121.84642398192118,25.03160669650472 ]
    },
    "properties": {
    "分區":"雙溪區",
    "商圈名稱":"雙溪商圈",
    "組織或里辦公處":"雙溪商圈",
    "組織代表":"莊豪雄",
    "職稱":"",
    "聯絡電話":"0910090589",
    "傳真":"",
    "商圈通訊地址":"新北市雙溪區梅竹蹊67號",
    "update_time":""
    }
  },
  {
    "type": "Feature",
    "geometry": {
       "type": "Point",
       "coordinates":  [ 121.68968945096664,25.17998864589197 ]
    },
    "properties": {
    "分區":"萬里區",
    "商圈名稱":"萬里商圈",
    "組織或里辦公處":"萬里商圈",
    "組織代表":"林簿",
    "職稱":"",
    "聯絡電話":"",
    "傳真":"",
    "商圈通訊地址":"新北市萬里區瑪鋉路221號",
    "update_time":""
    }
  },
  {
    "type": "Feature",
    "geometry": {
       "type": "Point",
       "coordinates":  [ 121.55136243930978,24.863766303293712 ]
    },
    "properties": {
    "分區":"烏來區",
    "商圈名稱":"烏來商圈",
    "組織或里辦公處":"烏來商圈",
    "組織代表":"洪楊寶滿",
    "職稱":"",
    "聯絡電話":"0932066924",
    "傳真":"",
    "商圈通訊地址":"新北市烏來區烏來街34號",
    "update_time":""
    }
  },
  {
    "type": "Feature",
    "geometry": {
       "type": "Point",
       "coordinates":  [ 121.70869397979264,24.935193753030493 ]
    },
    "properties": {
    "分區":"坪林區",
    "商圈名稱":"坪林商圈",
    "組織或里辦公處":"坪林商圈",
    "組織代表":"高明富",
    "職稱":"",
    "聯絡電話":"0936207798",
    "傳真":"",
    "商圈通訊地址":"新北市坪林區北宜路8段217號",
    "update_time":""
    }
  },
  {
    "type": "Feature",
    "geometry": {
       "type": "Point",
       "coordinates":  [ 121.42403799514358,25.16061380636068 ]
    },
    "properties": {
    "分區":"八里區",
    "商圈名稱":"八里左岸商圈",
    "組織或里辦公處":"八里左岸商圈",
    "組織代表":"邱毓奇",
    "職稱":"",
    "聯絡電話":"0952775285",
    "傳真":"",
    "商圈通訊地址":"新北市八里區忠孝路133號1樓",
    "update_time":""
    }
  },
  {
    "type": "Feature",
    "geometry": {
       "type": "Point",
       "coordinates":  [ 121.48574380863396,25.082154540199596 ]
    },
    "properties": {
    "分區":"三重區",
    "商圈名稱":"三重碧華布街商圈",
    "組織或里辦公處":"三重碧華布街商圈",
    "組織代表":"張家偉",
    "職稱":"",
    "聯絡電話":"0935160188",
    "傳真":"",
    "商圈通訊地址":"新北市三重區碧華街113號",
    "update_time":""
    }
  },
  {
    "type": "Feature",
    "geometry": {
       "type": "Point",
       "coordinates":  [ 121.37138176629944,24.93517452567496 ]
    },
    "properties": {
    "分區":"三峽區",
    "商圈名稱":"三峽三角湧商圈",
    "組織或里辦公處":"三峽三角湧商圈",
    "組織代表":"顏明玉",
    "職稱":"",
    "聯絡電話":"0953348818",
    "傳真":"",
    "商圈通訊地址":"新北市三峽區民生街170號",
    "update_time":""
    }
  },
  {
    "type": "Feature",
    "geometry": {
       "type": "Point",
       "coordinates":  [ 121.37094126814816,24.93425812566974 ]
    },
    "properties": {
    "分區":"三峽區",
    "商圈名稱":"三峽秀川商圈",
    "組織或里辦公處":"三峽秀川商圈",
    "組織代表":"鄭志宏",
    "職稱":"",
    "聯絡電話":"0988633369",
    "傳真":"",
    "商圈通訊地址":"新北市三峽區忠孝街24號",
    "update_time":""
    }
  },
  {
    "type": "Feature",
    "geometry": {
       "type": "Point",
       "coordinates":  [ 121.50835855095902,24.98340602655619 ]
    },
    "properties": {
    "分區":"中和區",
    "商圈名稱":"中和華新街商圈",
    "組織或里辦公處":"中和華新街商圈",
    "組織代表":"張標材",
    "職稱":"",
    "聯絡電話":"0928515036",
    "傳真":"",
    "商圈通訊地址":"新北市中和區華新街92號",
    "update_time":""
    }
  },
  {
    "type": "Feature",
    "geometry": {
       "type": "Point",
       "coordinates":  [ 121.37779402397608,25.08107678753956 ]
    },
    "properties": {
    "分區":"林口區",
    "商圈名稱":"林口建城商圈",
    "組織或里辦公處":"林口建城商圈",
    "組織代表":"謝牡丹",
    "職稱":"",
    "聯絡電話":"0936269195",
    "傳真":"",
    "商圈通訊地址":"新北市林口區信義路206號13樓",
    "update_time":""
    }
  },
  {
    "type": "Feature",
    "geometry": {
       "type": "Point",
       "coordinates":  [ 121.68974309514437,25.1800177738959 ]
    },
    "properties": {
    "分區":"萬里區",
    "商圈名稱":"野柳商圈",
    "組織或里辦公處":"野柳商圈",
    "組織代表":"陳丕展",
    "職稱":"",
    "聯絡電話":"0915511838",
    "傳真":"",
    "商圈通訊地址":"新北市萬里區瑪鋉路221號",
    "update_time":""
    }
  },
  {
    "type": "Feature",
    "geometry": {
       "type": "Point",
       "coordinates":  [ 121.72311346630276,25.02371048240245 ]
    },
    "properties": {
    "分區":"平溪區",
    "商圈名稱":"菁桐商圈",
    "組織或里辦公處":"菁桐商圈",
    "組織代表":"李溫泉",
    "職稱":"",
    "聯絡電話":"0919391251",
    "傳真":"",
    "商圈通訊地址":"新北市平溪區菁桐街165號",
    "update_time":""
    }
  },
  {
    "type": "Feature",
    "geometry": {
       "type": "Point",
       "coordinates":  [ 121.4705336528116,25.08086555677676 ]
    },
    "properties": {
    "分區":"蘆洲區",
    "商圈名稱":"猴硐商圈",
    "組織或里辦公處":"猴硐商圈",
    "組織代表":"李盈序",
    "職稱":"",
    "聯絡電話":"0928881738",
    "傳真":"",
    "商圈通訊地址":"新北市蘆洲區中山二路182號3樓",
    "update_time":""
    }
  },
  {
    "type": "Feature",
    "geometry": {
       "type": "Point",
       "coordinates":  [ 121.44672452397522,25.05897781911544 ]
    },
    "properties": {
    "分區":"新莊區",
    "商圈名稱":"新莊副都心商圈",
    "組織或里辦公處":"新莊副都心商圈",
    "組織代表":"吳毓耕",
    "職稱":"",
    "聯絡電話":"0909123888",
    "傳真":"",
    "商圈通訊地址":"新北市新莊區新北大道4段135號22樓",
    "update_time":""
    }
  },
  {
    "type": "Feature",
    "geometry": {
       "type": "Point",
       "coordinates":  [ 121.45630218164396,24.99750407370544 ]
    },
    "properties": {
    "分區":"板橋區",
    "商圈名稱":"亞東商圈",
    "組織或里辦公處":"亞東商圈",
    "組織代表":"洪啟峰",
    "職稱":"",
    "聯絡電話":"0952382933",
    "傳真":"",
    "商圈通訊地址":"新北市板橋區四川路二段16巷10號5樓",
    "update_time":""
    }
  },
  {
    "type": "Feature",
    "geometry": {
       "type": "Point",
       "coordinates":  [ 121.80591889514166,25.109959946231108 ]
    },
    "properties": {
    "分區":"瑞芳區",
    "商圈名稱":"瑞芳老街商圈",
    "組織或里辦公處":"瑞芳老街商圈",
    "組織代表":"柯瑞和",
    "職稱":"",
    "聯絡電話":"0910140545",
    "傳真":"",
    "商圈通訊地址":"新北市瑞芳區瑞芳街50號",
    "update_time":""
    }
  },
  {
    "type": "Feature",
    "geometry": {
       "type": "Point",
       "coordinates":  [ 121.4349276816502,25.15874850948025 ]
    },
    "properties": {
    "分區":"八里區",
    "商圈名稱":"八里渡船頭商圈",
    "組織或里辦公處":"八里渡船頭商圈",
    "組織代表":"周曼芝",
    "職稱":"",
    "聯絡電話":"0939718127",
    "傳真":"",
    "商圈通訊地址":"新北市八里區渡船頭街20號",
    "update_time":""
    }
  },
  {
    "type": "Feature",
    "geometry": {
       "type": "Point",
       "coordinates":  [ 121.51179801047918,24.988684392993648 ]
    },
    "properties": {
    "分區":"中和區",
    "商圈名稱":"中和興南商圈",
    "組織或里辦公處":"中和興南商圈",
    "組織代表":"王貞云",
    "職稱":"",
    "聯絡電話":"0933123393",
    "傳真":"",
    "商圈通訊地址":"新北市中和區景新街418巷18弄10號1樓",
    "update_time":""
    }
  }
]
}