{
  "type": "FeatureCollection",
  "features": [
    {
      "type": "Feature",
      "properties": {
        "location": "新北投溫泉商圈",
        "number": 1,
        "district": "北投區",
        "shop": 122,
        "sales_amount": 1609.45
      },
      "geometry": {
        "type": "Polygon",
        "coordinates": [
          [
            [
              121.5038499,
              25.1372184
            ],
            [
              121.5050086,
              25.1384374
            ],
            [
              121.5049442,
              25.1385394
            ],
            [
              121.5064945,
              25.1398166
            ],
            [
              121.5065589,
              25.1400254
            ],
            [
              121.5062665,
              25.140681
            ],
            [
              121.5067815,
              25.1413074
            ],
            [
              121.5076076,
              25.1415114
            ],
            [
              121.5081655,
              25.141118
            ],
            [
              121.5088844,
              25.1410792
            ],
            [
              121.5093028,
              25.1410938
            ],
            [
              121.5103113,
              25.1410452
            ],
            [
              121.5107887,
              25.1412006
            ],
            [
              121.5115558,
              25.1412395
            ],
            [
              121.5123927,
              25.1415017
            ],
            [
              121.5127789,
              25.141492
            ],
            [
              121.5139697,
              25.1418562
            ],
            [
              121.5142702,
              25.1420504
            ],
            [
              121.5147101,
              25.1421281
            ],
            [
              121.5156435,
              25.1416959
            ],
            [
              121.5157455,
              25.1415794
            ],
            [
              121.5155899,
              25.1412152
            ],
            [
              121.5148764,
              25.1406373
            ],
            [
              121.5141576,
              25.1397923
            ],
            [
              121.5139001,
              25.1395155
            ],
            [
              121.5139752,
              25.138957
            ],
            [
              121.5139537,
              25.1386268
            ],
            [
              121.5153163,
              25.1383208
            ],
            [
              121.5166145,
              25.1380974
            ],
            [
              121.5170115,
              25.1379226
            ],
            [
              121.5167754,
              25.1375535
            ],
            [
              121.5161746,
              25.1369805
            ],
            [
              121.5161961,
              25.1366308
            ],
            [
              121.5163677,
              25.1359801
            ],
            [
              121.5161532,
              25.1356401
            ],
            [
              121.5147477,
              25.1359121
            ],
            [
              121.513546,
              25.1358344
            ],
            [
              121.5124624,
              25.1356401
            ],
            [
              121.5116792,
              25.1359024
            ],
            [
              121.511014,
              25.1360481
            ],
            [
              121.5101343,
              25.1358926
            ],
            [
              121.5091579,
              25.1360189
            ],
            [
              121.5083104,
              25.1356595
            ],
            [
              121.5075379,
              25.1354167
            ],
            [
              121.5066581,
              25.1352516
            ],
            [
              121.505199,
              25.135305
            ],
            [
              121.5041154,
              25.1356644
            ],
            [
              121.5038364,
              25.1362083
            ],
            [
              121.5038499,
              25.1372184
            ]
          ]
        ]
      },
      "id": 0
    },
    {
      "type": "Feature",
      "properties": {
        "location": "行義路溫泉美食商圈",
        "number": 2,
        "district": "北投區",
        "shop": 61,
        "sales_amount": 466.16
      },
      "geometry": {
        "type": "Polygon",
        "coordinates": [
          [
            [
              121.525801,
              25.144648
            ],
            [
              121.528661,
              25.144568
            ],
            [
              121.529238,
              25.126109
            ],
            [
              121.523362,
              25.118723
            ],
            [
              121.521546,
              25.120184
            ],
            [
              121.527356,
              25.128499
            ],
            [
              121.52568,
              25.144097
            ],
            [
              121.525801,
              25.144648
            ]
          ]
        ]
      },
      "id": 1
    },
    {
      "type": "Feature",
      "properties": {
        "location": "石牌捷運商圈",
        "number": 3,
        "district": "北投區",
        "shop": 299,
        "sales_amount": 2175.56
      },
      "geometry": {
        "type": "Polygon",
        "coordinates": [
          [
            [
              121.516956,
              25.112927
            ],
            [
              121.519406,
              25.118749
            ],
            [
              121.512663,
              25.119049
            ],
            [
              121.512172,
              25.118928
            ],
            [
              121.516363,
              25.112967
            ],
            [
              121.516956,
              25.112927
            ]
          ]
        ]
      }
    },
    {
      "type": "Feature",
      "properties": {
        "location": "士林捷運站周邊",
        "number": 4,
        "district": "士林區",
        "shop": 237,
        "sales_amount": 15896.64
      },
      "geometry": {
        "type": "Polygon",
        "coordinates": [
          [
            [
              121.5239846,
              25.0973296
            ],
            [
              121.5244459,
              25.0974461
            ],
            [
              121.5252988,
              25.0974364
            ],
            [
              121.5259426,
              25.0974267
            ],
            [
              121.5265756,
              25.0976065
            ],
            [
              121.5269779,
              25.0977328
            ],
            [
              121.5277021,
              25.0979076
            ],
            [
              121.52826,
              25.0959839
            ],
            [
              121.5284692,
              25.0950609
            ],
            [
              121.5284048,
              25.0938366
            ],
            [
              121.5283458,
              25.0934577
            ],
            [
              121.5270476,
              25.0927387
            ],
            [
              121.5264897,
              25.0924423
            ],
            [
              121.526082,
              25.0922092
            ],
            [
              121.5255402,
              25.0929087
            ],
            [
              121.5250896,
              25.0935597
            ],
            [
              121.5248911,
              25.0939435
            ],
            [
              121.5247195,
              25.0946334
            ],
            [
              121.5244244,
              25.0957021
            ],
            [
              121.5239846,
              25.0973296
            ]
          ]
        ]
      }
    },
    {
      "type": "Feature",
      "properties": {
        "location": "士林觀光夜市商圈",
        "number": 5,
        "district": "士林區",
        "shop": 296,
        "sales_amount": 1826.01
      },
      "geometry": {
        "type": "Polygon",
        "coordinates": [
          [
            [
              121.522691,
              25.089844
            ],
            [
              121.524236,
              25.091214
            ],
            [
              121.527433,
              25.091748
            ],
            [
              121.527368,
              25.088202
            ],
            [
              121.525587,
              25.085588
            ],
            [
              121.522937,
              25.089455
            ],
            [
              121.522691,
              25.089844
            ]
          ]
        ]
      }
    },
    {
      "type": "Feature",
      "properties": {
        "location": "天母商圈",
        "number": 6,
        "district": "天母區",
        "shop": 1858,
        "sales_amount": 41131.59
      },
      "geometry": {
        "type": "Polygon",
        "coordinates": [
          [
            [
              121.5240685,
              25.0998219
            ],
            [
              121.5233389,
              25.0996665
            ],
            [
              121.5224591,
              25.1005409
            ],
            [
              121.5210644,
              25.1016485
            ],
            [
              121.5191547,
              25.1033778
            ],
            [
              121.5190045,
              25.1035333
            ],
            [
              121.5199701,
              25.1040191
            ],
            [
              121.5214506,
              25.1065839
            ],
            [
              121.5214506,
              25.1087212
            ],
            [
              121.522781,
              25.1094207
            ],
            [
              121.5228668,
              25.1106253
            ],
            [
              121.5252559,
              25.1112
            ],
            [
              121.5259425,
              25.1122686
            ],
            [
              121.5260927,
              25.1130652
            ],
            [
              121.5252559,
              25.1149693
            ],
            [
              121.5253846,
              25.1158436
            ],
            [
              121.5239255,
              25.1173979
            ],
            [
              121.5240542,
              25.1181944
            ],
            [
              121.5248052,
              25.1200013
            ],
            [
              121.5251271,
              25.1201081
            ],
            [
              121.5256099,
              25.1202344
            ],
            [
              121.5259747,
              25.1206133
            ],
            [
              121.525921,
              25.1209435
            ],
            [
              121.5256314,
              25.1212932
            ],
            [
              121.5260498,
              25.12276
            ],
            [
              121.5266935,
              25.1235177
            ],
            [
              121.5276806,
              25.1236731
            ],
            [
              121.5287213,
              25.1236829
            ],
            [
              121.5297909,
              25.1242432
            ],
            [
              121.5299787,
              25.1249328
            ],
            [
              121.5299465,
              25.1256614
            ],
            [
              121.5310086,
              25.1257585
            ],
            [
              121.5318777,
              25.1253942
            ],
            [
              121.5326555,
              25.1249037
            ],
            [
              121.5331117,
              25.1244988
            ],
            [
              121.5332619,
              25.1242511
            ],
            [
              121.5333316,
              25.1233865
            ],
            [
              121.533176,
              25.122896
            ],
            [
              121.5331653,
              25.1226046
            ],
            [
              121.5333477,
              25.1220897
            ],
            [
              121.5328434,
              25.1208998
            ],
            [
              121.5331653,
              25.1201907
            ],
            [
              121.5335623,
              25.1197438
            ],
            [
              121.534206,
              25.119229
            ],
            [
              121.5346673,
              25.1182867
            ],
            [
              121.5382615,
              25.118345
            ],
            [
              121.5391842,
              25.1183061
            ],
            [
              121.539388,
              25.1140609
            ],
            [
              121.5400532,
              25.1108162
            ],
            [
              121.534324,
              25.1097282
            ],
            [
              121.5340441,
              25.1094695
            ],
            [
              121.5337008,
              25.1088672
            ],
            [
              121.5332073,
              25.1071379
            ],
            [
              121.5330356,
              25.106283
            ],
            [
              121.5332502,
              25.1048257
            ],
            [
              121.5332502,
              25.1041068
            ],
            [
              121.5337223,
              25.1030964
            ],
            [
              121.533615,
              25.1014642
            ],
            [
              121.5337008,
              25.1010561
            ],
            [
              121.5323061,
              25.1009395
            ],
            [
              121.5298599,
              25.1000651
            ],
            [
              121.5275425,
              25.1006481
            ],
            [
              121.5258688,
              25.1005898
            ],
            [
              121.5240685,
              25.0998219
            ]
          ]
        ]
      },
      "id": 5
    },
    {
      "type": "Feature",
      "properties": {
        "location": "承德路中古汽車商圈",
        "number": 7,
        "district": "天母區",
        "shop": 321,
        "sales_amount": 8554.03
      },
      "geometry": {
        "type": "Polygon",
        "coordinates": [
          [
            [
              121.499882,
              25.120603
            ],
            [
              121.510322,
              25.11094
            ],
            [
              121.512337,
              25.098992
            ],
            [
              121.515597,
              25.091321
            ],
            [
              121.521173,
              25.088796
            ],
            [
              121.522952,
              25.085014
            ],
            [
              121.521076,
              25.078958
            ],
            [
              121.521784,
              25.078548
            ],
            [
              121.52387,
              25.083835
            ],
            [
              121.523457,
              25.086181
            ],
            [
              121.520732,
              25.08962
            ],
            [
              121.516398,
              25.091574
            ],
            [
              121.513834,
              25.097549
            ],
            [
              121.513008,
              25.099667
            ],
            [
              121.511731,
              25.110723
            ],
            [
              121.500112,
              25.121253
            ],
            [
              121.499882,
              25.120603
            ]
          ]
        ]
      },
      "id": 6
    },
    {
      "type": "Feature",
      "properties": {
        "location": "朝陽服飾材料商圈",
        "number": 8,
        "district": "大同區",
        "shop": 276,
        "sales_amount": 3404.64
      },
      "geometry": {
        "type": "Polygon",
        "coordinates": [
          [
            [
              121.5116978,
              25.0554659
            ],
            [
              121.5117997,
              25.0539133
            ],
            [
              121.5139642,
              25.0540566
            ],
            [
              121.5142459,
              25.0540955
            ],
            [
              121.5142915,
              25.0541587
            ],
            [
              121.5138623,
              25.0559373
            ],
            [
              121.5125453,
              25.0556457
            ],
            [
              121.5125668,
              25.0555923
            ],
            [
              121.5116978,
              25.0554659
            ]
          ]
        ]
      }
    },
    {
      "type": "Feature",
      "properties": {
        "location": "迪化街商圈",
        "number": 9,
        "district": "大同區",
        "shop": 1425,
        "sales_amount": 14639.85
      },
      "geometry": {
        "type": "Polygon",
        "coordinates": [
          [
            [
              121.507585,
              25.0537075
            ],
            [
              121.5087222,
              25.0533867
            ],
            [
              121.5103315,
              25.0532604
            ],
            [
              121.5102672,
              25.0537852
            ],
            [
              121.5117799,
              25.0539018
            ],
            [
              121.511383,
              25.0605205
            ],
            [
              121.5112757,
              25.0627656
            ],
            [
              121.5088402,
              25.0632029
            ],
            [
              121.5085935,
              25.0619978
            ],
            [
              121.5084647,
              25.0607441
            ],
            [
              121.5084862,
              25.0594223
            ],
            [
              121.508454,
              25.057634
            ],
            [
              121.5074991,
              25.0537075
            ],
            [
              121.507585,
              25.0537075
            ]
          ]
        ]
      }
    },
    {
      "type": "Feature",
      "properties": {
        "location": "後站商圈",
        "number": 10,
        "district": "中正區",
        "shop": 338,
        "sales_amount": 7123.89
      },
      "geometry": {
        "type": "Polygon",
        "coordinates": [
          [
            [
              121.513882,
              25.0516714
            ],
            [
              121.5134314,
              25.0495234
            ],
            [
              121.5145901,
              25.0492707
            ],
            [
              121.5164569,
              25.0489111
            ],
            [
              121.5169826,
              25.0509425
            ],
            [
              121.513882,
              25.0516714
            ]
          ]
        ]
      }
    },
    {
      "type": "Feature",
      "properties": {
        "location": "華陰街商圈",
        "number": 11,
        "district": "大同區",
        "shop": 59,
        "sales_amount": 250.52
      },
      "geometry": {
        "type": "Polygon",
        "coordinates": [
          [
            [
              121.5137291,
              25.050711
            ],
            [
              121.5136916,
              25.0505458
            ],
            [
              121.5166661,
              25.0498751
            ],
            [
              121.5167117,
              25.0500622
            ],
            [
              121.5137291,
              25.050711
            ]
          ]
        ]
      }
    },
    {
      "type": "Feature",
      "properties": {
        "location": "大龍峒商圈",
        "number": 12,
        "district": "大同區",
        "shop": 143,
        "sales_amount": 5767.95
      },
      "geometry": {
        "type": "Polygon",
        "coordinates": [
          [
            [
              121.5139037,
              25.072995
            ],
            [
              121.513893,
              25.0719503
            ],
            [
              121.5162694,
              25.0718677
            ],
            [
              121.516602,
              25.0716636
            ],
            [
              121.5183454,
              25.0706432
            ],
            [
              121.5184259,
              25.071479
            ],
            [
              121.5185224,
              25.0718823
            ],
            [
              121.5187531,
              25.0724362
            ],
            [
              121.5190857,
              25.073063
            ],
            [
              121.5193271,
              25.0734517
            ],
            [
              121.5185654,
              25.0737627
            ],
            [
              121.517294,
              25.0738064
            ],
            [
              121.5173101,
              25.0734371
            ],
            [
              121.5163767,
              25.0734177
            ],
            [
              121.5160977,
              25.0731553
            ],
            [
              121.5157812,
              25.0731067
            ],
            [
              121.5149497,
              25.0730678
            ],
            [
              121.5139037,
              25.072995
            ]
          ]
        ]
      }
    },
    {
      "type": "Feature",
      "properties": {
        "location": "臺北大橋頭延三商圈",
        "number": 13,
        "district": "大同區",
        "shop": 108,
        "sales_amount": 907.01
      },
      "geometry": {
        "type": "Polygon",
        "coordinates": [
          [
            [
              121.508887,
              25.063538
            ],
            [
              121.511207,
              25.063115
            ],
            [
              121.510853,
              25.068635
            ],
            [
              121.509914,
              25.068691
            ],
            [
              121.509182,
              25.068713
            ],
            [
              121.508994,
              25.067146
            ],
            [
              121.508887,
              25.063538
            ]
          ]
        ]
      }
    },
    {
      "type": "Feature",
      "properties": {
        "location": "寧夏夜市商圈",
        "number": 14,
        "district": "大同區",
        "shop": 279,
        "sales_amount": 1563.28
      },
      "geometry": {
        "type": "Polygon",
        "coordinates": [
          [
            [
              121.513918,
              25.057052
            ],
            [
              121.518103,
              25.057367
            ],
            [
              121.518109,
              25.054807
            ],
            [
              121.517644,
              25.053371
            ],
            [
              121.51507,
              25.053958
            ],
            [
              121.514763,
              25.054235
            ],
            [
              121.513918,
              25.057052
            ]
          ]
        ]
      }
    },
    {
      "type": "Feature",
      "properties": {
        "location": "圓山商圈",
        "number": 15,
        "district": "中山區",
        "shop": 120,
        "sales_amount": 1262.48
      },
      "geometry": {
        "type": "Polygon",
        "coordinates": [
          [
            [
              121.5185561,
              25.071927
            ],
            [
              121.5184649,
              25.0685257
            ],
            [
              121.5228422,
              25.0683507
            ],
            [
              121.5236952,
              25.0717229
            ],
            [
              121.5205516,
              25.071961
            ],
            [
              121.5204765,
              25.0718881
            ],
            [
              121.5200206,
              25.0718978
            ],
            [
              121.5185561,
              25.071927
            ]
          ]
        ]
      }
    },
    {
      "type": "Feature",
      "properties": {
        "location": "愛國東路婚紗商圈",
        "number": 16,
        "district": "中正區",
        "shop": 12,
        "sales_amount": 248.46
      },
      "geometry": {
        "type": "Polygon",
        "coordinates": [
          [
            [
              121.5168506,
              25.0349167
            ],
            [
              121.5171081,
              25.0345668
            ],
            [
              121.5205628,
              25.0330017
            ],
            [
              121.5208096,
              25.0334537
            ],
            [
              121.5170169,
              25.0350771
            ],
            [
              121.5168506,
              25.0349167
            ]
          ]
        ]
      }
    },
    {
      "type": "Feature",
      "properties": {
        "location": "沅陵街商圈",
        "number": 17,
        "district": "中正區",
        "shop": 31,
        "sales_amount": 60.32
      },
      "geometry": {
        "type": "Polygon",
        "coordinates": [
          [
            [
              121.511515,
              25.042879
            ],
            [
              121.513176,
              25.042857
            ],
            [
              121.513168,
              25.042727
            ],
            [
              121.512246,
              25.042748
            ],
            [
              121.511527,
              25.042756
            ],
            [
              121.511515,
              25.042879
            ]
          ]
        ]
      }
    },
    {
      "type": "Feature",
      "properties": {
        "location": "中華路影音商圈",
        "number": 18,
        "district": "中正區",
        "shop": 224,
        "sales_amount": 5059.05
      },
      "geometry": {
        "type": "Polygon",
        "coordinates": [
          [
            [
              121.5099036,
              25.0469846
            ],
            [
              121.5095952,
              25.0463479
            ],
            [
              121.5096086,
              25.0461972
            ],
            [
              121.5094852,
              25.0456554
            ],
            [
              121.5093189,
              25.0450697
            ],
            [
              121.5114003,
              25.0450673
            ],
            [
              121.5113359,
              25.0459907
            ],
            [
              121.5107029,
              25.0459761
            ],
            [
              121.5110087,
              25.0470283
            ],
            [
              121.5100404,
              25.0469481
            ],
            [
              121.5099036,
              25.0469846
            ]
          ]
        ]
      }
    },
    {
      "type": "Feature",
      "properties": {
        "location": "北門相機商圈",
        "number": 19,
        "district": "中正區",
        "shop": 707,
        "sales_amount": 6685.07
      },
      "geometry": {
        "type": "Polygon",
        "coordinates": [
          [
            [
              121.511099,
              25.047691
            ],
            [
              121.511223,
              25.045064
            ],
            [
              121.514974,
              25.045053
            ],
            [
              121.515,
              25.046755
            ],
            [
              121.512984,
              25.047275
            ],
            [
              121.511099,
              25.047691
            ]
          ]
        ]
      }
    },
    {
      "type": "Feature",
      "properties": {
        "location": "重慶南路書店商圈",
        "number": 20,
        "district": "中正區",
        "shop": 310,
        "sales_amount": 4694.21
      },
      "geometry": {
        "type": "Polygon",
        "coordinates": [
          [
            [
              121.5130386,
              25.0472302
            ],
            [
              121.5129635,
              25.0424868
            ],
            [
              121.5127382,
              25.0408246
            ],
            [
              121.5132532,
              25.0407663
            ],
            [
              121.5134463,
              25.0423993
            ],
            [
              121.5135214,
              25.0471135
            ],
            [
              121.5130386,
              25.0472302
            ]
          ]
        ]
      }
    },
    {
      "type": "Feature",
      "properties": {
        "location": "南昌家具商圈",
        "number": 21,
        "district": "中正區"
      },
      "geometry": {
        "type": "Polygon",
        "coordinates": [
          [
            [
              121.5189818,
              25.0290067
            ],
            [
              121.5187297,
              25.0288657
            ],
            [
              121.5195773,
              25.0278401
            ],
            [
              121.5208755,
              25.0267805
            ],
            [
              121.5211759,
              25.026902
            ],
            [
              121.5207253,
              25.0273832
            ],
            [
              121.5206126,
              25.0278887
            ],
            [
              121.5197919,
              25.0286567
            ],
            [
              121.5194217,
              25.028438
            ],
            [
              121.5189818,
              25.0290067
            ]
          ]
        ]
      }
    },
    {
      "type": "Feature",
      "properties": {
        "location": "大光華商圈",
        "number": 22,
        "district": "中正區",
        "shop": 567,
        "sales_amount": 12315.99
      },
      "geometry": {
        "type": "Polygon",
        "coordinates": [
          [
            [
              121.5307729,
              25.0459747
            ],
            [
              121.5298341,
              25.0431413
            ],
            [
              121.5328919,
              25.0423199
            ],
            [
              121.5330099,
              25.0453721
            ],
            [
              121.5307729,
              25.0459747
            ]
          ]
        ]
      }
    },
    {
      "type": "Feature",
      "properties": {
        "location": "臺大公館商圈",
        "number": 23,
        "district": "大安區",
        "shop": 820,
        "sales_amount": 11235.27
      },
      "geometry": {
        "type": "Polygon",
        "coordinates": [
          [
            [
              121.5355886,
              25.0113814
            ],
            [
              121.5358676,
              25.0108661
            ],
            [
              121.5367688,
              25.0109828
            ],
            [
              121.5375735,
              25.0115953
            ],
            [
              121.5375949,
              25.0117703
            ],
            [
              121.536565,
              25.0132774
            ],
            [
              121.5358998,
              25.0140357
            ],
            [
              121.5347625,
              25.0149788
            ],
            [
              121.5333463,
              25.016301
            ],
            [
              121.5337862,
              25.0166802
            ],
            [
              121.5340973,
              25.0169135
            ],
            [
              121.5348698,
              25.0221149
            ],
            [
              121.5349127,
              25.0224065
            ],
            [
              121.5338935,
              25.0224065
            ],
            [
              121.5329494,
              25.0223385
            ],
            [
              121.5324558,
              25.0221537
            ],
            [
              121.531737,
              25.0218524
            ],
            [
              121.5308143,
              25.0211427
            ],
            [
              121.5286578,
              25.0191788
            ],
            [
              121.5275849,
              25.0182455
            ],
            [
              121.5273489,
              25.0179733
            ],
            [
              121.528454,
              25.0171469
            ],
            [
              121.5322091,
              25.0145316
            ],
            [
              121.5334,
              25.013744
            ],
            [
              121.5344621,
              25.0131218
            ],
            [
              121.5355886,
              25.0113814
            ]
          ]
        ]
      }
    },
    {
      "type": "Feature",
      "properties": {
        "location": "萬華街區商圈",
        "number": 24,
        "district": "萬華區",
        "shop": 698,
        "sales_amount": 26416.25
      },
      "geometry": {
        "type": "Polygon",
        "coordinates": [
          [
            [
              121.5032364,
              25.0352224
            ],
            [
              121.4944952,
              25.0354207
            ],
            [
              121.4972387,
              25.0385729
            ],
            [
              121.4978957,
              25.0401178
            ],
            [
              121.4984389,
              25.0406695
            ],
            [
              121.4995118,
              25.041452
            ],
            [
              121.5016951,
              25.0404994
            ],
            [
              121.5042593,
              25.040373
            ],
            [
              121.5060296,
              25.0406598
            ],
            [
              121.5075384,
              25.0404954
            ],
            [
              121.5063417,
              25.0358578
            ],
            [
              121.5061078,
              25.0352979
            ],
            [
              121.5057023,
              25.0347381
            ],
            [
              121.5046553,
              25.0339684
            ],
            [
              121.5032364,
              25.0352224
            ]
          ]
        ]
      }
    },
    {
      "type": "Feature",
      "properties": {
        "location": "艋舺商圈",
        "number": 25,
        "district": "萬華區",
        "shop": 107,
        "sales_amount": 496.4
      },
      "geometry": {
        "type": "Polygon",
        "coordinates": [
          [
            [
              121.4993502,
              25.0352465
            ],
            [
              121.4980627,
              25.0331808
            ],
            [
              121.4988996,
              25.0330884
            ],
            [
              121.4995701,
              25.0329863
            ],
            [
              121.5005304,
              25.0330204
            ],
            [
              121.5006591,
              25.0334286
            ],
            [
              121.5009005,
              25.0337543
            ],
            [
              121.5010614,
              25.0342355
            ],
            [
              121.5012277,
              25.0351492
            ],
            [
              121.4993502,
              25.0352465
            ]
          ]
        ]
      }
    },
    {
      "type": "Feature",
      "properties": {
        "location": "艋舺夜市商圈",
        "number": 26,
        "district": "萬華區",
        "shop": 58,
        "sales_amount": 349.79
      },
      "geometry": {
        "type": "Polygon",
        "coordinates": [
          [
            [
              121.497647,
              25.038482
            ],
            [
              121.500581,
              25.038456
            ],
            [
              121.50057,
              25.036654
            ],
            [
              121.49761,
              25.036722
            ],
            [
              121.49761,
              25.036722
            ],
            [
              121.497647,
              25.038482
            ]
          ]
        ]
      }
    },
    {
      "type": "Feature",
      "properties": {
        "location": "西門町商圈",
        "number": 27,
        "district": "萬華區",
        "shop": 1054,
        "sales_amount": 11974.57
      },
      "geometry": {
        "type": "Polygon",
        "coordinates": [
          [
            [
              121.50324,
              25.046252
            ],
            [
              121.502409,
              25.043575
            ],
            [
              121.508068,
              25.042097
            ],
            [
              121.509018,
              25.045178
            ],
            [
              121.509002,
              25.045368
            ],
            [
              121.503696,
              25.046602
            ],
            [
              121.50324,
              25.046252
            ]
          ]
        ]
      }
    },
    {
      "type": "Feature",
      "properties": {
        "location": "和平西路鳥鋪聚集區",
        "number": 28,
        "district": "萬華區",
        "shop": 1054,
        "sales_amount": 11974.57
      },
      "geometry": {
        "type": "Polygon",
        "coordinates": [
          [
            [
              121.50324,
              25.046252
            ],
            [
              121.502409,
              25.043575
            ],
            [
              121.508068,
              25.042097
            ],
            [
              121.509018,
              25.045178
            ],
            [
              121.509002,
              25.045368
            ],
            [
              121.503696,
              25.046602
            ],
            [
              121.50324,
              25.046252
            ]
          ]
        ]
      }
    },
    {
      "type": "Feature",
      "properties": {
        "location": "晴光商圈",
        "number": 29,
        "district": "中山區",
        "shop": 270,
        "sales_amount": 3386.57
      },
      "geometry": {
        "type": "Polygon",
        "coordinates": [
          [
            [
              121.522651,
              25.062916
            ],
            [
              121.52565,
              25.062862
            ],
            [
              121.52567,
              25.065035
            ],
            [
              121.522379,
              25.065183
            ],
            [
              121.522442,
              25.06422
            ],
            [
              121.522651,
              25.062916
            ]
          ]
        ]
      }
    },
    {
      "type": "Feature",
      "properties": {
        "location": "四平陽光商圈",
        "number": 30,
        "district": "中山區",
        "shop": 278,
        "sales_amount": 93389.59
      },
      "geometry": {
        "type": "Polygon",
        "coordinates": [
          [
            [
              121.534856,
              25.052112
            ],
            [
              121.53489,
              25.05477
            ],
            [
              121.533178,
              25.054819
            ],
            [
              121.533151,
              25.053624
            ],
            [
              121.533088,
              25.05211
            ],
            [
              121.534856,
              25.052112
            ]
          ]
        ]
      }
    },
    {
      "type": "Feature",
      "properties": {
        "location": "中山北路婚紗商圈",
        "number": 31,
        "district": "中山區",
        "shop": 530,
        "sales_amount": 20391.96
      },
      "geometry": {
        "type": "Polygon",
        "coordinates": [
          [
            [
              121.5225265,
              25.0684431
            ],
            [
              121.5221188,
              25.066655
            ],
            [
              121.5220545,
              25.0659747
            ],
            [
              121.5219794,
              25.0646627
            ],
            [
              121.5220545,
              25.063963
            ],
            [
              121.5223441,
              25.0631077
            ],
            [
              121.5225694,
              25.0618249
            ],
            [
              121.5226875,
              25.0607266
            ],
            [
              121.522548,
              25.0578887
            ],
            [
              121.5232239,
              25.0578304
            ],
            [
              121.5232668,
              25.0586954
            ],
            [
              121.5233419,
              25.0606489
            ],
            [
              121.5232132,
              25.0616402
            ],
            [
              121.5230415,
              25.0627093
            ],
            [
              121.5227733,
              25.0637783
            ],
            [
              121.5226445,
              25.0643614
            ],
            [
              121.5225802,
              25.0652264
            ],
            [
              121.522784,
              25.0670146
            ],
            [
              121.5231381,
              25.068414
            ],
            [
              121.5225265,
              25.0684431
            ]
          ]
        ]
      }
    },
    {
      "type": "Feature",
      "properties": {
        "location": "中山商圈",
        "number": 32,
        "district": "中山區",
        "shop": 677,
        "sales_amount": 20847.35
      },
      "geometry": {
        "type": "Polygon",
        "coordinates": [
          [
            [
              121.5222116,
              25.0685263
            ],
            [
              121.5223833,
              25.0523153
            ],
            [
              121.5278765,
              25.0521598
            ],
            [
              121.5280911,
              25.068468
            ],
            [
              121.5222116,
              25.0685263
            ]
          ]
        ]
      }
    },
    {
      "type": "Feature",
      "properties": {
        "location": "條通商圈",
        "number": 33,
        "district": "中山區",
        "shop": 1163,
        "sales_amount": 15897.45
      },
      "geometry": {
        "type": "Polygon",
        "coordinates": [
          [
            [
              121.522513,
              25.052126
            ],
            [
              121.527547,
              25.052022
            ],
            [
              121.528459,
              25.049526
            ],
            [
              121.52946,
              25.048185
            ],
            [
              121.528153,
              25.048324
            ],
            [
              121.521741,
              25.049855
            ],
            [
              121.522583,
              25.051884
            ],
            [
              121.522513,
              25.052126
            ]
          ]
        ]
      }
    },
    {
      "type": "Feature",
      "properties": {
        "location": "南西心中山",
        "number": 34,
        "district": "中山區",
        "shop": 801,
        "sales_amount": 21381.09
      },
      "geometry": {
        "type": "Polygon",
        "coordinates": [
          [
            [
              121.51824824964659,
              25.057310870807573
            ],
            [
              121.52277762633044,
              25.057935001632487
            ],
            [
              121.52253520900287,
              25.052144332432185
            ],
            [
              121.5215145043826,
              25.049867287757202
            ],
            [
              121.51711271571754,
              25.0509191258352
            ],
            [
              121.5182354907964,
              25.05489522340609
            ],
            [
              121.51824824964659,
              25.057310870807573
            ]
          ]
        ]
      }
    },
    {
      "type": "Feature",
      "properties": {
        "location": "吉林路美食",
        "number": 35,
        "district": "中山區",
        "shop": 356,
        "sales_amount": 5668.29
      },
      "geometry": {
        "type": "Polygon",
        "coordinates": [
          [
            [
              121.529498,
              25.062556
            ],
            [
              121.530855,
              25.062503
            ],
            [
              121.530817,
              25.058975
            ],
            [
              121.530608,
              25.054694
            ],
            [
              121.530678,
              25.052113
            ],
            [
              121.529685,
              25.052128
            ],
            [
              121.529648,
              25.056866
            ],
            [
              121.529669,
              25.062415
            ],
            [
              121.529498,
              25.062556
            ]
          ]
        ]
      }
    },
    {
      "type": "Feature",
      "properties": {
        "location": "中山國中捷運站周邊",
        "number": 36,
        "district": "松山區",
        "shop": 388,
        "sales_amount": 36282.0
      },
      "geometry": {
        "type": "Polygon",
        "coordinates": [
          [
            [
              121.540504,
              25.057897
            ],
            [
              121.544105,
              25.057862
            ],
            [
              121.544134,
              25.062112
            ],
            [
              121.543653,
              25.062283
            ],
            [
              121.540782,
              25.062283
            ],
            [
              121.540721,
              25.0597
            ],
            [
              121.540504,
              25.057897
            ]
          ]
        ]
      }
    },
    {
      "type": "Feature",
      "properties": {
        "location": "民族濱江汽車",
        "number": 37,
        "district": "中山區",
        "shop": 101,
        "sales_amount": 1448.67
      },
      "geometry": {
        "type": "Polygon",
        "coordinates": [
          [
            [
              121.533523,
              25.06804
            ],
            [
              121.541779,
              25.067797
            ],
            [
              121.544037,
              25.066252
            ],
            [
              121.544107,
              25.067273
            ],
            [
              121.54188,
              25.068424
            ],
            [
              121.533673,
              25.068565
            ],
            [
              121.533523,
              25.06804
            ]
          ]
        ]
      }
    },
    {
      "type": "Feature",
      "properties": {
        "location": "大直商圈",
        "number": 38,
        "district": "中山區",
        "shop": 650,
        "sales_amount": 59323.36
      },
      "geometry": {
        "type": "Polygon",
        "coordinates": [
          [
            [
              121.549527,
              25.084809
            ],
            [
              121.548101,
              25.080348
            ],
            [
              121.548661,
              25.079923
            ],
            [
              121.562987,
              25.080054
            ],
            [
              121.560687,
              25.084442
            ],
            [
              121.558973,
              25.084956
            ],
            [
              121.557105,
              25.084393
            ],
            [
              121.551836,
              25.085953
            ],
            [
              121.549527,
              25.084809
            ]
          ]
        ]
      }
    },
    {
      "type": "Feature",
      "properties": {
        "location": "東湖哈拉影城周邊",
        "number": 39,
        "district": "內湖區",
        "shop": 188,
        "sales_amount": 1214.92
      },
      "geometry": {
        "type": "Polygon",
        "coordinates": [
          [
            [
              121.611861,
              25.067731
            ],
            [
              121.615938,
              25.067023
            ],
            [
              121.617239,
              25.069837
            ],
            [
              121.61353,
              25.071218
            ],
            [
              121.611756,
              25.070013
            ],
            [
              121.612088,
              25.069329
            ],
            [
              121.612101,
              25.068436
            ],
            [
              121.611861,
              25.067731
            ]
          ]
        ]
      }
    },
    {
      "type": "Feature",
      "properties": {
        "location": "內湖量販店區",
        "number": 40,
        "district": "內湖區",
        "shop": 637,
        "sales_amount": 114764.11
      },
      "geometry": {
        "type": "Polygon",
        "coordinates": [
          [
            [
              121.583017,
              25.06059
            ],
            [
              121.574505,
              25.055821
            ],
            [
              121.573777,
              25.056975
            ],
            [
              121.572472,
              25.064837
            ],
            [
              121.578784,
              25.066734
            ],
            [
              121.580847,
              25.063738
            ],
            [
              121.583017,
              25.06059
            ]
          ]
        ]
      }
    },
    {
      "type": "Feature",
      "properties": {
        "location": "內湖737商圈",
        "number": 41,
        "district": "內湖區",
        "shop": 52,
        "sales_amount": 343.28
      },
      "geometry": {
        "type": "Polygon",
        "coordinates": [
          [
            [
              121.5769477,
              25.0795108
            ],
            [
              121.5791202,
              25.0786216
            ],
            [
              121.5797667,
              25.0788379
            ],
            [
              121.5795548,
              25.0793359
            ],
            [
              121.5797157,
              25.0795885
            ],
            [
              121.5797076,
              25.0802614
            ],
            [
              121.5796996,
              25.0803611
            ],
            [
              121.5789539,
              25.080519
            ],
            [
              121.5779588,
              25.0807692
            ],
            [
              121.5769477,
              25.0795108
            ]
          ]
        ]
      }
    },
    {
      "type": "Feature",
      "properties": {
        "location": "西湖商圈",
        "number": 42,
        "district": "內湖區",
        "shop": 2512,
        "sales_amount": 456246.8
      },
      "geometry": {
        "type": "Polygon",
        "coordinates": [
          [
            [
              121.559447,
              25.0849854
            ],
            [
              121.5597045,
              25.084519
            ],
            [
              121.5604555,
              25.0842858
            ],
            [
              121.5621506,
              25.0804961
            ],
            [
              121.5633308,
              25.0791745
            ],
            [
              121.5641033,
              25.0784749
            ],
            [
              121.5676653,
              25.0773671
            ],
            [
              121.5692531,
              25.0768812
            ],
            [
              121.5707337,
              25.076337
            ],
            [
              121.5717637,
              25.0747433
            ],
            [
              121.5721928,
              25.0741991
            ],
            [
              121.5735447,
              25.0747239
            ],
            [
              121.5745961,
              25.0752875
            ],
            [
              121.57642,
              25.0781834
            ],
            [
              121.5779864,
              25.0804766
            ],
            [
              121.5785228,
              25.0814289
            ],
            [
              121.5784799,
              25.0838971
            ],
            [
              121.5781581,
              25.0842663
            ],
            [
              121.5776216,
              25.084072
            ],
            [
              121.5736949,
              25.0856461
            ],
            [
              121.5709912,
              25.0866372
            ],
            [
              121.568073,
              25.0866567
            ],
            [
              121.5655839,
              25.0866178
            ],
            [
              121.56376,
              25.0867538
            ],
            [
              121.5625798,
              25.0869093
            ],
            [
              121.5612709,
              25.0866178
            ],
            [
              121.5602409,
              25.0860154
            ],
            [
              121.559447,
              25.0849854
            ]
          ]
        ]
      },
      "id": 41
    },
    {
      "type": "Feature",
      "properties": {
        "location": "民權水族聚集區",
        "number": 43,
        "district": "松山區",
        "shop": 118,
        "sales_amount": 922.13
      },
      "geometry": {
        "type": "Polygon",
        "coordinates": [
          [
            [
              121.562643,
              25.062874
            ],
            [
              121.566224,
              25.063279
            ],
            [
              121.566808,
              25.06174
            ],
            [
              121.567309,
              25.060998
            ],
            [
              121.565268,
              25.060063
            ],
            [
              121.56344,
              25.059775
            ],
            [
              121.562962,
              25.062853
            ],
            [
              121.562643,
              25.062874
            ]
          ]
        ]
      }
    },
    {
      "type": "Feature",
      "properties": {
        "location": "南京復興捷運站周邊",
        "number": 44,
        "district": "松山區",
        "shop": 1019,
        "sales_amount": 47212.01
      },
      "geometry": {
        "type": "Polygon",
        "coordinates": [
          [
            [
              121.544186,
              25.057961
            ],
            [
              121.548859,
              25.057947
            ],
            [
              121.548746,
              25.051828
            ],
            [
              121.544154,
              25.051916
            ],
            [
              121.544186,
              25.056518
            ],
            [
              121.544186,
              25.057961
            ]
          ]
        ]
      }
    },
    {
      "type": "Feature",
      "properties": {
        "location": "民生社區周邊",
        "number": 45,
        "district": "松山區",
        "shop": 970,
        "sales_amount": 27001.46
      },
      "geometry": {
        "type": "Polygon",
        "coordinates": [
          [
            [
              121.549344,
              25.058071
            ],
            [
              121.554965,
              25.058524
            ],
            [
              121.554465,
              25.060449
            ],
            [
              121.565259,
              25.061296
            ],
            [
              121.566306,
              25.061853
            ],
            [
              121.569045,
              25.058438
            ],
            [
              121.569197,
              25.057324
            ],
            [
              121.555647,
              25.05619
            ],
            [
              121.549237,
              25.055957
            ],
            [
              121.549344,
              25.058071
            ]
          ]
        ]
      }
    },
    {
      "type": "Feature",
      "properties": {
        "location": "吳興街商圈",
        "number": 46,
        "district": "信義區",
        "shop": 23,
        "sales_amount": 156.99
      },
      "geometry": {
        "type": "Polygon",
        "coordinates": [
          [
            [
              121.561457,
              25.029038
            ],
            [
              121.563122,
              25.026933
            ],
            [
              121.563978,
              25.027312
            ],
            [
              121.562015,
              25.029446
            ],
            [
              121.561824,
              25.029325
            ],
            [
              121.561457,
              25.029038
            ]
          ]
        ]
      }
    },
    {
      "type": "Feature",
      "properties": {
        "location": "五分埔商圈",
        "number": 47,
        "district": "信義區",
        "shop": 148,
        "sales_amount": 827.65
      },
      "geometry": {
        "type": "Polygon",
        "coordinates": [
          [
            [
              121.577554,
              25.045492
            ],
            [
              121.580705,
              25.045329
            ],
            [
              121.580594,
              25.047459
            ],
            [
              121.580096,
              25.048343
            ],
            [
              121.577851,
              25.047985
            ],
            [
              121.577857,
              25.046912
            ],
            [
              121.577554,
              25.045492
            ]
          ]
        ]
      }
    },
    {
      "type": "Feature",
      "properties": {
        "location": "信義計畫區百貨",
        "number": 48,
        "district": "信義區",
        "shop": 413,
        "sales_amount": 348811.34
      },
      "geometry": {
        "type": "Polygon",
        "coordinates": [
          [
            [
              121.5634478,
              25.0329886
            ],
            [
              121.5684046,
              25.0328914
            ],
            [
              121.5685119,
              25.0411929
            ],
            [
              121.5646066,
              25.0412901
            ],
            [
              121.5635337,
              25.0395404
            ],
            [
              121.5634478,
              25.0329886
            ]
          ]
        ]
      },
      "id": 47
    },
    {
      "type": "Feature",
      "properties": {
        "location": "永春捷運站周邊",
        "number": 49,
        "district": "信義區",
        "shop": 314,
        "sales_amount": 3002.8
      },
      "geometry": {
        "type": "Polygon",
        "coordinates": [
          [
            [
              121.571975,
              25.042423
            ],
            [
              121.57772,
              25.042228
            ],
            [
              121.57779,
              25.040226
            ],
            [
              121.571921,
              25.040338
            ],
            [
              121.571969,
              25.041781
            ],
            [
              121.571975,
              25.042423
            ]
          ]
        ]
      }
    },
    {
      "type": "Feature",
      "properties": {
        "location": "東區商圈",
        "number": 50,
        "district": "大安區",
        "shop": 5053,
        "sales_amount": 94965.3
      },
      "geometry": {
        "type": "Polygon",
        "coordinates": [
          [
            [
              121.5439423,
              25.0448208
            ],
            [
              121.5438136,
              25.0378805
            ],
            [
              121.5576323,
              25.0375888
            ],
            [
              121.5577396,
              25.0450929
            ],
            [
              121.5541991,
              25.0443153
            ],
            [
              121.5530833,
              25.0442959
            ],
            [
              121.5513452,
              25.0445097
            ],
            [
              121.5477618,
              25.0449569
            ],
            [
              121.546646,
              25.0451124
            ],
            [
              121.5457662,
              25.0449957
            ],
            [
              121.5439423,
              25.0448208
            ]
          ]
        ]
      },
      "id": 49
    },
    {
      "type": "Feature",
      "properties": {
        "location": "永康商圈",
        "number": 51,
        "district": "大安區",
        "shop": 492,
        "sales_amount": 10242.52
      },
      "geometry": {
        "type": "Polygon",
        "coordinates": [
          [
            [
              121.5268895,
              25.0342475
            ],
            [
              121.5262887,
              25.0300285
            ],
            [
              121.5279195,
              25.0298341
            ],
            [
              121.5291211,
              25.0296202
            ],
            [
              121.5302798,
              25.0296008
            ],
            [
              121.5312025,
              25.0297563
            ],
            [
              121.5332839,
              25.0304174
            ],
            [
              121.5337774,
              25.0304368
            ],
            [
              121.5325973,
              25.033567
            ],
            [
              121.5313742,
              25.033567
            ],
            [
              121.5293357,
              25.033742
            ],
            [
              121.5270397,
              25.0341697
            ],
            [
              121.5268895,
              25.0342475
            ]
          ]
        ]
      }
    },
    {
      "type": "Feature",
      "properties": {
        "location": "建國南路藝品古玩",
        "number": 52,
        "district": "大安區",
        "shop": 32,
        "sales_amount": 237.74
      },
      "geometry": {
        "type": "Polygon",
        "coordinates": [
          [
            [
              121.53801,
              25.036248
            ],
            [
              121.539741,
              25.036215
            ],
            [
              121.539731,
              25.035118
            ],
            [
              121.538068,
              25.035124
            ],
            [
              121.538151,
              25.035571
            ],
            [
              121.53801,
              25.036248
            ]
          ]
        ]
      }
    },
    {
      "type": "Feature",
      "properties": {
        "location": "龍泉商圈",
        "number": 53,
        "district": "大安區",
        "shop": 47,
        "sales_amount": 258.84
      },
      "geometry": {
        "type": "Polygon",
        "coordinates": [
          [
            [
              121.528546,
              25.024709
            ],
            [
              121.529518,
              25.024717
            ],
            [
              121.529499,
              25.023524
            ],
            [
              121.528505,
              25.023605
            ],
            [
              121.528559,
              25.024254
            ],
            [
              121.528546,
              25.024709
            ]
          ]
        ]
      }
    },
    {
      "type": "Feature",
      "properties": {
        "location": "文昌家具商圈",
        "number": 54,
        "district": "大安區"
      },
      "geometry": {
        "type": "Polygon",
        "coordinates": [
          [
            [
              121.5525225,
              25.0326925
            ],
            [
              121.5525332,
              25.0325078
            ],
            [
              121.5546253,
              25.032328
            ],
            [
              121.5559289,
              25.0321676
            ],
            [
              121.5573773,
              25.0320363
            ],
            [
              121.5573827,
              25.0322308
            ],
            [
              121.5559128,
              25.0323425
            ],
            [
              121.5545341,
              25.0324981
            ],
            [
              121.553826,
              25.0325613
            ],
            [
              121.5525225,
              25.0326925
            ]
          ]
        ]
      },
      "id": 53
    },
    {
      "type": "Feature",
      "properties": {
        "location": "景美夜市周邊",
        "number": 55,
        "district": "文山區",
        "shop": 79,
        "sales_amount": 720.62
      },
      "geometry": {
        "type": "Polygon",
        "coordinates": [
          [
            [
              121.541344,
              24.993201
            ],
            [
              121.543379,
              24.992804
            ],
            [
              121.542498,
              24.991293
            ],
            [
              121.542202,
              24.990469
            ],
            [
              121.54171,
              24.989804
            ],
            [
              121.542163,
              24.989029
            ],
            [
              121.542156,
              24.988339
            ],
            [
              121.540849,
              24.988385
            ],
            [
              121.540979,
              24.989929
            ],
            [
              121.54134911434528,
              24.99152620160712
            ],
            [
              121.541344,
              24.993201
            ]
          ]
        ]
      }
    },
    {
      "type": "Feature",
      "properties": {
        "location": "貓空商圈",
        "number": 56,
        "district": "文山區",
        "shop": 27,
        "sales_amount": 119.85
      },
      "geometry": {
        "type": "Polygon",
        "coordinates": [
          [
            [
              121.5879591,
              24.98206477
            ],
            [
              121.5880936,
              24.98192598
            ],
            [
              121.5885605,
              24.98144398
            ],
            [
              121.5889035,
              24.98126394
            ],
            [
              121.5892475,
              24.9810839
            ],
            [
              121.5899503,
              24.98052287
            ],
            [
              121.5903872,
              24.98027791
            ],
            [
              121.5906672,
              24.97997587
            ],
            [
              121.5910422,
              24.97980284
            ],
            [
              121.5913296,
              24.97962635
            ],
            [
              121.5915111,
              24.97951486
            ],
            [
              121.5918429,
              24.97935144
            ],
            [
              121.5919132,
              24.97904446
            ],
            [
              121.5921076,
              24.9785732
            ],
            [
              121.5922744,
              24.97834045
            ],
            [
              121.5924466,
              24.97825102
            ],
            [
              121.5927927,
              24.97807135
            ],
            [
              121.5931285,
              24.97789699
            ],
            [
              121.5938968,
              24.97749812
            ],
            [
              121.5940088,
              24.97694502
            ],
            [
              121.5941632,
              24.97667555
            ],
            [
              121.5944429,
              24.976596
            ],
            [
              121.5950147,
              24.97654519
            ],
            [
              121.5960144,
              24.97645635
            ],
            [
              121.5961204,
              24.97646609
            ],
            [
              121.5963813,
              24.97649005
            ],
            [
              121.5967605,
              24.97668757
            ],
            [
              121.5969904,
              24.97680729
            ],
            [
              121.5973512,
              24.97683456
            ],
            [
              121.5978457,
              24.97687194
            ],
            [
              121.5981377,
              24.9768314
            ],
            [
              121.5987748,
              24.97674297
            ],
            [
              121.5991777,
              24.97672267
            ],
            [
              121.599661,
              24.97669832
            ],
            [
              121.6000594,
              24.97692622
            ],
            [
              121.6022544,
              24.97590042
            ],
            [
              121.6040333,
              24.97534423
            ],
            [
              121.6052672,
              24.97426019
            ],
            [
              121.6063553,
              24.97448212
            ],
            [
              121.6079052,
              24.97439011
            ],
            [
              121.6082192,
              24.97457414
            ],
            [
              121.6087291,
              24.97487303
            ],
            [
              121.610365,
              24.97420796
            ],
            [
              121.6113081,
              24.97490987
            ],
            [
              121.611775,
              24.97408191
            ],
            [
              121.6135939,
              24.97331572
            ],
            [
              121.6141479,
              24.97360868
            ],
            [
              121.6144224,
              24.97335637
            ],
            [
              121.6145816,
              24.97321
            ],
            [
              121.6149638,
              24.97285863
            ],
            [
              121.6163304,
              24.9716016
            ],
            [
              121.6178164,
              24.97069457
            ],
            [
              121.6184633,
              24.97088952
            ],
            [
              121.6198052,
              24.97011046
            ],
            [
              121.6199882,
              24.96944547
            ],
            [
              121.6198432,
              24.96924172
            ],
            [
              121.6194942,
              24.96875151
            ],
            [
              121.6191052,
              24.96820554
            ],
            [
              121.6181,
              24.96679765
            ],
            [
              121.6170362,
              24.96752272
            ],
            [
              121.6154021,
              24.96657182
            ],
            [
              121.6152002,
              24.96645384
            ],
            [
              121.6149891,
              24.96581088
            ],
            [
              121.6143152,
              24.96643492
            ],
            [
              121.6133832,
              24.96629593
            ],
            [
              121.6120612,
              24.96553316
            ],
            [
              121.6103842,
              24.96489134
            ],
            [
              121.6100722,
              24.96463133
            ],
            [
              121.6092582,
              24.96394779
            ],
            [
              121.6092422,
              24.96393438
            ],
            [
              121.6082183,
              24.96307848
            ],
            [
              121.6079484,
              24.96308679
            ],
            [
              121.6067213,
              24.96315359
            ],
            [
              121.6064592,
              24.96293761
            ],
            [
              121.6057293,
              24.96313767
            ],
            [
              121.6046512,
              24.96238176
            ],
            [
              121.6044773,
              24.96257478
            ],
            [
              121.6035803,
              24.96240281
            ],
            [
              121.6024683,
              24.96139892
            ],
            [
              121.6014062,
              24.96101506
            ],
            [
              121.5996813,
              24.96122714
            ],
            [
              121.5986833,
              24.96045028
            ],
            [
              121.5971514,
              24.96034836
            ],
            [
              121.5967703,
              24.96068673
            ],
            [
              121.5962595,
              24.9611403
            ],
            [
              121.5947546,
              24.96152443
            ],
            [
              121.5945455,
              24.96198834
            ],
            [
              121.5934889,
              24.96432932
            ],
            [
              121.5921059,
              24.96390149
            ],
            [
              121.591493,
              24.96404649
            ],
            [
              121.591202,
              24.96455848
            ],
            [
              121.590351,
              24.96416351
            ],
            [
              121.5900975,
              24.96404573
            ],
            [
              121.589019,
              24.96354464
            ],
            [
              121.58844,
              24.96327472
            ],
            [
              121.5879841,
              24.96368272
            ],
            [
              121.5875211,
              24.9636487
            ],
            [
              121.5865181,
              24.96359081
            ],
            [
              121.5857192,
              24.96319282
            ],
            [
              121.5852552,
              24.96410878
            ],
            [
              121.5850602,
              24.96421283
            ],
            [
              121.5842463,
              24.96464588
            ],
            [
              121.5832193,
              24.96466291
            ],
            [
              121.5824353,
              24.96467591
            ],
            [
              121.5820984,
              24.96468201
            ],
            [
              121.5814355,
              24.96494038
            ],
            [
              121.5807565,
              24.96520503
            ],
            [
              121.5786656,
              24.96664203
            ],
            [
              121.5790347,
              24.96801798
            ],
            [
              121.5793147,
              24.96865395
            ],
            [
              121.5794708,
              24.96920588
            ],
            [
              121.5795758,
              24.96974881
            ],
            [
              121.5796098,
              24.97030077
            ],
            [
              121.5796163,
              24.97035218
            ],
            [
              121.5797527,
              24.97040883
            ],
            [
              121.5799128,
              24.97062815
            ],
            [
              121.5799973,
              24.97112882
            ],
            [
              121.5799288,
              24.97126507
            ],
            [
              121.5799213,
              24.97136608
            ],
            [
              121.5799504,
              24.97142698
            ],
            [
              121.5801403,
              24.97160623
            ],
            [
              121.5801478,
              24.97167424
            ],
            [
              121.580132,
              24.97176925
            ],
            [
              121.5801398,
              24.97189224
            ],
            [
              121.5801835,
              24.97206702
            ],
            [
              121.5801899,
              24.97212504
            ],
            [
              121.580174,
              24.97218307
            ],
            [
              121.5800558,
              24.97233454
            ],
            [
              121.5797314,
              24.97270181
            ],
            [
              121.5796688,
              24.97282902
            ],
            [
              121.5795472,
              24.97296766
            ],
            [
              121.5794511,
              24.97341155
            ],
            [
              121.5793961,
              24.97366538
            ],
            [
              121.5793637,
              24.97381455
            ],
            [
              121.5793126,
              24.97405077
            ],
            [
              121.5793147,
              24.97425646
            ],
            [
              121.5792827,
              24.97441438
            ],
            [
              121.5792086,
              24.97459378
            ],
            [
              121.5791434,
              24.97465374
            ],
            [
              121.5790484,
              24.97474109
            ],
            [
              121.5790103,
              24.97477609
            ],
            [
              121.5789808,
              24.97489318
            ],
            [
              121.5789535,
              24.97500124
            ],
            [
              121.578922,
              24.97512641
            ],
            [
              121.5788095,
              24.97527766
            ],
            [
              121.5787156,
              24.97540395
            ],
            [
              121.5787496,
              24.9757586
            ],
            [
              121.5787496,
              24.9758753
            ],
            [
              121.5787389,
              24.9760018
            ],
            [
              121.578712,
              24.976146
            ],
            [
              121.5786853,
              24.9762449
            ],
            [
              121.5785565,
              24.9763713
            ],
            [
              121.5784385,
              24.9764589
            ],
            [
              121.578315,
              24.976564
            ],
            [
              121.578417,
              24.976595
            ],
            [
              121.5786209,
              24.9766242
            ],
            [
              121.5788355,
              24.9766728
            ],
            [
              121.579046,
              24.976744
            ],
            [
              121.5792431,
              24.9768284
            ],
            [
              121.579447,
              24.9768965
            ],
            [
              121.579729,
              24.976997
            ],
            [
              121.5800264,
              24.977091
            ],
            [
              121.5802946,
              24.9771591
            ],
            [
              121.5804984,
              24.9772466
            ],
            [
              121.5807881,
              24.9773536
            ],
            [
              121.5810778,
              24.9774703
            ],
            [
              121.581305,
              24.977594
            ],
            [
              121.581582,
              24.9776745
            ],
            [
              121.5818824,
              24.9777912
            ],
            [
              121.5822365,
              24.977976
            ],
            [
              121.5825476,
              24.9781316
            ],
            [
              121.582848,
              24.9782678
            ],
            [
              121.5832021,
              24.978472
            ],
            [
              121.5835991,
              24.9786957
            ],
            [
              121.5839853,
              24.9788999
            ],
            [
              121.5843393,
              24.9790653
            ],
            [
              121.5846398,
              24.9792792
            ],
            [
              121.5850367,
              24.9795418
            ],
            [
              121.5853586,
              24.9797947
            ],
            [
              121.5856268,
              24.9800086
            ],
            [
              121.58611,
              24.980387
            ],
            [
              121.5864315,
              24.9806505
            ],
            [
              121.5868821,
              24.9810395
            ],
            [
              121.5873971,
              24.9815841
            ],
            [
              121.5879591,
              24.98206477
            ]
          ]
        ]
      },
      "id": 55
    },
    {
      "type": "Feature",
      "properties": {
        "location": "萬芳商圈",
        "number": 57,
        "district": "文山區",
        "shop": 141,
        "sales_amount": 841.89
      },
      "geometry": {
        "type": "Polygon",
        "coordinates": [
          [
            [
              121.5543032,
              25.0006132
            ],
            [
              121.553992,
              25.0000687
            ],
            [
              121.553874,
              24.9997964
            ],
            [
              121.5543568,
              24.9996214
            ],
            [
              121.5560305,
              24.9988143
            ],
            [
              121.5563524,
              24.9982601
            ],
            [
              121.5565455,
              24.9980559
            ],
            [
              121.558584,
              24.9972002
            ],
            [
              121.5587771,
              24.9969474
            ],
            [
              121.5589595,
              24.9965779
            ],
            [
              121.559732,
              24.996539
            ],
            [
              121.5610302,
              24.9969376
            ],
            [
              121.5607619,
              24.9971127
            ],
            [
              121.5599144,
              24.9973849
            ],
            [
              121.5594638,
              24.9978614
            ],
            [
              121.5591526,
              24.9984935
            ],
            [
              121.5589059,
              24.9990088
            ],
            [
              121.5584767,
              24.9992908
            ],
            [
              121.5577579,
              24.9997964
            ],
            [
              121.5571892,
              25.0001757
            ],
            [
              121.5565678,
              25.0005354
            ],
            [
              121.5557524,
              25.0008466
            ],
            [
              121.5552482,
              25.0011869
            ],
            [
              121.5550765,
              25.0014689
            ],
            [
              121.5547868,
              25.0015467
            ],
            [
              121.5543032,
              25.0006132
            ]
          ]
        ]
      }
    },
    {
      "type": "Feature",
      "properties": {
        "location": "南港車站CITYLINK周邊",
        "number": 58,
        "district": "南港區",
        "shop": 24,
        "sales_amount": 797.78
      },
      "geometry": {
        "type": "Polygon",
        "coordinates": [
          [
            [
              121.607859,
              25.05365
            ],
            [
              121.60824,
              25.052032
            ],
            [
              121.595806,
              25.050554
            ],
            [
              121.595244,
              25.05219
            ],
            [
              121.605183,
              25.053489
            ],
            [
              121.607859,
              25.05365
            ]
          ]
        ]
      }
    },
    {
      "type": "Feature",
      "properties": {
        "location": "中國信託金融園區",
        "number": 59,
        "district": "南港區",
        "shop": 77,
        "sales_amount": 25465.77
      },
      "geometry": {
        "type": "Polygon",
        "coordinates": [
          [
            [
              121.614766,
              25.061163
            ],
            [
              121.617429,
              25.059693
            ],
            [
              121.616928,
              25.055075
            ],
            [
              121.613954,
              25.055391
            ],
            [
              121.614182,
              25.058875
            ],
            [
              121.614766,
              25.061163
            ]
          ]
        ]
      }
    },
    {
      "type": "Feature",
      "properties": {
        "location": "至聖花博商圈",
        "number": 60,
        "district": "大同區",
        "shop": 271,
        "sales_amount": 4861.12
      },
      "geometry": {
        "type": "Polygon",
        "coordinates": [
          [
            [
              121.5230125,
              25.0683318
            ],
            [
              121.525008,
              25.0682395
            ],
            [
              121.5250724,
              25.0684533
            ],
            [
              121.5250938,
              25.0701005
            ],
            [
              121.5256947,
              25.0700908
            ],
            [
              121.5257161,
              25.0714465
            ],
            [
              121.5249115,
              25.0716068
            ],
            [
              121.5240424,
              25.071772
            ],
            [
              121.5241873,
              25.0725495
            ],
            [
              121.5235274,
              25.0727535
            ],
            [
              121.5232378,
              25.0728216
            ],
            [
              121.5230071,
              25.0728216
            ],
            [
              121.5228086,
              25.0727876
            ],
            [
              121.5224706,
              25.0727341
            ],
            [
              121.5219503,
              25.072773
            ],
            [
              121.5214192,
              25.0729382
            ],
            [
              121.5214246,
              25.0727341
            ],
            [
              121.5214568,
              25.0723551
            ],
            [
              121.5203195,
              25.0720247
            ],
            [
              121.5189838,
              25.0721024
            ],
            [
              121.5184795,
              25.0723357
            ],
            [
              121.5181469,
              25.0725155
            ],
            [
              121.5173476,
              25.0725495
            ],
            [
              121.5173101,
              25.0722871
            ],
            [
              121.5171491,
              25.0722774
            ],
            [
              121.5139144,
              25.0723454
            ],
            [
              121.5138983,
              25.0708294
            ],
            [
              121.513791,
              25.0684533
            ],
            [
              121.5165322,
              25.0684339
            ],
            [
              121.5183561,
              25.0683804
            ],
            [
              121.5200084,
              25.0684096
            ],
            [
              121.5230125,
              25.0683318
            ]
          ]
        ]
      }
    },
    {
      "type": "Feature",
      "properties": {
        "location": "加蚋商圈",
        "number": 61,
        "district": "萬華區",
        "shop": 882,
        "sales_amount": 14777.25
      },
      "geometry": {
        "type": "Polygon",
        "coordinates": [
          [
            [
              121.4977419,
              25.0333597
            ],
            [
              121.4955961,
              25.0294178
            ],
            [
              121.4951938,
              25.0284991
            ],
            [
              121.4946359,
              25.0279547
            ],
            [
              121.4917981,
              25.0256167
            ],
            [
              121.490693,
              25.0247466
            ],
            [
              121.4920073,
              25.0218058
            ],
            [
              121.4929782,
              25.0196718
            ],
            [
              121.4935522,
              25.018369
            ],
            [
              121.494035,
              25.0176399
            ],
            [
              121.494829,
              25.0170031
            ],
            [
              121.4959823,
              25.016619
            ],
            [
              121.4967709,
              25.0179121
            ],
            [
              121.4984178,
              25.020644
            ],
            [
              121.4994692,
              25.0222384
            ],
            [
              121.5004562,
              25.0237744
            ],
            [
              121.5007245,
              25.0249167
            ],
            [
              121.5007245,
              25.0269388
            ],
            [
              121.5007352,
              25.0286012
            ],
            [
              121.500762,
              25.0297434
            ],
            [
              121.5007513,
              25.0318432
            ],
            [
              121.5007513,
              25.0326404
            ],
            [
              121.5007781,
              25.0331653
            ],
            [
              121.5003007,
              25.0331604
            ],
            [
              121.4996087,
              25.0331458
            ],
            [
              121.4990508,
              25.0331945
            ],
            [
              121.4983963,
              25.0333257
            ],
            [
              121.4977419,
              25.0333597
            ]
          ]
        ]
      }
    },
    {
      "type": "Feature",
      "properties": {
        "location": "赤峰街商圈",
        "number": 62,
        "district": "大同區",
        "shop": 291,
        "sales_amount": 5107.41
      },
      "geometry": {
        "type": "Polygon",
        "coordinates": [
          [
            [
              121.51827,
              25.05735
            ],
            [
              121.51828,
              25.05475
            ],
            [
              121.51781,
              25.05329
            ],
            [
              121.52033,
              25.05272
            ],
            [
              121.52055,
              25.05767
            ],
            [
              121.51827,
              25.05735
            ]
          ]
        ]
      }
    },
    {
      "type": "Feature",
      "properties": {
        "location": "榮町商圈",
        "number": 63,
        "district": "中正區",
        "shop": 555,
        "sales_amount": 12509.83
      },
      "geometry": {
        "type": "Polygon",
        "coordinates": [
          [
            [
              121.510968,
              25.046016
            ],
            [
              121.514204,
              25.045997
            ],
            [
              121.513963,
              25.040994
            ],
            [
              121.510686,
              25.041317
            ],
            [
              121.510968,
              25.046016
            ]
          ]
        ]
      }
    },
    {
      "type": "Feature",
      "properties": {
        "location": "蘭雅商圈",
        "number": 64,
        "district": "天母區",
        "shop": 237,
        "sales_amount": 1804.04
      },
      "geometry": {
        "type": "Polygon",
        "coordinates": [
          [
            [
              121.531019,
              25.1124
            ],
            [
              121.525973,
              25.111711
            ],
            [
              121.525649,
              25.110906
            ],
            [
              121.524933,
              25.106476
            ],
            [
              121.530223,
              25.108362
            ],
            [
              121.531019,
              25.1124
            ]
          ]
        ]
      }
    }
  ]
}