{
	"type": "FeatureCollection",
	"name": "business_district",
	"features": [
		{
			"type": "Feature",
			"properties": {
				"location": "新北投溫泉商圈",
				"number": 1,
				"district": "北投區"
			},
			"geometry": {
				"type": "Polygon",
				"coordinates": [
					[
						[121.5038499, 25.1372184],
						[121.5038364, 25.1362083],
						[121.5041154, 25.1356644],
						[121.505199, 25.135305],
						[121.5066581, 25.1352516],
						[121.5075379, 25.1354167],
						[121.5083104, 25.1356595],
						[121.5091579, 25.1360189],
						[121.5101343, 25.1358926],
						[121.511014, 25.1360481],
						[121.5116792, 25.1359024],
						[121.5124624, 25.1356401],
						[121.513546, 25.1358344],
						[121.5147477, 25.1359121],
						[121.5161532, 25.1356401],
						[121.5163677, 25.1359801],
						[121.5161961, 25.1366308],
						[121.5161746, 25.1369805],
						[121.5167754, 25.1375535],
						[121.5170115, 25.1379226],
						[121.5166145, 25.1380974],
						[121.5153163, 25.1383208],
						[121.5139537, 25.1386268],
						[121.5139752, 25.138957],
						[121.5139001, 25.1395155],
						[121.5141576, 25.1397923],
						[121.5148764, 25.1406373],
						[121.5155899, 25.1412152],
						[121.5157455, 25.1415794],
						[121.5156435, 25.1416959],
						[121.5147101, 25.1421281],
						[121.5142702, 25.1420504],
						[121.5139697, 25.1418562],
						[121.5127789, 25.141492],
						[121.5123927, 25.1415017],
						[121.5115558, 25.1412395],
						[121.5107887, 25.1412006],
						[121.5103113, 25.1410452],
						[121.5093028, 25.1410938],
						[121.5088844, 25.1410792],
						[121.5081655, 25.141118],
						[121.5076076, 25.1415114],
						[121.5067815, 25.1413074],
						[121.5062665, 25.140681],
						[121.5065589, 25.1400254],
						[121.5064945, 25.1398166],
						[121.5049442, 25.1385394],
						[121.5050086, 25.1384374],
						[121.5038499, 25.1372184]
					]
				]
			},
			"id": 0
		},
		{
			"type": "Feature",
			"properties": {
				"location": "行義路溫泉美食商圈",
				"number": 2,
				"district": "北投區"
			},
			"geometry": {
				"type": "Polygon",
				"coordinates": [
					[
						[121.525801, 25.144648],
						[121.52568, 25.144097],
						[121.527356, 25.128499],
						[121.521546, 25.120184],
						[121.523362, 25.118723],
						[121.529238, 25.126109],
						[121.528661, 25.144568],
						[121.525801, 25.144648]
					]
				]
			},
			"id": 1
		},
		{
			"type": "Feature",
			"properties": {
				"location": "石牌捷運商圈",
				"number": 3,
				"district": "北投區"
			},
			"geometry": {
				"type": "Polygon",
				"coordinates": [
					[
						[121.516956, 25.112927],
						[121.519406, 25.118749],
						[121.512663, 25.119049],
						[121.512172, 25.118928],
						[121.516363, 25.112967],
						[121.516956, 25.112927]
					]
				]
			}
		},
		{
			"type": "Feature",
			"properties": {
				"location": "士林捷運站周邊",
				"number": 4,
				"district": "士林區"
			},
			"geometry": {
				"type": "Polygon",
				"coordinates": [
					[
						[121.5239846, 25.0973296],
						[121.5244244, 25.0957021],
						[121.5247195, 25.0946334],
						[121.5248911, 25.0939435],
						[121.5250896, 25.0935597],
						[121.5255402, 25.0929087],
						[121.526082, 25.0922092],
						[121.5264897, 25.0924423],
						[121.5270476, 25.0927387],
						[121.5283458, 25.0934577],
						[121.5284048, 25.0938366],
						[121.5284692, 25.0950609],
						[121.52826, 25.0959839],
						[121.5277021, 25.0979076],
						[121.5269779, 25.0977328],
						[121.5265756, 25.0976065],
						[121.5259426, 25.0974267],
						[121.5252988, 25.0974364],
						[121.5244459, 25.0974461],
						[121.5239846, 25.0973296]
					]
				]
			}
		},
		{
			"type": "Feature",
			"properties": {
				"location": "士林觀光夜市商圈",
				"number": 5,
				"district": "士林區"
			},
			"geometry": {
				"type": "Polygon",
				"coordinates": [
					[
						[121.522691, 25.089844],
						[121.522937, 25.089455],
						[121.525587, 25.085588],
						[121.527368, 25.088202],
						[121.527433, 25.091748],
						[121.524236, 25.091214],
						[121.522691, 25.089844]
					]
				]
			}
		},
		{
			"type": "Feature",
			"properties": {
				"location": "天母商圈",
				"number": 6,
				"district": "天母區"
			},
			"geometry": {
				"type": "Polygon",
				"coordinates": [
					[
						[121.5240685, 25.0998219],
						[121.5258688, 25.1005898],
						[121.5275425, 25.1006481],
						[121.5298599, 25.1000651],
						[121.5323061, 25.1009395],
						[121.5337008, 25.1010561],
						[121.533615, 25.1014642],
						[121.5337223, 25.1030964],
						[121.5332502, 25.1041068],
						[121.5332502, 25.1048257],
						[121.5330356, 25.106283],
						[121.5332073, 25.1071379],
						[121.5337008, 25.1088672],
						[121.5340441, 25.1094695],
						[121.534324, 25.1097282],
						[121.5400532, 25.1108162],
						[121.539388, 25.1140609],
						[121.5391842, 25.1183061],
						[121.5382615, 25.118345],
						[121.5346673, 25.1182867],
						[121.534206, 25.119229],
						[121.5335623, 25.1197438],
						[121.5331653, 25.1201907],
						[121.5328434, 25.1208998],
						[121.5333477, 25.1220897],
						[121.5331653, 25.1226046],
						[121.533176, 25.122896],
						[121.5333316, 25.1233865],
						[121.5332619, 25.1242511],
						[121.5331117, 25.1244988],
						[121.5326555, 25.1249037],
						[121.5318777, 25.1253942],
						[121.5310086, 25.1257585],
						[121.5299465, 25.1256614],
						[121.5299787, 25.1249328],
						[121.5297909, 25.1242432],
						[121.5287213, 25.1236829],
						[121.5276806, 25.1236731],
						[121.5266935, 25.1235177],
						[121.5260498, 25.12276],
						[121.5256314, 25.1212932],
						[121.525921, 25.1209435],
						[121.5259747, 25.1206133],
						[121.5256099, 25.1202344],
						[121.5251271, 25.1201081],
						[121.5248052, 25.1200013],
						[121.5240542, 25.1181944],
						[121.5239255, 25.1173979],
						[121.5253846, 25.1158436],
						[121.5252559, 25.1149693],
						[121.5260927, 25.1130652],
						[121.5259425, 25.1122686],
						[121.5252559, 25.1112],
						[121.5228668, 25.1106253],
						[121.522781, 25.1094207],
						[121.5214506, 25.1087212],
						[121.5214506, 25.1065839],
						[121.5199701, 25.1040191],
						[121.5190045, 25.1035333],
						[121.5191547, 25.1033778],
						[121.5210644, 25.1016485],
						[121.5224591, 25.1005409],
						[121.5233389, 25.0996665],
						[121.5240685, 25.0998219]
					]
				]
			},
			"id": 5
		},
		{
			"type": "Feature",
			"properties": {
				"location": "承德路中古汽車商圈",
				"number": 7,
				"district": "天母區"
			},
			"geometry": {
				"type": "Polygon",
				"coordinates": [
					[
						[121.499882, 25.120603],
						[121.510322, 25.11094],
						[121.512337, 25.098992],
						[121.515597, 25.091321],
						[121.521173, 25.088796],
						[121.522952, 25.085014],
						[121.521076, 25.078958],
						[121.521784, 25.078548],
						[121.52387, 25.083835],
						[121.523457, 25.086181],
						[121.520732, 25.08962],
						[121.516398, 25.091574],
						[121.513834, 25.097549],
						[121.513008, 25.099667],
						[121.511731, 25.110723],
						[121.500112, 25.121253],
						[121.499882, 25.120603]
					]
				]
			},
			"id": 6
		},
		{
			"type": "Feature",
			"properties": {
				"location": "朝陽服飾材料商圈",
				"number": 8,
				"district": "大同區"
			},
			"geometry": {
				"type": "Polygon",
				"coordinates": [
					[
						[121.5116978, 25.0554659],
						[121.5117997, 25.0539133],
						[121.5139642, 25.0540566],
						[121.5142459, 25.0540955],
						[121.5142915, 25.0541587],
						[121.5138623, 25.0559373],
						[121.5125453, 25.0556457],
						[121.5125668, 25.0555923],
						[121.5116978, 25.0554659]
					]
				]
			}
		},
		{
			"type": "Feature",
			"properties": {
				"location": "迪化街商圈",
				"number": 9,
				"district": "大同區"
			},
			"geometry": {
				"type": "Polygon",
				"coordinates": [
					[
						[121.507585, 25.0537075],
						[121.5087222, 25.0533867],
						[121.5103315, 25.0532604],
						[121.5102672, 25.0537852],
						[121.5117799, 25.0539018],
						[121.511383, 25.0605205],
						[121.5112757, 25.0627656],
						[121.5088402, 25.0632029],
						[121.5085935, 25.0619978],
						[121.5084647, 25.0607441],
						[121.5084862, 25.0594223],
						[121.508454, 25.057634],
						[121.5074991, 25.0537075],
						[121.507585, 25.0537075]
					]
				]
			}
		},
		{
			"type": "Feature",
			"properties": {
				"location": "後站商圈",
				"number": 10,
				"district": "中正區"
			},
			"geometry": {
				"type": "Polygon",
				"coordinates": [
					[
						[121.513882, 25.0516714],
						[121.5134314, 25.0495234],
						[121.5145901, 25.0492707],
						[121.5164569, 25.0489111],
						[121.5169826, 25.0509425],
						[121.513882, 25.0516714]
					]
				]
			}
		},
		{
			"type": "Feature",
			"properties": {
				"location": "華陰街商圈",
				"number": 11,
				"district": "大同區"
			},
			"geometry": {
				"type": "Polygon",
				"coordinates": [
					[
						[121.5137291, 25.050711],
						[121.5136916, 25.0505458],
						[121.5166661, 25.0498751],
						[121.5167117, 25.0500622],
						[121.5137291, 25.050711]
					]
				]
			}
		},
		{
			"type": "Feature",
			"properties": {
				"location": "大龍峒商圈",
				"number": 12,
				"district": "大同區"
			},
			"geometry": {
				"type": "Polygon",
				"coordinates": [
					[
						[121.5139037, 25.072995],
						[121.513893, 25.0719503],
						[121.5162694, 25.0718677],
						[121.516602, 25.0716636],
						[121.5183454, 25.0706432],
						[121.5184259, 25.071479],
						[121.5185224, 25.0718823],
						[121.5187531, 25.0724362],
						[121.5190857, 25.073063],
						[121.5193271, 25.0734517],
						[121.5185654, 25.0737627],
						[121.517294, 25.0738064],
						[121.5173101, 25.0734371],
						[121.5163767, 25.0734177],
						[121.5160977, 25.0731553],
						[121.5157812, 25.0731067],
						[121.5149497, 25.0730678],
						[121.5139037, 25.072995]
					]
				]
			}
		},
		{
			"type": "Feature",
			"properties": {
				"location": "臺北大橋頭延三商圈",
				"number": 13,
				"district": "大同區"
			},
			"geometry": {
				"type": "Polygon",
				"coordinates": [
					[
						[121.508887, 25.063538],
						[121.511207, 25.063115],
						[121.510853, 25.068635],
						[121.509914, 25.068691],
						[121.509182, 25.068713],
						[121.508994, 25.067146],
						[121.508887, 25.063538]
					]
				]
			}
		},
		{
			"type": "Feature",
			"properties": {
				"location": "寧夏夜市商圈",
				"number": 14,
				"district": "大同區"
			},
			"geometry": {
				"type": "Polygon",
				"coordinates": [
					[
						[121.513918, 25.057052],
						[121.514763, 25.054235],
						[121.51507, 25.053958],
						[121.517644, 25.053371],
						[121.518109, 25.054807],
						[121.518103, 25.057367],
						[121.513918, 25.057052]
					]
				]
			}
		},
		{
			"type": "Feature",
			"properties": {
				"location": "圓山商圈",
				"number": 15,
				"district": "中山區"
			},
			"geometry": {
				"type": "Polygon",
				"coordinates": [
					[
						[121.5185561, 25.071927],
						[121.5184649, 25.0685257],
						[121.5228422, 25.0683507],
						[121.5236952, 25.0717229],
						[121.5205516, 25.071961],
						[121.5204765, 25.0718881],
						[121.5200206, 25.0718978],
						[121.5185561, 25.071927]
					]
				]
			}
		},
		{
			"type": "Feature",
			"properties": {
				"location": "愛國東路婚紗商圈",
				"number": 16,
				"district": "中正區"
			},
			"geometry": {
				"type": "Polygon",
				"coordinates": [
					[
						[121.5168506, 25.0349167],
						[121.5171081, 25.0345668],
						[121.5205628, 25.0330017],
						[121.5208096, 25.0334537],
						[121.5170169, 25.0350771],
						[121.5168506, 25.0349167]
					]
				]
			}
		},
		{
			"type": "Feature",
			"properties": {
				"location": "沅陵街商圈",
				"number": 17,
				"district": "中正區"
			},
			"geometry": {
				"type": "Polygon",
				"coordinates": [
					[
						[121.511515, 25.042879],
						[121.511527, 25.042756],
						[121.512246, 25.042748],
						[121.513168, 25.042727],
						[121.513176, 25.042857],
						[121.511515, 25.042879]
					]
				]
			}
		},
		{
			"type": "Feature",
			"properties": {
				"location": "中華路影音商圈",
				"number": 18,
				"district": "中正區"
			},
			"geometry": {
				"type": "Polygon",
				"coordinates": [
					[
						[121.5099036, 25.0469846],
						[121.5095952, 25.0463479],
						[121.5096086, 25.0461972],
						[121.5094852, 25.0456554],
						[121.5093189, 25.0450697],
						[121.5114003, 25.0450673],
						[121.5113359, 25.0459907],
						[121.5107029, 25.0459761],
						[121.5110087, 25.0470283],
						[121.5100404, 25.0469481],
						[121.5099036, 25.0469846]
					]
				]
			}
		},
		{
			"type": "Feature",
			"properties": {
				"location": "北門相機商圈",
				"number": 19,
				"district": "中正區"
			},
			"geometry": {
				"type": "Polygon",
				"coordinates": [
					[
						[121.511099, 25.047691],
						[121.511223, 25.045064],
						[121.514974, 25.045053],
						[121.515, 25.046755],
						[121.512984, 25.047275],
						[121.511099, 25.047691]
					]
				]
			}
		},
		{
			"type": "Feature",
			"properties": {
				"location": "重慶南路書店商圈",
				"number": 20,
				"district": "中正區"
			},
			"geometry": {
				"type": "Polygon",
				"coordinates": [
					[
						[121.5130386, 25.0472302],
						[121.5129635, 25.0424868],
						[121.5127382, 25.0408246],
						[121.5132532, 25.0407663],
						[121.5134463, 25.0423993],
						[121.5135214, 25.0471135],
						[121.5130386, 25.0472302]
					]
				]
			}
		},
		{
			"type": "Feature",
			"properties": {
				"location": "南昌家具商圈",
				"number": 21,
				"district": "中正區"
			},
			"geometry": {
				"type": "Polygon",
				"coordinates": [
					[
						[121.5189818, 25.0290067],
						[121.5187297, 25.0288657],
						[121.5195773, 25.0278401],
						[121.5208755, 25.0267805],
						[121.5211759, 25.026902],
						[121.5207253, 25.0273832],
						[121.5206126, 25.0278887],
						[121.5197919, 25.0286567],
						[121.5194217, 25.028438],
						[121.5189818, 25.0290067]
					]
				]
			}
		},
		{
			"type": "Feature",
			"properties": {
				"location": "大光華商圈",
				"number": 22,
				"district": "中正區"
			},
			"geometry": {
				"type": "Polygon",
				"coordinates": [
					[
						[121.5307729, 25.0459747],
						[121.5298341, 25.0431413],
						[121.5328919, 25.0423199],
						[121.5330099, 25.0453721],
						[121.5307729, 25.0459747]
					]
				]
			}
		},
		{
			"type": "Feature",
			"properties": {
				"location": "臺大公館商圈",
				"number": 23,
				"district": "大安區"
			},
			"geometry": {
				"type": "Polygon",
				"coordinates": [
					[
						[121.5355886, 25.0113814],
						[121.5358676, 25.0108661],
						[121.5367688, 25.0109828],
						[121.5375735, 25.0115953],
						[121.5375949, 25.0117703],
						[121.536565, 25.0132774],
						[121.5358998, 25.0140357],
						[121.5347625, 25.0149788],
						[121.5333463, 25.016301],
						[121.5337862, 25.0166802],
						[121.5340973, 25.0169135],
						[121.5348698, 25.0221149],
						[121.5349127, 25.0224065],
						[121.5338935, 25.0224065],
						[121.5329494, 25.0223385],
						[121.5324558, 25.0221537],
						[121.531737, 25.0218524],
						[121.5308143, 25.0211427],
						[121.5286578, 25.0191788],
						[121.5275849, 25.0182455],
						[121.5273489, 25.0179733],
						[121.528454, 25.0171469],
						[121.5322091, 25.0145316],
						[121.5334, 25.013744],
						[121.5344621, 25.0131218],
						[121.5355886, 25.0113814]
					]
				]
			}
		},
		{
			"type": "Feature",
			"properties": {
				"location": "萬華街區商圈",
				"number": 24,
				"district": "萬華區"
			},
			"geometry": {
				"type": "Polygon",
				"coordinates": [
					[
						[121.5032364, 25.0352224],
						[121.5046553, 25.0339684],
						[121.5057023, 25.0347381],
						[121.5061078, 25.0352979],
						[121.5063417, 25.0358578],
						[121.5075384, 25.0404954],
						[121.5060296, 25.0406598],
						[121.5042593, 25.040373],
						[121.5016951, 25.0404994],
						[121.4995118, 25.041452],
						[121.4984389, 25.0406695],
						[121.4978957, 25.0401178],
						[121.4972387, 25.0385729],
						[121.4944952, 25.0354207],
						[121.5032364, 25.0352224]
					]
				]
			}
		},
		{
			"type": "Feature",
			"properties": {
				"location": "艋舺商圈",
				"number": 25,
				"district": "萬華區"
			},
			"geometry": {
				"type": "Polygon",
				"coordinates": [
					[
						[121.4993502, 25.0352465],
						[121.4980627, 25.0331808],
						[121.4988996, 25.0330884],
						[121.4995701, 25.0329863],
						[121.5005304, 25.0330204],
						[121.5006591, 25.0334286],
						[121.5009005, 25.0337543],
						[121.5010614, 25.0342355],
						[121.5012277, 25.0351492],
						[121.4993502, 25.0352465]
					]
				]
			}
		},
		{
			"type": "Feature",
			"properties": {
				"location": "艋舺夜市商圈",
				"number": 26,
				"district": "萬華區"
			},
			"geometry": {
				"type": "Polygon",
				"coordinates": [
					[
						[121.497647, 25.038482],
						[121.49761, 25.036722],
						[121.49761, 25.036722],
						[121.50057, 25.036654],
						[121.500581, 25.038456],
						[121.497647, 25.038482]
					]
				]
			}
		},
		{
			"type": "Feature",
			"properties": {
				"location": "西門町商圈",
				"number": 27,
				"district": "萬華區"
			},
			"geometry": {
				"type": "Polygon",
				"coordinates": [
					[
						[121.50324, 25.046252],
						[121.502409, 25.043575],
						[121.508068, 25.042097],
						[121.509018, 25.045178],
						[121.509002, 25.045368],
						[121.503696, 25.046602],
						[121.50324, 25.046252]
					]
				]
			}
		},
		{
			"type": "Feature",
			"properties": {
				"location": "和平西路鳥鋪聚集區",
				"number": 28,
				"district": "萬華區"
			},
			"geometry": {
				"type": "Polygon",
				"coordinates": [
					[
						[121.50324, 25.046252],
						[121.502409, 25.043575],
						[121.508068, 25.042097],
						[121.509018, 25.045178],
						[121.509002, 25.045368],
						[121.503696, 25.046602],
						[121.50324, 25.046252]
					]
				]
			}
		},
		{
			"type": "Feature",
			"properties": {
				"location": "晴光商圈",
				"number": 29,
				"district": "中山區"
			},
			"geometry": {
				"type": "Polygon",
				"coordinates": [
					[
						[121.522651, 25.062916],
						[121.52565, 25.062862],
						[121.52567, 25.065035],
						[121.522379, 25.065183],
						[121.522442, 25.06422],
						[121.522651, 25.062916]
					]
				]
			}
		},
		{
			"type": "Feature",
			"properties": {
				"location": "四平陽光商圈",
				"number": 30,
				"district": "中山區"
			},
			"geometry": {
				"type": "Polygon",
				"coordinates": [
					[
						[121.534856, 25.052112],
						[121.53489, 25.05477],
						[121.533178, 25.054819],
						[121.533151, 25.053624],
						[121.533088, 25.05211],
						[121.534856, 25.052112]
					]
				]
			}
		},
		{
			"type": "Feature",
			"properties": {
				"location": "中山北路婚紗商圈",
				"number": 31,
				"district": "中山區"
			},
			"geometry": {
				"type": "Polygon",
				"coordinates": [
					[
						[121.5225265, 25.0684431],
						[121.5221188, 25.066655],
						[121.5220545, 25.0659747],
						[121.5219794, 25.0646627],
						[121.5220545, 25.063963],
						[121.5223441, 25.0631077],
						[121.5225694, 25.0618249],
						[121.5226875, 25.0607266],
						[121.522548, 25.0578887],
						[121.5232239, 25.0578304],
						[121.5232668, 25.0586954],
						[121.5233419, 25.0606489],
						[121.5232132, 25.0616402],
						[121.5230415, 25.0627093],
						[121.5227733, 25.0637783],
						[121.5226445, 25.0643614],
						[121.5225802, 25.0652264],
						[121.522784, 25.0670146],
						[121.5231381, 25.068414],
						[121.5225265, 25.0684431]
					]
				]
			}
		},
		{
			"type": "Feature",
			"properties": {
				"location": "中山商圈",
				"number": 32,
				"district": "中山區"
			},
			"geometry": {
				"type": "Polygon",
				"coordinates": [
					[
						[121.5222116, 25.0685263],
						[121.5223833, 25.0523153],
						[121.5278765, 25.0521598],
						[121.5280911, 25.068468],
						[121.5222116, 25.0685263]
					]
				]
			}
		},
		{
			"type": "Feature",
			"properties": {
				"location": "條通商圈",
				"number": 33,
				"district": "中山區"
			},
			"geometry": {
				"type": "Polygon",
				"coordinates": [
					[
						[121.522513, 25.052126],
						[121.522583, 25.051884],
						[121.521741, 25.049855],
						[121.528153, 25.048324],
						[121.52946, 25.048185],
						[121.528459, 25.049526],
						[121.527547, 25.052022],
						[121.522513, 25.052126]
					]
				]
			}
		},
		{
			"type": "Feature",
			"properties": {
				"location": "南西心中山",
				"number": 34,
				"district": "中山區"
			},
			"geometry": {
				"type": "Polygon",
				"coordinates": [
					[
						[121.51824824964659, 25.057310870807573],
						[121.5182354907964, 25.05489522340609],
						[121.51711271571754, 25.0509191258352],
						[121.5215145043826, 25.049867287757202],
						[121.52253520900287, 25.052144332432185],
						[121.52277762633044, 25.057935001632487],
						[121.51824824964659, 25.057310870807573]
					]
				]
			}
		},
		{
			"type": "Feature",
			"properties": {
				"location": "吉林路美食",
				"number": 35,
				"district": "中山區"
			},
			"geometry": {
				"type": "Polygon",
				"coordinates": [
					[
						[121.529498, 25.062556],
						[121.529669, 25.062415],
						[121.529648, 25.056866],
						[121.529685, 25.052128],
						[121.530678, 25.052113],
						[121.530608, 25.054694],
						[121.530817, 25.058975],
						[121.530855, 25.062503],
						[121.529498, 25.062556]
					]
				]
			}
		},
		{
			"type": "Feature",
			"properties": {
				"location": "中山國中捷運站周邊",
				"number": 36,
				"district": "松山區"
			},
			"geometry": {
				"type": "Polygon",
				"coordinates": [
					[
						[121.540504, 25.057897],
						[121.544105, 25.057862],
						[121.544134, 25.062112],
						[121.543653, 25.062283],
						[121.540782, 25.062283],
						[121.540721, 25.0597],
						[121.540504, 25.057897]
					]
				]
			}
		},
		{
			"type": "Feature",
			"properties": {
				"location": "民族濱江汽車",
				"number": 37,
				"district": "中山區"
			},
			"geometry": {
				"type": "Polygon",
				"coordinates": [
					[
						[121.533523, 25.06804],
						[121.541779, 25.067797],
						[121.544037, 25.066252],
						[121.544107, 25.067273],
						[121.54188, 25.068424],
						[121.533673, 25.068565],
						[121.533523, 25.06804]
					]
				]
			}
		},
		{
			"type": "Feature",
			"properties": {
				"location": "大直商圈",
				"number": 38,
				"district": "中山區"
			},
			"geometry": {
				"type": "Polygon",
				"coordinates": [
					[
						[121.549527, 25.084809],
						[121.548101, 25.080348],
						[121.548661, 25.079923],
						[121.562987, 25.080054],
						[121.560687, 25.084442],
						[121.558973, 25.084956],
						[121.557105, 25.084393],
						[121.551836, 25.085953],
						[121.549527, 25.084809]
					]
				]
			}
		},
		{
			"type": "Feature",
			"properties": {
				"location": "東湖哈拉影城周邊",
				"number": 39,
				"district": "內湖區"
			},
			"geometry": {
				"type": "Polygon",
				"coordinates": [
					[
						[121.611861, 25.067731],
						[121.615938, 25.067023],
						[121.617239, 25.069837],
						[121.61353, 25.071218],
						[121.611756, 25.070013],
						[121.612088, 25.069329],
						[121.612101, 25.068436],
						[121.611861, 25.067731]
					]
				]
			}
		},
		{
			"type": "Feature",
			"properties": {
				"location": "內湖量販店區",
				"number": 40,
				"district": "內湖區"
			},
			"geometry": {
				"type": "Polygon",
				"coordinates": [
					[
						[121.583017, 25.06059],
						[121.580847, 25.063738],
						[121.578784, 25.066734],
						[121.572472, 25.064837],
						[121.573777, 25.056975],
						[121.574505, 25.055821],
						[121.583017, 25.06059]
					]
				]
			}
		},
		{
			"type": "Feature",
			"properties": {
				"location": "內湖737商圈",
				"number": 41,
				"district": "內湖區"
			},
			"geometry": {
				"type": "Polygon",
				"coordinates": [
					[
						[121.5769477, 25.0795108],
						[121.5791202, 25.0786216],
						[121.5797667, 25.0788379],
						[121.5795548, 25.0793359],
						[121.5797157, 25.0795885],
						[121.5797076, 25.0802614],
						[121.5796996, 25.0803611],
						[121.5789539, 25.080519],
						[121.5779588, 25.0807692],
						[121.5769477, 25.0795108]
					]
				]
			}
		},
		{
			"type": "Feature",
			"properties": {
				"location": "西湖商圈",
				"number": 42,
				"district": "內湖區"
			},
			"geometry": {
				"type": "Polygon",
				"coordinates": [
					[
						[121.559447, 25.0849854],
						[121.5597045, 25.084519],
						[121.5604555, 25.0842858],
						[121.5621506, 25.0804961],
						[121.5633308, 25.0791745],
						[121.5641033, 25.0784749],
						[121.5676653, 25.0773671],
						[121.5692531, 25.0768812],
						[121.5707337, 25.076337],
						[121.5717637, 25.0747433],
						[121.5721928, 25.0741991],
						[121.5735447, 25.0747239],
						[121.5745961, 25.0752875],
						[121.57642, 25.0781834],
						[121.5779864, 25.0804766],
						[121.5785228, 25.0814289],
						[121.5784799, 25.0838971],
						[121.5781581, 25.0842663],
						[121.5776216, 25.084072],
						[121.5736949, 25.0856461],
						[121.5709912, 25.0866372],
						[121.568073, 25.0866567],
						[121.5655839, 25.0866178],
						[121.56376, 25.0867538],
						[121.5625798, 25.0869093],
						[121.5612709, 25.0866178],
						[121.5602409, 25.0860154],
						[121.559447, 25.0849854]
					]
				]
			},
			"id": 41
		},
		{
			"type": "Feature",
			"properties": {
				"location": "民權水族聚集區",
				"number": 43,
				"district": "松山區"
			},
			"geometry": {
				"type": "Polygon",
				"coordinates": [
					[
						[121.562643, 25.062874],
						[121.562962, 25.062853],
						[121.56344, 25.059775],
						[121.565268, 25.060063],
						[121.567309, 25.060998],
						[121.566808, 25.06174],
						[121.566224, 25.063279],
						[121.562643, 25.062874]
					]
				]
			}
		},
		{
			"type": "Feature",
			"properties": {
				"location": "南京復興捷運站周邊",
				"number": 44,
				"district": "松山區"
			},
			"geometry": {
				"type": "Polygon",
				"coordinates": [
					[
						[121.544186, 25.057961],
						[121.544186, 25.056518],
						[121.544154, 25.051916],
						[121.548746, 25.051828],
						[121.548859, 25.057947],
						[121.544186, 25.057961]
					]
				]
			}
		},
		{
			"type": "Feature",
			"properties": {
				"location": "民生社區周邊",
				"number": 45,
				"district": "松山區"
			},
			"geometry": {
				"type": "Polygon",
				"coordinates": [
					[
						[121.549344, 25.058071],
						[121.549237, 25.055957],
						[121.555647, 25.05619],
						[121.569197, 25.057324],
						[121.569045, 25.058438],
						[121.566306, 25.061853],
						[121.565259, 25.061296],
						[121.554465, 25.060449],
						[121.554965, 25.058524],
						[121.549344, 25.058071]
					]
				]
			}
		},
		{
			"type": "Feature",
			"properties": {
				"location": "吳興街商圈",
				"number": 46,
				"district": "信義區"
			},
			"geometry": {
				"type": "Polygon",
				"coordinates": [
					[
						[121.561457, 25.029038],
						[121.563122, 25.026933],
						[121.563978, 25.027312],
						[121.562015, 25.029446],
						[121.561824, 25.029325],
						[121.561457, 25.029038]
					]
				]
			}
		},
		{
			"type": "Feature",
			"properties": {
				"location": "五分埔商圈",
				"number": 47,
				"district": "信義區"
			},
			"geometry": {
				"type": "Polygon",
				"coordinates": [
					[
						[121.577554, 25.045492],
						[121.580705, 25.045329],
						[121.580594, 25.047459],
						[121.580096, 25.048343],
						[121.577851, 25.047985],
						[121.577857, 25.046912],
						[121.577554, 25.045492]
					]
				]
			}
		},
		{
			"type": "Feature",
			"properties": {
				"location": "信義計畫區百貨",
				"number": 48,
				"district": "信義區"
			},
			"geometry": {
				"type": "Polygon",
				"coordinates": [
					[
						[121.5634478, 25.0329886],
						[121.5684046, 25.0328914],
						[121.5685119, 25.0411929],
						[121.5646066, 25.0412901],
						[121.5635337, 25.0395404],
						[121.5634478, 25.0329886]
					]
				]
			},
			"id": 47
		},
		{
			"type": "Feature",
			"properties": {
				"location": "永春捷運站周邊",
				"number": 49,
				"district": "信義區"
			},
			"geometry": {
				"type": "Polygon",
				"coordinates": [
					[
						[121.571975, 25.042423],
						[121.571969, 25.041781],
						[121.571921, 25.040338],
						[121.57779, 25.040226],
						[121.57772, 25.042228],
						[121.571975, 25.042423]
					]
				]
			}
		},
		{
			"type": "Feature",
			"properties": {
				"location": "東區商圈",
				"number": 50,
				"district": "大安區"
			},
			"geometry": {
				"type": "Polygon",
				"coordinates": [
					[
						[121.5439423, 25.0448208],
						[121.5438136, 25.0378805],
						[121.5576323, 25.0375888],
						[121.5577396, 25.0450929],
						[121.5541991, 25.0443153],
						[121.5530833, 25.0442959],
						[121.5513452, 25.0445097],
						[121.5477618, 25.0449569],
						[121.546646, 25.0451124],
						[121.5457662, 25.0449957],
						[121.5439423, 25.0448208]
					]
				]
			},
			"id": 49
		},
		{
			"type": "Feature",
			"properties": {
				"location": "永康商圈",
				"number": 51,
				"district": "大安區"
			},
			"geometry": {
				"type": "Polygon",
				"coordinates": [
					[
						[121.5268895, 25.0342475],
						[121.5262887, 25.0300285],
						[121.5279195, 25.0298341],
						[121.5291211, 25.0296202],
						[121.5302798, 25.0296008],
						[121.5312025, 25.0297563],
						[121.5332839, 25.0304174],
						[121.5337774, 25.0304368],
						[121.5325973, 25.033567],
						[121.5313742, 25.033567],
						[121.5293357, 25.033742],
						[121.5270397, 25.0341697],
						[121.5268895, 25.0342475]
					]
				]
			}
		},
		{
			"type": "Feature",
			"properties": {
				"location": "建國南路藝品古玩",
				"number": 52,
				"district": "大安區"
			},
			"geometry": {
				"type": "Polygon",
				"coordinates": [
					[
						[121.53801, 25.036248],
						[121.538151, 25.035571],
						[121.538068, 25.035124],
						[121.539731, 25.035118],
						[121.539741, 25.036215],
						[121.53801, 25.036248]
					]
				]
			}
		},
		{
			"type": "Feature",
			"properties": {
				"location": "龍泉商圈",
				"number": 53,
				"district": "大安區"
			},
			"geometry": {
				"type": "Polygon",
				"coordinates": [
					[
						[121.528546, 25.024709],
						[121.528559, 25.024254],
						[121.528505, 25.023605],
						[121.529499, 25.023524],
						[121.529518, 25.024717],
						[121.528546, 25.024709]
					]
				]
			}
		},
		{
			"type": "Feature",
			"properties": {
				"location": "文昌家具商圈",
				"number": 54,
				"district": "大安區"
			},
			"geometry": {
				"type": "Polygon",
				"coordinates": [
					[
						[121.5525225, 25.0326925],
						[121.5525332, 25.0325078],
						[121.5546253, 25.032328],
						[121.5559289, 25.0321676],
						[121.5573773, 25.0320363],
						[121.5573827, 25.0322308],
						[121.5559128, 25.0323425],
						[121.5545341, 25.0324981],
						[121.553826, 25.0325613],
						[121.5525225, 25.0326925]
					]
				]
			},
			"id": 53
		},
		{
			"type": "Feature",
			"properties": {
				"location": "景美夜市周邊",
				"number": 55,
				"district": "文山區"
			},
			"geometry": {
				"type": "Polygon",
				"coordinates": [
					[
						[121.541344, 24.993201],
						[121.54134911434528, 24.99152620160712],
						[121.540979, 24.989929],
						[121.540849, 24.988385],
						[121.542156, 24.988339],
						[121.542163, 24.989029],
						[121.54171, 24.989804],
						[121.542202, 24.990469],
						[121.542498, 24.991293],
						[121.543379, 24.992804],
						[121.541344, 24.993201]
					]
				]
			}
		},
		{
			"type": "Feature",
			"properties": {
				"location": "貓空商圈",
				"number": 56,
				"district": "文山區"
			},
			"geometry": {
				"type": "Polygon",
				"coordinates": [
					[
						[121.5879591, 24.98206477],
						[121.5873971, 24.9815841],
						[121.5868821, 24.9810395],
						[121.5864315, 24.9806505],
						[121.58611, 24.980387],
						[121.5856268, 24.9800086],
						[121.5853586, 24.9797947],
						[121.5850367, 24.9795418],
						[121.5846398, 24.9792792],
						[121.5843393, 24.9790653],
						[121.5839853, 24.9788999],
						[121.5835991, 24.9786957],
						[121.5832021, 24.978472],
						[121.582848, 24.9782678],
						[121.5825476, 24.9781316],
						[121.5822365, 24.977976],
						[121.5818824, 24.9777912],
						[121.581582, 24.9776745],
						[121.581305, 24.977594],
						[121.5810778, 24.9774703],
						[121.5807881, 24.9773536],
						[121.5804984, 24.9772466],
						[121.5802946, 24.9771591],
						[121.5800264, 24.977091],
						[121.579729, 24.976997],
						[121.579447, 24.9768965],
						[121.5792431, 24.9768284],
						[121.579046, 24.976744],
						[121.5788355, 24.9766728],
						[121.5786209, 24.9766242],
						[121.578417, 24.976595],
						[121.578315, 24.976564],
						[121.5784385, 24.9764589],
						[121.5785565, 24.9763713],
						[121.5786853, 24.9762449],
						[121.578712, 24.976146],
						[121.5787389, 24.9760018],
						[121.5787496, 24.9758753],
						[121.5787496, 24.9757586],
						[121.5787156, 24.97540395],
						[121.5788095, 24.97527766],
						[121.578922, 24.97512641],
						[121.5789535, 24.97500124],
						[121.5789808, 24.97489318],
						[121.5790103, 24.97477609],
						[121.5790484, 24.97474109],
						[121.5791434, 24.97465374],
						[121.5792086, 24.97459378],
						[121.5792827, 24.97441438],
						[121.5793147, 24.97425646],
						[121.5793126, 24.97405077],
						[121.5793637, 24.97381455],
						[121.5793961, 24.97366538],
						[121.5794511, 24.97341155],
						[121.5795472, 24.97296766],
						[121.5796688, 24.97282902],
						[121.5797314, 24.97270181],
						[121.5800558, 24.97233454],
						[121.580174, 24.97218307],
						[121.5801899, 24.97212504],
						[121.5801835, 24.97206702],
						[121.5801398, 24.97189224],
						[121.580132, 24.97176925],
						[121.5801478, 24.97167424],
						[121.5801403, 24.97160623],
						[121.5799504, 24.97142698],
						[121.5799213, 24.97136608],
						[121.5799288, 24.97126507],
						[121.5799973, 24.97112882],
						[121.5799128, 24.97062815],
						[121.5797527, 24.97040883],
						[121.5796163, 24.97035218],
						[121.5796098, 24.97030077],
						[121.5795758, 24.96974881],
						[121.5794708, 24.96920588],
						[121.5793147, 24.96865395],
						[121.5790347, 24.96801798],
						[121.5786656, 24.96664203],
						[121.5807565, 24.96520503],
						[121.5814355, 24.96494038],
						[121.5820984, 24.96468201],
						[121.5824353, 24.96467591],
						[121.5832193, 24.96466291],
						[121.5842463, 24.96464588],
						[121.5850602, 24.96421283],
						[121.5852552, 24.96410878],
						[121.5857192, 24.96319282],
						[121.5865181, 24.96359081],
						[121.5875211, 24.9636487],
						[121.5879841, 24.96368272],
						[121.58844, 24.96327472],
						[121.589019, 24.96354464],
						[121.5900975, 24.96404573],
						[121.590351, 24.96416351],
						[121.591202, 24.96455848],
						[121.591493, 24.96404649],
						[121.5921059, 24.96390149],
						[121.5934889, 24.96432932],
						[121.5945455, 24.96198834],
						[121.5947546, 24.96152443],
						[121.5962595, 24.9611403],
						[121.5967703, 24.96068673],
						[121.5971514, 24.96034836],
						[121.5986833, 24.96045028],
						[121.5996813, 24.96122714],
						[121.6014062, 24.96101506],
						[121.6024683, 24.96139892],
						[121.6035803, 24.96240281],
						[121.6044773, 24.96257478],
						[121.6046512, 24.96238176],
						[121.6057293, 24.96313767],
						[121.6064592, 24.96293761],
						[121.6067213, 24.96315359],
						[121.6079484, 24.96308679],
						[121.6082183, 24.96307848],
						[121.6092422, 24.96393438],
						[121.6092582, 24.96394779],
						[121.6100722, 24.96463133],
						[121.6103842, 24.96489134],
						[121.6120612, 24.96553316],
						[121.6133832, 24.96629593],
						[121.6143152, 24.96643492],
						[121.6149891, 24.96581088],
						[121.6152002, 24.96645384],
						[121.6154021, 24.96657182],
						[121.6170362, 24.96752272],
						[121.6181, 24.96679765],
						[121.6191052, 24.96820554],
						[121.6194942, 24.96875151],
						[121.6198432, 24.96924172],
						[121.6199882, 24.96944547],
						[121.6198052, 24.97011046],
						[121.6184633, 24.97088952],
						[121.6178164, 24.97069457],
						[121.6163304, 24.9716016],
						[121.6149638, 24.97285863],
						[121.6145816, 24.97321],
						[121.6144224, 24.97335637],
						[121.6141479, 24.97360868],
						[121.6135939, 24.97331572],
						[121.611775, 24.97408191],
						[121.6113081, 24.97490987],
						[121.610365, 24.97420796],
						[121.6087291, 24.97487303],
						[121.6082192, 24.97457414],
						[121.6079052, 24.97439011],
						[121.6063553, 24.97448212],
						[121.6052672, 24.97426019],
						[121.6040333, 24.97534423],
						[121.6022544, 24.97590042],
						[121.6000594, 24.97692622],
						[121.599661, 24.97669832],
						[121.5991777, 24.97672267],
						[121.5987748, 24.97674297],
						[121.5981377, 24.9768314],
						[121.5978457, 24.97687194],
						[121.5973512, 24.97683456],
						[121.5969904, 24.97680729],
						[121.5967605, 24.97668757],
						[121.5963813, 24.97649005],
						[121.5961204, 24.97646609],
						[121.5960144, 24.97645635],
						[121.5950147, 24.97654519],
						[121.5944429, 24.976596],
						[121.5941632, 24.97667555],
						[121.5940088, 24.97694502],
						[121.5938968, 24.97749812],
						[121.5931285, 24.97789699],
						[121.5927927, 24.97807135],
						[121.5924466, 24.97825102],
						[121.5922744, 24.97834045],
						[121.5921076, 24.9785732],
						[121.5919132, 24.97904446],
						[121.5918429, 24.97935144],
						[121.5915111, 24.97951486],
						[121.5913296, 24.97962635],
						[121.5910422, 24.97980284],
						[121.5906672, 24.97997587],
						[121.5903872, 24.98027791],
						[121.5899503, 24.98052287],
						[121.5892475, 24.9810839],
						[121.5889035, 24.98126394],
						[121.5885605, 24.98144398],
						[121.5880936, 24.98192598],
						[121.5879591, 24.98206477]
					]
				]
			},
			"id": 55
		},
		{
			"type": "Feature",
			"properties": {
				"location": "萬芳商圈",
				"number": 57,
				"district": "文山區"
			},
			"geometry": {
				"type": "Polygon",
				"coordinates": [
					[
						[121.5543032, 25.0006132],
						[121.553992, 25.0000687],
						[121.553874, 24.9997964],
						[121.5543568, 24.9996214],
						[121.5560305, 24.9988143],
						[121.5563524, 24.9982601],
						[121.5565455, 24.9980559],
						[121.558584, 24.9972002],
						[121.5587771, 24.9969474],
						[121.5589595, 24.9965779],
						[121.559732, 24.996539],
						[121.5610302, 24.9969376],
						[121.5607619, 24.9971127],
						[121.5599144, 24.9973849],
						[121.5594638, 24.9978614],
						[121.5591526, 24.9984935],
						[121.5589059, 24.9990088],
						[121.5584767, 24.9992908],
						[121.5577579, 24.9997964],
						[121.5571892, 25.0001757],
						[121.5565678, 25.0005354],
						[121.5557524, 25.0008466],
						[121.5552482, 25.0011869],
						[121.5550765, 25.0014689],
						[121.5547868, 25.0015467],
						[121.5543032, 25.0006132]
					]
				]
			}
		},
		{
			"type": "Feature",
			"properties": {
				"location": "南港車站CITYLINK周邊",
				"number": 58,
				"district": "南港區"
			},
			"geometry": {
				"type": "Polygon",
				"coordinates": [
					[
						[121.607859, 25.05365],
						[121.605183, 25.053489],
						[121.595244, 25.05219],
						[121.595806, 25.050554],
						[121.60824, 25.052032],
						[121.607859, 25.05365]
					]
				]
			}
		},
		{
			"type": "Feature",
			"properties": {
				"location": "中國信託金融園區",
				"number": 59,
				"district": "南港區"
			},
			"geometry": {
				"type": "Polygon",
				"coordinates": [
					[
						[121.614766, 25.061163],
						[121.614182, 25.058875],
						[121.613954, 25.055391],
						[121.616928, 25.055075],
						[121.617429, 25.059693],
						[121.614766, 25.061163]
					]
				]
			}
		},
		{
			"type": "Feature",
			"properties": {
				"location": "至聖花博商圈",
				"number": 60,
				"district": "大同區"
			},
			"geometry": {
				"type": "Polygon",
				"coordinates": [
					[
						[121.5230125, 25.0683318],
						[121.525008, 25.0682395],
						[121.5250724, 25.0684533],
						[121.5250938, 25.0701005],
						[121.5256947, 25.0700908],
						[121.5257161, 25.0714465],
						[121.5249115, 25.0716068],
						[121.5240424, 25.071772],
						[121.5241873, 25.0725495],
						[121.5235274, 25.0727535],
						[121.5232378, 25.0728216],
						[121.5230071, 25.0728216],
						[121.5228086, 25.0727876],
						[121.5224706, 25.0727341],
						[121.5219503, 25.072773],
						[121.5214192, 25.0729382],
						[121.5214246, 25.0727341],
						[121.5214568, 25.0723551],
						[121.5203195, 25.0720247],
						[121.5189838, 25.0721024],
						[121.5184795, 25.0723357],
						[121.5181469, 25.0725155],
						[121.5173476, 25.0725495],
						[121.5173101, 25.0722871],
						[121.5171491, 25.0722774],
						[121.5139144, 25.0723454],
						[121.5138983, 25.0708294],
						[121.513791, 25.0684533],
						[121.5165322, 25.0684339],
						[121.5183561, 25.0683804],
						[121.5200084, 25.0684096],
						[121.5230125, 25.0683318]
					]
				]
			}
		},
		{
			"type": "Feature",
			"properties": {
				"location": "加蚋商圈",
				"number": 61,
				"district": "萬華區"
			},
			"geometry": {
				"type": "Polygon",
				"coordinates": [
					[
						[121.4977419, 25.0333597],
						[121.4955961, 25.0294178],
						[121.4951938, 25.0284991],
						[121.4946359, 25.0279547],
						[121.4917981, 25.0256167],
						[121.490693, 25.0247466],
						[121.4920073, 25.0218058],
						[121.4929782, 25.0196718],
						[121.4935522, 25.018369],
						[121.494035, 25.0176399],
						[121.494829, 25.0170031],
						[121.4959823, 25.016619],
						[121.4967709, 25.0179121],
						[121.4984178, 25.020644],
						[121.4994692, 25.0222384],
						[121.5004562, 25.0237744],
						[121.5007245, 25.0249167],
						[121.5007245, 25.0269388],
						[121.5007352, 25.0286012],
						[121.500762, 25.0297434],
						[121.5007513, 25.0318432],
						[121.5007513, 25.0326404],
						[121.5007781, 25.0331653],
						[121.5003007, 25.0331604],
						[121.4996087, 25.0331458],
						[121.4990508, 25.0331945],
						[121.4983963, 25.0333257],
						[121.4977419, 25.0333597]
					]
				]
			}
		},
		{
			"type": "Feature",
			"properties": {
				"location": "赤峰街商圈",
				"number": 62,
				"district": "大同區"
			},
			"geometry": {
				"type": "Polygon",
				"coordinates": [
					[
						[121.51827, 25.05735],
						[121.51828, 25.05475],
						[121.51781, 25.05329],
						[121.52033, 25.05272],
						[121.52055, 25.05767],
						[121.51827, 25.05735]
					]
				]
			}
		},
		{
			"type": "Feature",
			"properties": {
				"location": "榮町商圈",
				"number": 63,
				"district": "中正區"
			},
			"geometry": {
				"type": "Polygon",
				"coordinates": [
					[
						[121.510968, 25.046016],
						[121.510686, 25.041317],
						[121.513963, 25.040994],
						[121.514204, 25.045997],
						[121.510968, 25.046016]
					]
				]
			}
		},
		{
			"type": "Feature",
			"properties": {
				"location": "蘭雅商圈",
				"number": 64,
				"district": "天母區"
			},
			"geometry": {
				"type": "Polygon",
				"coordinates": [
					[
						[121.531019, 25.1124],
						[121.525973, 25.111711],
						[121.525649, 25.110906],
						[121.524933, 25.106476],
						[121.530223, 25.108362],
						[121.531019, 25.1124]
					]
				]
			}
		},
		{
			"type": "Feature",
			"properties": {
				"location": "新北市鶯歌區陶瓷藝術商圈",
				"number": 65,
				"district": "鶯歌區"
			},
			"geometry": {
				"type": "Polygon",
				"coordinates": [
					[
						[121.350214, 24.955854608029597],
						[121.34918282587655, 24.955756342806442],
						[121.34819672376987, 24.95546584225741],
						[121.34729879501013, 24.954995803947078],
						[121.3465282858253, 24.954366772715417],
						[121.34591887167196, 24.953606242439278],
						[121.34549718536867, 24.95274745403873],
						[121.34528165337424, 24.951827942326585],
						[121.34528169102624, 24.950887895273656],
						[121.34549729181433, 24.94996839744661],
						[121.34591902850585, 24.949109634415393],
						[121.34652846592937, 24.948349136606236],
						[121.34729896724282, 24.947720139325366],
						[121.34819685835055, 24.947250130579246],
						[121.349182899535, 24.94695965009591],
						[121.350214, 24.94686139197041],
						[121.351245100465, 24.94695965009591],
						[121.35223114164944, 24.947250130579246],
						[121.35312903275715, 24.947720139325366],
						[121.3538995340706, 24.948349136606236],
						[121.35450897149414, 24.949109634415393],
						[121.35493070818565, 24.94996839744661],
						[121.35514630897374, 24.950887895273656],
						[121.35514634662573, 24.951827942326585],
						[121.3549308146313, 24.95274745403873],
						[121.35450912832803, 24.953606242439278],
						[121.35389971417467, 24.954366772715417],
						[121.35312920498984, 24.954995803947078],
						[121.3522312762301, 24.95546584225741],
						[121.35124517412343, 24.955756342806442],
						[121.350214, 24.955854608029597]
					]
				]
			}
		},
		{
			"type": "Feature",
			"properties": {
				"location": "新北市蘆洲區商圈",
				"number": 66,
				"district": "蘆洲區"
			},
			"geometry": {
				"type": "Polygon",
				"coordinates": [
					[
						[121.48121499999999, 25.084993608029592],
						[121.48018274052573, 25.084895342785504],
						[121.47919560053639, 25.084604842177285],
						[121.47829672674996, 25.084134803779747],
						[121.47752540671354, 25.08350577244794],
						[121.4769153513254, 25.08274524207604],
						[121.47649322141864, 25.081886453600664],
						[121.476277462817, 25.08096694184757],
						[121.476277500731, 25.080026894794653],
						[121.47649332860492, 25.079107397008567],
						[121.47691550925049, 25.07824863405218],
						[121.47752558807076, 25.07748813633879],
						[121.47829690018098, 25.076859139158053],
						[121.4791957360534, 25.076389130499127],
						[121.48018281469668, 25.076098650074975],
						[121.48121499999999, 25.076000391970407],
						[121.48224718530332, 25.076098650074975],
						[121.48323426394658, 25.076389130499127],
						[121.48413309981902, 25.076859139158053],
						[121.48490441192924, 25.07748813633879],
						[121.48551449074951, 25.07824863405218],
						[121.48593667139508, 25.079107397008567],
						[121.486152499269, 25.080026894794653],
						[121.48615253718299, 25.08096694184757],
						[121.48593677858135, 25.081886453600664],
						[121.48551464867458, 25.08274524207604],
						[121.48490459328644, 25.08350577244794],
						[121.48413327325004, 25.084134803779747],
						[121.48323439946361, 25.084604842177285],
						[121.48224725947426, 25.084895342785504],
						[121.48121499999999, 25.084993608029592]
					]
				]
			}
		},
		{
			"type": "Feature",
			"properties": {
				"location": "新北市石碇觀光商圈",
				"number": 67,
				"district": "石碇區"
			},
			"geometry": {
				"type": "Polygon",
				"coordinates": [
					[
						[121.662469, 24.9947166080296],
						[121.6614375000515, 24.99461834280015],
						[121.66045108636983, 24.994327842233318],
						[121.65955287391073, 24.993857803896763],
						[121.65878212130623, 24.993228772634982],
						[121.65817251465266, 24.99246824233005],
						[121.65775069517855, 24.991609453907003],
						[121.65753509515613, 24.990689942182545],
						[121.65753513288685, 24.98974989512962],
						[121.65775080184672, 24.988830397314885],
						[121.65817267181438, 24.987971634306174],
						[121.65878230178681, 24.98721113652582],
						[121.65955304650345, 24.98658213927506],
						[121.66045122123184, 24.986112130555156],
						[121.66143757386394, 24.98582165008962],
						[121.662469, 24.985723391970406],
						[121.66350042613607, 24.98582165008962],
						[121.66448677876816, 24.986112130555156],
						[121.66538495349656, 24.98658213927506],
						[121.6661556982132, 24.98721113652582],
						[121.66676532818563, 24.987971634306174],
						[121.6671871981533, 24.988830397314885],
						[121.66740286711317, 24.98974989512962],
						[121.66740290484388, 24.990689942182545],
						[121.66718730482147, 24.991609453907003],
						[121.66676548534736, 24.99246824233005],
						[121.66615587869377, 24.993228772634982],
						[121.66538512608929, 24.993857803896763],
						[121.66448691363017, 24.994327842233318],
						[121.6635004999485, 24.99461834280015],
						[121.662469, 24.9947166080296]
					]
				]
			}
		},
		{
			"type": "Feature",
			"properties": {
				"location": "新北市永和中興街韓國商圈",
				"number": 68,
				"district": "永和區"
			},
			"geometry": {
				"type": "Polygon",
				"coordinates": [
					[
						[121.51989300000001, 25.016713608029594],
						[121.51886131532355, 25.01661534279658],
						[121.51787472499308, 25.01632484221967],
						[121.51697635168935, 25.015854803868265],
						[121.516205461077, 25.01522577258943],
						[121.51559574528453, 25.01446524226819],
						[121.51517385030861, 25.013606453832395],
						[121.5149582117174, 25.012686942100967],
						[121.51495824949272, 25.01174689504804],
						[121.51517395710286, 25.010827397240288],
						[121.51559590263201, 25.009968634244316],
						[121.51620564177091, 25.009208136480268],
						[121.51697652448607, 25.00857913924656],
						[121.51787486001447, 25.008109130541506],
						[121.51886138922323, 25.00781865008605],
						[121.51989300000001, 25.007720391970405],
						[121.52092461077679, 25.00781865008605],
						[121.52191113998555, 25.008109130541506],
						[121.52280947551395, 25.00857913924656],
						[121.52358035822911, 25.009208136480268],
						[121.524190097368, 25.009968634244316],
						[121.52461204289715, 25.010827397240288],
						[121.5248277505073, 25.01174689504804],
						[121.52482778828262, 25.012686942100967],
						[121.5246121496914, 25.013606453832395],
						[121.52419025471549, 25.01446524226819],
						[121.52358053892301, 25.01522577258943],
						[121.52280964831067, 25.015854803868265],
						[121.52191127500694, 25.01632484221967],
						[121.52092468467647, 25.01661534279658],
						[121.51989300000001, 25.016713608029594]
					]
				]
			}
		},
		{
			"type": "Feature",
			"properties": {
				"location": "新北市平溪區魅力商圈",
				"number": 69,
				"district": "平溪區"
			},
			"geometry": {
				"type": "Polygon",
				"coordinates": [
					[
						[121.739566, 25.028925608029596],
						[121.73853421267452, 25.028827342794603],
						[121.7375475241844, 25.028536842212095],
						[121.73664906150306, 25.028066803852443],
						[121.73587809420299, 25.02743777256414],
						[121.73526831776456, 25.02667724223384],
						[121.73484638083406, 25.025818453790976],
						[121.73463072081107, 25.024898942055668],
						[121.73463075861115, 25.023958895002746],
						[121.73484648769835, 25.023039397198865],
						[121.73526847521525, 25.022180634209974],
						[121.73587827501541, 25.021420136454978],
						[121.73664923441314, 25.020791139230745],
						[121.73754765929439, 25.020321130533933],
						[121.73853428662267, 25.020030650084074],
						[121.739566, 25.01993239197041],
						[121.74059771337733, 25.020030650084074],
						[121.74158434070561, 25.020321130533933],
						[121.74248276558687, 25.020791139230745],
						[121.74325372498458, 25.021420136454978],
						[121.74386352478474, 25.022180634209974],
						[121.74428551230164, 25.023039397198865],
						[121.74450124138886, 25.023958895002746],
						[121.74450127918894, 25.024898942055668],
						[121.74428561916594, 25.025818453790976],
						[121.74386368223543, 25.02667724223384],
						[121.743253905797, 25.02743777256414],
						[121.74248293849693, 25.028066803852443],
						[121.7415844758156, 25.028536842212095],
						[121.74059778732547, 25.028827342794603],
						[121.739566, 25.028925608029596]
					]
				]
			}
		},
		{
			"type": "Feature",
			"properties": {
				"location": "新北市淡水區商圈",
				"number": 70,
				"district": "淡水區"
			},
			"geometry": {
				"type": "Polygon",
				"coordinates": [
					[
						[121.43895, 25.175534608029594],
						[121.43791697507683, 25.1754363427708],
						[121.43692910311567, 25.175145842121008],
						[121.4360295628445, 25.174675803662222],
						[121.43525767095089, 25.174046772260073],
						[121.43464716332849, 25.17328624182091],
						[121.43422472056785, 25.172427453292983],
						[121.43400880214999, 25.171507941511127],
						[121.43400884024838, 25.170567894458216],
						[121.43422482827543, 25.169648396700897],
						[121.43464732202163, 25.168789633797076],
						[121.43525785319014, 25.168029136150945],
						[121.43602973711899, 25.16740013904054],
						[121.4369292392918, 25.166930130442857],
						[121.4379170496085, 25.166639650060276],
						[121.43895, 25.166541391970405],
						[121.4399829503915, 25.166639650060276],
						[121.4409707607082, 25.166930130442857],
						[121.44187026288101, 25.16740013904054],
						[121.44264214680987, 25.168029136150945],
						[121.44325267797836, 25.168789633797076],
						[121.44367517172456, 25.169648396700897],
						[121.44389115975163, 25.170567894458216],
						[121.44389119785001, 25.171507941511127],
						[121.44367527943214, 25.172427453292983],
						[121.4432528366715, 25.17328624182091],
						[121.44264232904911, 25.174046772260073],
						[121.4418704371555, 25.174675803662222],
						[121.44097089688434, 25.175145842121008],
						[121.43998302492317, 25.1754363427708],
						[121.43895, 25.175534608029594]
					]
				]
			},
			"id": 69
		},
		{
			"type": "Feature",
			"properties": {
				"location": "新北市板橋區新板商圈",
				"number": 71,
				"district": "板橋區"
			},
			"geometry": {
				"type": "Polygon",
				"coordinates": [
					[
						[121.46554, 25.016776608029595],
						[121.46450831479417, 25.01667834279657],
						[121.46352172395746, 25.016387842219633],
						[121.4626233501928, 25.015917803868184],
						[121.46185245918494, 25.015288772589305],
						[121.46124274307971, 25.01452824226801],
						[121.46082084788745, 25.013669453832186],
						[121.4606052091857, 25.012749942100733],
						[121.46060524696114, 25.01180989504781],
						[121.46082095468205, 25.010890397240075],
						[121.46124290042773, 25.010031634244143],
						[121.46185263987948, 25.009271136480137],
						[121.4626235229901, 25.008642139246483],
						[121.46352185897933, 25.00817213054147],
						[121.46450838869407, 25.00788165008604],
						[121.46554, 25.007783391970406],
						[121.46657161130592, 25.00788165008604],
						[121.46755814102067, 25.00817213054147],
						[121.4684564770099, 25.008642139246483],
						[121.46922736012051, 25.009271136480137],
						[121.46983709957227, 25.010031634244143],
						[121.47025904531795, 25.010890397240075],
						[121.47047475303886, 25.01180989504781],
						[121.47047479081431, 25.012749942100733],
						[121.47025915211256, 25.013669453832186],
						[121.46983725692029, 25.01452824226801],
						[121.46922754081506, 25.015288772589305],
						[121.4684566498072, 25.015917803868184],
						[121.46755827604254, 25.016387842219633],
						[121.46657168520584, 25.01667834279657],
						[121.46554, 25.016776608029595]
					]
				]
			}
		},
		{
			"type": "Feature",
			"properties": {
				"location": "新北市板橋區府中商圈",
				"number": 72,
				"district": "板橋區"
			},
			"geometry": {
				"type": "Polygon",
				"coordinates": [
					[
						[121.45962, 25.013886608029598],
						[121.45858833907656, 25.013788342797042],
						[121.4576017714602, 25.013497842221426],
						[121.45670341883849, 25.013027803871932],
						[121.4559325459717, 25.012398772595287],
						[121.4553228442127, 25.011638242276142],
						[121.45490095894509, 25.01077945384199],
						[121.45468532531322, 25.009859942111454],
						[121.45468536308279, 25.008919895058533],
						[121.45490106572312, 25.00800039724988],
						[121.45532300153631, 25.007141634252275],
						[121.4559327266382, 25.006381136486127],
						[121.45670359160898, 25.005752139250227],
						[121.45760190646115, 25.005282130543268],
						[121.45858841296499, 25.004991650086513],
						[121.45962, 25.00489339197041],
						[121.460651587035, 25.004991650086513],
						[121.46163809353885, 25.005282130543268],
						[121.46253640839102, 25.005752139250227],
						[121.4633072733618, 25.006381136486127],
						[121.46391699846369, 25.007141634252275],
						[121.46433893427688, 25.00800039724988],
						[121.46455463691721, 25.008919895058533],
						[121.46455467468678, 25.009859942111454],
						[121.46433904105491, 25.01077945384199],
						[121.4639171557873, 25.011638242276142],
						[121.4633074540283, 25.012398772595287],
						[121.46253658116152, 25.013027803871932],
						[121.46163822853978, 25.013497842221426],
						[121.46065166092345, 25.013788342797042],
						[121.45962, 25.013886608029598]
					]
				]
			}
		},
		{
			"type": "Feature",
			"properties": {
				"location": "新北市板橋區江子翠商圈",
				"number": 73,
				"district": "板橋區"
			},
			"geometry": {
				"type": "Polygon",
				"coordinates": [
					[
						[121.46451, 25.029997608029593],
						[121.46347820366053, 25.029899342794423],
						[121.46249150655063, 25.029608842211427],
						[121.46159303602072, 25.02913880385105],
						[121.46082206198636, 25.028509772561915],
						[121.46021228022242, 25.027749242230822],
						[121.45979033960771, 25.026890453787335],
						[121.45957467770269, 25.02597094205169],
						[121.45957471550496, 25.025030894998768],
						[121.45979044647814, 25.024111397195227],
						[121.46021243768216, 25.023252634206955],
						[121.46082224280921, 25.022492136452758],
						[121.46159320894073, 25.021863139229353],
						[121.4624916416684, 25.021393130533266],
						[121.46347827761292, 25.021102650083897],
						[121.46451, 25.021004391970408],
						[121.46554172238707, 25.021102650083897],
						[121.46652835833162, 25.021393130533266],
						[121.46742679105927, 25.021863139229353],
						[121.46819775719078, 25.022492136452758],
						[121.46880756231783, 25.023252634206955],
						[121.46922955352186, 25.024111397195227],
						[121.46944528449504, 25.025030894998768],
						[121.4694453222973, 25.02597094205169],
						[121.46922966039229, 25.026890453787335],
						[121.46880771977759, 25.027749242230822],
						[121.46819793801363, 25.028509772561915],
						[121.46742696397928, 25.02913880385105],
						[121.46652849344936, 25.029608842211427],
						[121.46554179633948, 25.029899342794423],
						[121.46451, 25.029997608029593]
					]
				]
			}
		},
		{
			"type": "Feature",
			"properties": {
				"location": "新北市新莊廟街商圈",
				"number": 74,
				"district": "新莊區"
			},
			"geometry": {
				"type": "Polygon",
				"coordinates": [
					[
						[121.45150000000001, 25.0390966080296],
						[121.45046812712995, 25.038998342792954],
						[121.44948135683654, 25.038707842205785],
						[121.44858281967062, 25.038237803839262],
						[121.44781178846127, 25.03760877254307],
						[121.44720196148235, 25.036848242205227],
						[121.44677998958812, 25.035989453756464],
						[121.44656431170452, 25.035069942017937],
						[121.44656434952526, 25.034129894965012],
						[121.44678009651079, 25.033210397164357],
						[121.44720211901901, 25.03235163418136],
						[121.44781196937244, 25.03159113643391],
						[121.4485829926751, 25.030962139217564],
						[121.4494814920203, 25.030492130527623],
						[121.45046820111848, 25.030201650082425],
						[121.45150000000001, 25.03010339197041],
						[121.45253179888154, 25.030201650082425],
						[121.45351850797971, 25.030492130527623],
						[121.4544170073249, 25.030962139217564],
						[121.45518803062758, 25.03159113643391],
						[121.455797880981, 25.03235163418136],
						[121.45621990348921, 25.033210397164357],
						[121.45643565047476, 25.034129894965012],
						[121.4564356882955, 25.035069942017937],
						[121.45622001041188, 25.035989453756464],
						[121.45579803851767, 25.036848242205227],
						[121.45518821153875, 25.03760877254307],
						[121.4544171803294, 25.038237803839262],
						[121.45351864316346, 25.038707842205785],
						[121.45253187287007, 25.038998342792954],
						[121.45150000000001, 25.0390966080296]
					]
				]
			}
		},
		{
			"type": "Feature",
			"properties": {
				"location": "新北市三峽民權老街商圈",
				"number": 75,
				"district": "三峽區"
			},
			"geometry": {
				"type": "Polygon",
				"coordinates": [
					[
						[121.3703, 24.938296608029596],
						[121.36926897286253, 24.938198342809283],
						[121.36828301131335, 24.93790784226829],
						[121.36738521053587, 24.937437803969804],
						[121.36661481116231, 24.93680877275174],
						[121.36600548384955, 24.936048242488603],
						[121.36558385762217, 24.935189454098218],
						[121.36536835631647, 24.934269942391634],
						[121.36536839393293, 24.933329895338705],
						[121.3655839639674, 24.932410397506093],
						[121.36600564053546, 24.931551634464718],
						[121.36661499109648, 24.930791136642558],
						[121.36738538260605, 24.930162139348088],
						[121.36828314576705, 24.929692130590123],
						[121.36926904645148, 24.929401650098754],
						[121.3703, 24.929303391970407],
						[121.37133095354851, 24.929401650098754],
						[121.37231685423295, 24.929692130590123],
						[121.37321461739396, 24.930162139348088],
						[121.3739850089035, 24.930791136642558],
						[121.37459435946454, 24.931551634464718],
						[121.3750160360326, 24.932410397506093],
						[121.37523160606706, 24.933329895338705],
						[121.37523164368353, 24.934269942391634],
						[121.37501614237783, 24.935189454098218],
						[121.37459451615044, 24.936048242488603],
						[121.3739851888377, 24.93680877275174],
						[121.37321478946413, 24.937437803969804],
						[121.37231698868665, 24.93790784226829],
						[121.37133102713746, 24.938198342809283],
						[121.3703, 24.938296608029596]
					]
				]
			}
		},
		{
			"type": "Feature",
			"properties": {
				"location": "新北市瑞芳區形象商圈",
				"number": 76,
				"district": "瑞芳區"
			},
			"geometry": {
				"type": "Polygon",
				"coordinates": [
					[
						[121.8456, 25.114196608029594],
						[121.84456749404428, 25.114098342780764],
						[121.84358011835339, 25.113807842159144],
						[121.84268102995289, 25.113337803741864],
						[121.84190952577332, 25.112708772387375],
						[121.84129932476168, 25.111948241993794],
						[121.84087709411318, 25.111089453501478],
						[121.8406612840493, 25.11016994173911],
						[121.84066132202268, 25.109229894686194],
						[121.84087720146739, 25.10831039690938],
						[121.8412994829342, 25.10745163396994],
						[121.84190970741467, 25.106691136278236],
						[121.84268120365564, 25.106062139120173],
						[121.84358025408277, 25.10559213048099],
						[121.84456756833143, 25.10530165007024],
						[121.8456, 25.10520339197041],
						[121.8466324316686, 25.10530165007024],
						[121.84761974591724, 25.10559213048099],
						[121.84851879634438, 25.106062139120173],
						[121.84929029258535, 25.106691136278236],
						[121.84990051706582, 25.10745163396994],
						[121.85032279853263, 25.10831039690938],
						[121.85053867797734, 25.109229894686194],
						[121.85053871595072, 25.11016994173911],
						[121.85032290588684, 25.111089453501478],
						[121.84990067523835, 25.111948241993794],
						[121.8492904742267, 25.112708772387375],
						[121.84851897004714, 25.113337803741864],
						[121.84761988164664, 25.113807842159144],
						[121.84663250595574, 25.114098342780764],
						[121.8456, 25.114196608029594]
					]
				]
			}
		},
		{
			"type": "Feature",
			"properties": {
				"location": "新北市金山商圈",
				"number": 77,
				"district": "金山區"
			},
			"geometry": {
				"type": "Polygon",
				"coordinates": [
					[
						[121.6386, 25.2265966080296],
						[121.6375665417505, 25.226498342762497],
						[121.63657825541462, 25.226207842089238],
						[121.63567833784141, 25.22573780359586],
						[121.6349061222151, 25.225108772154],
						[121.63429535857941, 25.22434824167686],
						[121.63387273870971, 25.223489453119264],
						[121.63365672981854, 25.222569941321165],
						[121.63365676802118, 25.221629894268258],
						[121.63387284671201, 25.220710396527185],
						[121.6342955177068, 25.219851633653036],
						[121.63490630495303, 25.219091136044884],
						[121.63567851259282, 25.218462138974196],
						[121.63657839196338, 25.21799213041109],
						[121.63756661648611, 25.21770165005198],
						[121.6386, 25.21760339197041],
						[121.6396333835139, 25.21770165005198],
						[121.64062160803661, 25.21799213041109],
						[121.64152148740718, 25.218462138974196],
						[121.64229369504697, 25.219091136044884],
						[121.6429044822932, 25.219851633653036],
						[121.643327153288, 25.220710396527185],
						[121.64354323197882, 25.221629894268258],
						[121.64354327018145, 25.222569941321165],
						[121.6433272612903, 25.223489453119264],
						[121.6429046414206, 25.22434824167686],
						[121.6422938777849, 25.225108772154],
						[121.64152166215858, 25.22573780359586],
						[121.64062174458539, 25.226207842089238],
						[121.6396334582495, 25.226498342762497],
						[121.6386, 25.2265966080296]
					]
				]
			}
		},
		{
			"type": "Feature",
			"properties": {
				"location": "新北市深坑商圈",
				"number": 78,
				"district": "深坑區"
			},
			"geometry": {
				"type": "Polygon",
				"coordinates": [
					[
						[121.6167, 24.993996608029594],
						[121.61566850609428, 24.99389834280026],
						[121.61468209819111, 24.993607842233757],
						[121.6137838909935, 24.993137803897692],
						[121.61301314290348, 24.99250877263647],
						[121.61240353982002, 24.991748242332065],
						[121.61198172281574, 24.99088945390944],
						[121.61176612405497, 24.98996994218521],
						[121.61176616178423, 24.989029895132283],
						[121.61198182947977, 24.988110397317325],
						[121.61240369697569, 24.987251634308198],
						[121.61301332337709, 24.9864911365273],
						[121.61378406357956, 24.985862139275984],
						[121.61468223304787, 24.9853921305556],
						[121.61566857990385, 24.985101650089728],
						[121.6167, 24.985003391970405],
						[121.61773142009613, 24.985101650089728],
						[121.61871776695212, 24.9853921305556],
						[121.61961593642043, 24.985862139275984],
						[121.6203866766229, 24.9864911365273],
						[121.6209963030243, 24.987251634308198],
						[121.62141817052023, 24.988110397317325],
						[121.62163383821576, 24.989029895132283],
						[121.62163387594502, 24.98996994218521],
						[121.62141827718425, 24.99088945390944],
						[121.62099646017997, 24.991748242332065],
						[121.6203868570965, 24.99250877263647],
						[121.61961610900649, 24.993137803897692],
						[121.61871790180888, 24.993607842233757],
						[121.61773149390572, 24.99389834280026],
						[121.6167, 24.993996608029594]
					]
				]
			}
		},
		{
			"type": "Feature",
			"properties": {
				"location": "新北市雙溪低碳商圈",
				"number": 79,
				"district": "雙溪區"
			},
			"geometry": {
				"type": "Polygon",
				"coordinates": [
					[
						[121.859, 25.042796608029594],
						[121.857968095999, 25.04269834279235],
						[121.85698129593618, 25.042407842203485],
						[121.85608273166419, 25.041937803834465],
						[121.8553116771973, 25.041308772535398],
						[121.85470183182595, 25.04054824219481],
						[121.85427984720793, 25.039689453743904],
						[121.8540641628246, 25.0387699420042],
						[121.85406420065284, 25.03782989495128],
						[121.85427995415182, 25.0369103971518],
						[121.85470198939392, 25.036051634170946],
						[121.8553118581444, 25.035291136426242],
						[121.85608290470303, 25.034662139212763],
						[121.85698143114678, 25.034192130525327],
						[121.85796817000221, 25.033901650081823],
						[121.859, 25.033803391970405],
						[121.86003182999778, 25.033901650081823],
						[121.86101856885321, 25.034192130525327],
						[121.86191709529695, 25.034662139212763],
						[121.86268814185559, 25.035291136426242],
						[121.86329801060607, 25.036051634170946],
						[121.86372004584815, 25.0369103971518],
						[121.86393579934715, 25.03782989495128],
						[121.86393583717539, 25.0387699420042],
						[121.86372015279204, 25.039689453743904],
						[121.86329816817403, 25.04054824219481],
						[121.86268832280268, 25.041308772535398],
						[121.86191726833579, 25.041937803834465],
						[121.8610187040638, 25.042407842203485],
						[121.86003190400099, 25.04269834279235],
						[121.859, 25.042796608029594]
					]
				]
			}
		},
		{
			"type": "Feature",
			"properties": {
				"location": "新北市萬里商圈",
				"number": 80,
				"district": "萬里區"
			},
			"geometry": {
				"type": "Polygon",
				"coordinates": [
					[
						[121.6897, 25.183696608029596],
						[121.68866690589131, 25.18359834276948],
						[121.6876789677705, 25.183307842115934],
						[121.68677936725872, 25.182837803651623],
						[121.6860074236775, 25.18220877224313],
						[121.68539687517965, 25.1814482417979],
						[121.68497440414154, 25.18058945326523],
						[121.68475847127858, 25.179669941480782],
						[121.68475850939362, 25.178729894427864],
						[121.68497451189617, 25.177810396673145],
						[121.68539703394215, 25.176951633774063],
						[121.68600760599638, 25.176191136134005],
						[121.68677954160941, 25.175562139029942],
						[121.68767910400615, 25.17509213043779],
						[121.68866698045555, 25.174801650058953],
						[121.6897, 25.17470339197041],
						[121.69073301954444, 25.174801650058953],
						[121.69172089599385, 25.17509213043779],
						[121.69262045839059, 25.175562139029942],
						[121.69339239400362, 25.176191136134005],
						[121.69400296605785, 25.176951633774063],
						[121.69442548810383, 25.177810396673145],
						[121.69464149060637, 25.178729894427864],
						[121.6946415287214, 25.179669941480782],
						[121.69442559585845, 25.18058945326523],
						[121.69400312482036, 25.1814482417979],
						[121.69339257632251, 25.18220877224313],
						[121.69262063274127, 25.182837803651623],
						[121.6917210322295, 25.183307842115934],
						[121.69073309410868, 25.18359834276948],
						[121.6897, 25.183696608029596]
					]
				]
			}
		},
		{
			"type": "Feature",
			"properties": {
				"location": "新北市烏來區溫泉社區商圈",
				"number": 81,
				"district": "烏來區"
			},
			"geometry": {
				"type": "Polygon",
				"coordinates": [
					[
						[121.54849999999999, 24.8684966080296],
						[121.54746955581922, 24.86839834282058],
						[121.54648415173087, 24.86810784231152],
						[121.54558685853998, 24.867637804060077],
						[121.54481689468564, 24.867008772896035],
						[121.54420791178853, 24.866248242684563],
						[121.5437865238263, 24.865389454334544],
						[121.54357114423405, 24.86446994265005],
						[121.54357118170951, 24.863529895597118],
						[121.54378662977285, 24.86261039774241],
						[121.54420806788708, 24.861751634660667],
						[121.54481707394531, 24.860991136786847],
						[121.54558702996515, 24.86036213943835],
						[121.54648428568056, 24.859892130633344],
						[121.54746962913231, 24.85960165011005],
						[121.54849999999999, 24.859503391970406],
						[121.54953037086769, 24.85960165011005],
						[121.55051571431943, 24.859892130633344],
						[121.55141297003483, 24.86036213943835],
						[121.55218292605467, 24.860991136786847],
						[121.55279193211291, 24.861751634660667],
						[121.55321337022713, 24.86261039774241],
						[121.55342881829047, 24.863529895597118],
						[121.55342885576593, 24.86446994265005],
						[121.5532134761737, 24.865389454334544],
						[121.55279208821146, 24.866248242684563],
						[121.55218310531436, 24.867008772896035],
						[121.55141314146002, 24.867637804060077],
						[121.55051584826911, 24.86810784231152],
						[121.54953044418076, 24.86839834282058],
						[121.54849999999999, 24.8684966080296]
					]
				]
			}
		},
		{
			"type": "Feature",
			"properties": {
				"location": "新北市坪林區商圈",
				"number": 82,
				"district": "坪林區"
			},
			"geometry": {
				"type": "Polygon",
				"coordinates": [
					[
						[121.7005, 24.940496608029594],
						[121.69946895445295, 24.940398342808933],
						[121.69848297529933, 24.940107842266933],
						[121.69758515849242, 24.93963780396696],
						[121.69681474536529, 24.939008772747187],
						[121.69620540717598, 24.938248242482427],
						[121.69578377342427, 24.937389454090766],
						[121.69556826827484, 24.93646994238349],
						[121.69556830589579, 24.93552989533056],
						[121.69578387978207, 24.934610397498645],
						[121.69620556388041, 24.93375163445854],
						[121.69681492532074, 24.932991136638016],
						[121.69758533058294, 24.932362139345248],
						[121.69848310976893, 24.93189213058876],
						[121.69946902805061, 24.9316016500984],
						[121.7005, 24.93150339197041],
						[121.7015309719494, 24.9316016500984],
						[121.70251689023108, 24.93189213058876],
						[121.70341466941707, 24.932362139345248],
						[121.70418507467927, 24.932991136638016],
						[121.7047944361196, 24.93375163445854],
						[121.70521612021794, 24.934610397498645],
						[121.70543169410422, 24.93552989533056],
						[121.70543173172517, 24.93646994238349],
						[121.70521622657574, 24.937389454090766],
						[121.70479459282403, 24.938248242482427],
						[121.70418525463472, 24.939008772747187],
						[121.7034148415076, 24.93963780396696],
						[121.70251702470068, 24.940107842266933],
						[121.70153104554706, 24.940398342808933],
						[121.7005, 24.940496608029594]
					]
				]
			}
		},
		{
			"type": "Feature",
			"properties": {
				"location": "新北市八里區左岸觀光商圈",
				"number": 83,
				"district": "八里區"
			},
			"geometry": {
				"type": "Polygon",
				"coordinates": [
					[
						[121.4305, 25.165396608029596],
						[121.4294670609699, 25.165298342772452],
						[121.42847927114524, 25.16500784212732],
						[121.4275798056621, 25.164537803675394],
						[121.42680797793813, 25.163908772281125],
						[121.42619752106216, 25.163148241849502],
						[121.42577511340771, 25.16228945332746],
						[121.42555921292325, 25.161369941548827],
						[121.42555925100095, 25.160429894495916],
						[121.42577522105681, 25.159510396735378],
						[121.42619767966917, 25.158651633825663],
						[121.42680816007847, 25.157891136171994],
						[121.42757997984202, 25.15726213905371],
						[121.42847940724745, 25.156792130449166],
						[121.42946713546111, 25.156501650061923],
						[121.4305, 25.15640339197041],
						[121.4315328645389, 25.156501650061923],
						[121.43252059275254, 25.156792130449166],
						[121.43342002015797, 25.15726213905371],
						[121.43419183992152, 25.157891136171994],
						[121.43480232033082, 25.158651633825663],
						[121.43522477894318, 25.159510396735378],
						[121.43544074899904, 25.160429894495916],
						[121.43544078707674, 25.161369941548827],
						[121.4352248865923, 25.16228945332746],
						[121.43480247893783, 25.163148241849502],
						[121.43419202206186, 25.163908772281125],
						[121.43342019433788, 25.164537803675394],
						[121.43252072885475, 25.16500784212732],
						[121.4315329390301, 25.165298342772452],
						[121.4305, 25.165396608029596]
					]
				]
			},
			"id": 82
		},
		{
			"type": "Feature",
			"properties": {
				"location": "新北市三重碧華布街商圈",
				"number": 84,
				"district": "三重區"
			},
			"geometry": {
				"type": "Polygon",
				"coordinates": [
					[
						[121.4899, 25.084396608029593],
						[121.48886774556057, 25.0842983427856],
						[121.48788061038583, 25.084007842177655],
						[121.48698174098328, 25.083537803780523],
						[121.48621042470835, 25.082908772449173],
						[121.48560037229483, 25.082148242077718],
						[121.48517824444588, 25.08128945360269],
						[121.48496248689544, 25.08036994184979],
						[121.48496252480821, 25.07942989479687],
						[121.4851783516287, 25.078510397010593],
						[121.48560053021484, 25.07765163405386],
						[121.48621060605973, 25.076891136340027],
						[121.48698191440876, 25.07626213915883],
						[121.48788074589854, 25.075792130499497],
						[121.48886781972914, 25.075501650075076],
						[121.4899, 25.075403391970408],
						[121.49093218027089, 25.075501650075076],
						[121.49191925410149, 25.075792130499497],
						[121.49281808559127, 25.07626213915883],
						[121.49358939394028, 25.076891136340027],
						[121.49419946978519, 25.07765163405386],
						[121.49462164837132, 25.078510397010593],
						[121.4948374751918, 25.07942989479687],
						[121.49483751310459, 25.08036994184979],
						[121.49462175555415, 25.08128945360269],
						[121.4941996277052, 25.082148242077718],
						[121.49358957529168, 25.082908772449173],
						[121.49281825901674, 25.083537803780523],
						[121.49191938961418, 25.084007842177655],
						[121.49093225443946, 25.0842983427856],
						[121.4899, 25.084396608029593]
					]
				]
			}
		},
		{
			"type": "Feature",
			"properties": {
				"location": "新北市中和華新街商圈",
				"number": 85,
				"district": "中和區"
			},
			"geometry": {
				"type": "Polygon",
				"coordinates": [
					[
						[121.5081, 24.988596608029596],
						[121.50706855140766, 24.988498342801137],
						[121.5060821868361, 24.988207842237113],
						[121.50518401909336, 24.98773780390469],
						[121.50441330485639, 24.98710877264765],
						[121.5038037285445, 24.986348242347255],
						[121.50338193006061, 24.985489453927748],
						[121.50316634076071, 24.98456994220523],
						[121.50316637847901, 24.98362989515231],
						[121.50338203669372, 24.98271039733564],
						[121.50380388565453, 24.981851634323377],
						[121.50441348527765, 24.981091136538485],
						[121.50518419162935, 24.980462139282984],
						[121.50608232165378, 24.979992130558948],
						[121.50706862519581, 24.97970165009061],
						[121.5081, 24.979603391970407],
						[121.50913137480417, 24.97970165009061],
						[121.51011767834622, 24.979992130558948],
						[121.51101580837063, 24.980462139282984],
						[121.51178651472233, 24.981091136538485],
						[121.51239611434545, 24.981851634323377],
						[121.51281796330626, 24.98271039733564],
						[121.51303362152098, 24.98362989515231],
						[121.51303365923927, 24.98456994220523],
						[121.51281806993937, 24.985489453927748],
						[121.51239627145549, 24.986348242347255],
						[121.5117866951436, 24.98710877264765],
						[121.51101598090662, 24.98773780390469],
						[121.5101178131639, 24.988207842237113],
						[121.50913144859233, 24.988498342801137],
						[121.5081, 24.988596608029596]
					]
				]
			}
		},
		{
			"type": "Feature",
			"properties": {
				"location": "新北市林口建成商圈",
				"number": 86,
				"district": "林口區"
			},
			"geometry": {
				"type": "Polygon",
				"coordinates": [
					[
						[121.38949999999998, 25.081996608029595],
						[121.3884677657994, 25.081898342785994],
						[121.3874806499784, 25.08160784217915],
						[121.38658179819805, 25.081137803783637],
						[121.3858104970433, 25.080508772454156],
						[121.38520045658709, 25.07974824208448],
						[121.38477833701015, 25.078889453610845],
						[121.38456258368535, 25.077969941858704],
						[121.38456262159323, 25.077029894805783],
						[121.38477844417919, 25.076110397018745],
						[121.38520061448676, 25.07525163406062],
						[121.38581067837136, 25.074491136345006],
						[121.38658197160119, 25.073862139161946],
						[121.38748078547364, 25.07339213050099],
						[121.38846783995841, 25.073101650075465],
						[121.38949999999998, 25.07300339197041],
						[121.39053216004156, 25.073101650075465],
						[121.39151921452634, 25.07339213050099],
						[121.3924180283988, 25.073862139161946],
						[121.39318932162863, 25.074491136345006],
						[121.39379938551322, 25.07525163406062],
						[121.39422155582079, 25.076110397018745],
						[121.39443737840674, 25.077029894805783],
						[121.39443741631463, 25.077969941858704],
						[121.39422166298984, 25.078889453610845],
						[121.3937995434129, 25.07974824208448],
						[121.39318950295667, 25.080508772454156],
						[121.39241820180192, 25.081137803783637],
						[121.39151935002158, 25.08160784217915],
						[121.39053223420058, 25.081898342785994],
						[121.38949999999998, 25.081996608029595]
					]
				]
			}
		}
	]
}
