{
  "type": "FeatureCollection",
  "features": [
    {
      "type": "Feature",
      "geometry": {
        "type": "Point",
        "coordinates": [
          121.426372,
          25.136097
        ]
      },
      "properties": {
        "station_id": "C0AK30",
        "station_name": "硬漢嶺",
        "county_name": "新北市",
        "town_name": "八里區",
        "wind_speed": 2.7,
        "wind_direction": 243,
        "air_temperature": 21.8,
        "relative_humidity": 95,
        "air_pressure": 941.8,
        "gust_speed": 10.5,
        "obs_time": "2026-05-03T08:00:00+08:00"
      }
    },
    {
      "type": "Feature",
      "geometry": {
        "type": "Point",
        "coordinates": [
          121.364899,
          25.134937
        ]
      },
      "properties": {
        "station_id": "C0AK10",
        "station_name": "太平里",
        "county_name": "新北市",
        "town_name": "林口區",
        "wind_speed": 2.2,
        "wind_direction": 252,
        "air_temperature": 27.4,
        "relative_humidity": 73,
        "air_pressure": 1006.5,
        "gust_speed": null,
        "obs_time": "2026-05-03T08:00:00+08:00"
      }
    },
    {
      "type": "Feature",
      "geometry": {
        "type": "Point",
        "coordinates": [
          121.925264,
          25.055192
        ]
      },
      "properties": {
        "station_id": "C0AJ90",
        "station_name": "澳底",
        "county_name": "新北市",
        "town_name": "貢寮區",
        "wind_speed": 1.1,
        "wind_direction": 298,
        "air_temperature": 25,
        "relative_humidity": 82,
        "air_pressure": 1006.7,
        "gust_speed": null,
        "obs_time": "2026-05-03T08:00:00+08:00"
      }
    },
    {
      "type": "Feature",
      "geometry": {
        "type": "Point",
        "coordinates": [
          121.516506,
          25.096356
        ]
      },
      "properties": {
        "station_id": "C0A770",
        "station_name": "科教館",
        "county_name": "臺北市",
        "town_name": "士林區",
        "wind_speed": 0,
        "wind_direction": 0,
        "air_temperature": 26.6,
        "relative_humidity": 78,
        "air_pressure": 1004.2,
        "gust_speed": null,
        "obs_time": "2026-05-03T08:00:00+08:00"
      }
    },
    {
      "type": "Feature",
      "geometry": {
        "type": "Point",
        "coordinates": [
          121.690022,
          25.207031
        ]
      },
      "properties": {
        "station_id": "C0AJ20",
        "station_name": "野柳",
        "county_name": "新北市",
        "town_name": "萬里區",
        "wind_speed": 4.6,
        "wind_direction": 218,
        "air_temperature": 28,
        "relative_humidity": 58,
        "air_pressure": 1002.7,
        "gust_speed": 9.8,
        "obs_time": "2026-05-03T08:00:00+08:00"
      }
    },
    {
      "type": "Feature",
      "geometry": {
        "type": "Point",
        "coordinates": [
          121.408617,
          25.184592
        ]
      },
      "properties": {
        "station_id": "C0AJ30",
        "station_name": "淡水觀海",
        "county_name": "新北市",
        "town_name": "淡水區",
        "wind_speed": 3.3,
        "wind_direction": 171,
        "air_temperature": 27.1,
        "relative_humidity": 77,
        "air_pressure": 1006.7,
        "gust_speed": null,
        "obs_time": "2026-05-03T08:00:00+08:00"
      }
    },
    {
      "type": "Feature",
      "geometry": {
        "type": "Point",
        "coordinates": [
          121.6012,
          25.273672
        ]
      },
      "properties": {
        "station_id": "C0AJ40",
        "station_name": "石門",
        "county_name": "新北市",
        "town_name": "石門區",
        "wind_speed": 3.2,
        "wind_direction": 218,
        "air_temperature": 27.2,
        "relative_humidity": 81,
        "air_pressure": 992.7,
        "gust_speed": 9.4,
        "obs_time": "2026-05-03T08:00:00+08:00"
      }
    },
    {
      "type": "Feature",
      "geometry": {
        "type": "Point",
        "coordinates": [
          121.862239,
          25.123697
        ]
      },
      "properties": {
        "station_id": "C0AJ50",
        "station_name": "水湳洞",
        "county_name": "新北市",
        "town_name": "瑞芳區",
        "wind_speed": 0.2,
        "wind_direction": 0,
        "air_temperature": 27.6,
        "relative_humidity": 72,
        "air_pressure": 1007.9,
        "gust_speed": null,
        "obs_time": "2026-05-03T08:00:00+08:00"
      }
    },
    {
      "type": "Feature",
      "geometry": {
        "type": "Point",
        "coordinates": [
          121.448102,
          25.240002
        ]
      },
      "properties": {
        "station_id": "C0AJ60",
        "station_name": "六塊厝",
        "county_name": "新北市",
        "town_name": "淡水區",
        "wind_speed": 3.6,
        "wind_direction": 187,
        "air_temperature": 26.9,
        "relative_humidity": 78,
        "air_pressure": 1007.9,
        "gust_speed": null,
        "obs_time": "2026-05-03T08:00:00+08:00"
      }
    },
    {
      "type": "Feature",
      "geometry": {
        "type": "Point",
        "coordinates": [
          121.488597,
          25.2698
        ]
      },
      "properties": {
        "station_id": "C0AJ70",
        "station_name": "田寮",
        "county_name": "新北市",
        "town_name": "三芝區",
        "wind_speed": 4.7,
        "wind_direction": 202,
        "air_temperature": 27.5,
        "relative_humidity": 77,
        "air_pressure": 1007.2,
        "gust_speed": null,
        "obs_time": "2026-05-03T08:00:00+08:00"
      }
    },
    {
      "type": "Feature",
      "geometry": {
        "type": "Point",
        "coordinates": [
          121.448861,
          25.010653
        ]
      },
      "properties": {
        "station_id": "C0AJ80",
        "station_name": "板橋",
        "county_name": "新北市",
        "town_name": "板橋區",
        "wind_speed": 1,
        "wind_direction": 159,
        "air_temperature": 26.1,
        "relative_humidity": 76,
        "air_pressure": 1006.1,
        "gust_speed": null,
        "obs_time": "2026-05-03T08:00:00+08:00"
      }
    },
    {
      "type": "Feature",
      "geometry": {
        "type": "Point",
        "coordinates": [
          121.550428,
          25.048711
        ]
      },
      "properties": {
        "station_id": "C0AH70",
        "station_name": "松山",
        "county_name": "臺北市",
        "town_name": "松山區",
        "wind_speed": 0.9,
        "wind_direction": 259,
        "air_temperature": 24.4,
        "relative_humidity": 82,
        "air_pressure": 1006.4,
        "gust_speed": null,
        "obs_time": "2026-05-03T08:00:00+08:00"
      }
    },
    {
      "type": "Feature",
      "geometry": {
        "type": "Point",
        "coordinates": [
          121.519058,
          25.283128
        ]
      },
      "properties": {
        "station_id": "C0AI20",
        "station_name": "白沙灣",
        "county_name": "新北市",
        "town_name": "石門區",
        "wind_speed": 4.4,
        "wind_direction": 230,
        "air_temperature": 27.6,
        "relative_humidity": 81,
        "air_pressure": 1006,
        "gust_speed": null,
        "obs_time": "2026-05-03T08:00:00+08:00"
      }
    },
    {
      "type": "Feature",
      "geometry": {
        "type": "Point",
        "coordinates": [
          122.002058,
          25.007606
        ]
      },
      "properties": {
        "station_id": "C0A970",
        "station_name": "三貂角",
        "county_name": "新北市",
        "town_name": "貢寮區",
        "wind_speed": 3.5,
        "wind_direction": 182,
        "air_temperature": 24.9,
        "relative_humidity": 80,
        "air_pressure": 999.6,
        "gust_speed": null,
        "obs_time": "2026-05-03T08:00:00+08:00"
      }
    },
    {
      "type": "Feature",
      "geometry": {
        "type": "Point",
        "coordinates": [
          121.58135,
          24.760717
        ]
      },
      "properties": {
        "station_id": "C0AH90",
        "station_name": "福山植物園",
        "county_name": "新北市",
        "town_name": "烏來區",
        "wind_speed": 0.1,
        "wind_direction": 0,
        "air_temperature": 23.4,
        "relative_humidity": 84,
        "air_pressure": 938.1,
        "gust_speed": null,
        "obs_time": "2026-05-03T08:00:00+08:00"
      }
    },
    {
      "type": "Feature",
      "geometry": {
        "type": "Point",
        "coordinates": [
          121.70975,
          24.938183
        ]
      },
      "properties": {
        "station_id": "C0A530",
        "station_name": "坪林",
        "county_name": "新北市",
        "town_name": "坪林區",
        "wind_speed": 0.1,
        "wind_direction": 0,
        "air_temperature": 19.3,
        "relative_humidity": 92,
        "air_pressure": 974.6,
        "gust_speed": null,
        "obs_time": "2026-05-03T08:00:00+08:00"
      }
    },
    {
      "type": "Feature",
      "geometry": {
        "type": "Point",
        "coordinates": [
          121.823711,
          24.971197
        ]
      },
      "properties": {
        "station_id": "C0A550",
        "station_name": "泰平",
        "county_name": "新北市",
        "town_name": "雙溪區",
        "wind_speed": 0,
        "wind_direction": 0,
        "air_temperature": 21.3,
        "relative_humidity": 100,
        "air_pressure": 963.9,
        "gust_speed": null,
        "obs_time": "2026-05-03T08:00:00+08:00"
      }
    },
    {
      "type": "Feature",
      "geometry": {
        "type": "Point",
        "coordinates": [
          121.608692,
          25.132153
        ]
      },
      "properties": {
        "station_id": "C0A870",
        "station_name": "五指山",
        "county_name": "新北市",
        "town_name": "汐止區",
        "wind_speed": 8.3,
        "wind_direction": 263,
        "air_temperature": 20.9,
        "relative_humidity": 91,
        "air_pressure": 930,
        "gust_speed": 14.8,
        "obs_time": "2026-05-03T08:00:00+08:00"
      }
    },
    {
      "type": "Feature",
      "geometry": {
        "type": "Point",
        "coordinates": [
          121.658778,
          25.066881
        ]
      },
      "properties": {
        "station_id": "C0AH00",
        "station_name": "汐止",
        "county_name": "新北市",
        "town_name": "汐止區",
        "wind_speed": null,
        "wind_direction": null,
        "air_temperature": null,
        "relative_humidity": null,
        "air_pressure": null,
        "gust_speed": null,
        "obs_time": "2026-05-03T08:00:00+08:00"
      }
    },
    {
      "type": "Feature",
      "geometry": {
        "type": "Point",
        "coordinates": [
          121.369728,
          24.939025
        ]
      },
      "properties": {
        "station_id": "C0AC60",
        "station_name": "三峽",
        "county_name": "新北市",
        "town_name": "三峽區",
        "wind_speed": 0,
        "wind_direction": 0,
        "air_temperature": 26.6,
        "relative_humidity": 77,
        "air_pressure": 1004.5,
        "gust_speed": null,
        "obs_time": "2026-05-03T08:00:00+08:00"
      }
    },
    {
      "type": "Feature",
      "geometry": {
        "type": "Point",
        "coordinates": [
          121.564597,
          25.037822
        ]
      },
      "properties": {
        "station_id": "C0AC70",
        "station_name": "信義",
        "county_name": "臺北市",
        "town_name": "信義區",
        "wind_speed": 0,
        "wind_direction": 0,
        "air_temperature": 24.6,
        "relative_humidity": 79,
        "air_pressure": 1001.3,
        "gust_speed": null,
        "obs_time": "2026-05-03T08:00:00+08:00"
      }
    },
    {
      "type": "Feature",
      "geometry": {
        "type": "Point",
        "coordinates": [
          121.575728,
          25.00235
        ]
      },
      "properties": {
        "station_id": "C0AC80",
        "station_name": "文山",
        "county_name": "臺北市",
        "town_name": "文山區",
        "wind_speed": 0.7,
        "wind_direction": 79,
        "air_temperature": 24.7,
        "relative_humidity": 97,
        "air_pressure": 1003.7,
        "gust_speed": null,
        "obs_time": "2026-05-03T08:00:00+08:00"
      }
    },
    {
      "type": "Feature",
      "geometry": {
        "type": "Point",
        "coordinates": [
          121.446756,
          25.051478
        ]
      },
      "properties": {
        "station_id": "C0ACA0",
        "station_name": "新莊",
        "county_name": "新北市",
        "town_name": "新莊區",
        "wind_speed": 0,
        "wind_direction": 0,
        "air_temperature": 24.5,
        "relative_humidity": 80,
        "air_pressure": 1006.3,
        "gust_speed": null,
        "obs_time": "2026-05-03T08:00:00+08:00"
      }
    },
    {
      "type": "Feature",
      "geometry": {
        "type": "Point",
        "coordinates": [
          121.402008,
          24.974944
        ]
      },
      "properties": {
        "station_id": "C0A520",
        "station_name": "山佳",
        "county_name": "新北市",
        "town_name": "樹林區",
        "wind_speed": 0.8,
        "wind_direction": 171,
        "air_temperature": 25.8,
        "relative_humidity": 85,
        "air_pressure": 1004,
        "gust_speed": null,
        "obs_time": "2026-05-03T08:00:00+08:00"
      }
    },
    {
      "type": "Feature",
      "geometry": {
        "type": "Point",
        "coordinates": [
          121.597992,
          24.848222
        ]
      },
      "properties": {
        "station_id": "C0A570",
        "station_name": "桶後",
        "county_name": "新北市",
        "town_name": "烏來區",
        "wind_speed": 0.6,
        "wind_direction": 74,
        "air_temperature": 23.3,
        "relative_humidity": 92,
        "air_pressure": 968.7,
        "gust_speed": null,
        "obs_time": "2026-05-03T08:00:00+08:00"
      }
    },
    {
      "type": "Feature",
      "geometry": {
        "type": "Point",
        "coordinates": [
          121.864242,
          25.036003
        ]
      },
      "properties": {
        "station_id": "C0A890",
        "station_name": "雙溪",
        "county_name": "新北市",
        "town_name": "雙溪區",
        "wind_speed": 0,
        "wind_direction": 0,
        "air_temperature": 25,
        "relative_humidity": 89,
        "air_pressure": 1004.3,
        "gust_speed": null,
        "obs_time": "2026-05-03T08:00:00+08:00"
      }
    },
    {
      "type": "Feature",
      "geometry": {
        "type": "Point",
        "coordinates": [
          121.923372,
          25.129036
        ]
      },
      "properties": {
        "station_id": "C0A950",
        "station_name": "鼻頭角",
        "county_name": "新北市",
        "town_name": "瑞芳區",
        "wind_speed": 2.9,
        "wind_direction": 265,
        "air_temperature": 24.9,
        "relative_humidity": 83,
        "air_pressure": 1002.9,
        "gust_speed": null,
        "obs_time": "2026-05-03T08:00:00+08:00"
      }
    },
    {
      "type": "Feature",
      "geometry": {
        "type": "Point",
        "coordinates": [
          121.632969,
          25.165914
        ]
      },
      "properties": {
        "station_id": "C0A860",
        "station_name": "大坪",
        "county_name": "新北市",
        "town_name": "萬里區",
        "wind_speed": 9.2,
        "wind_direction": 201,
        "air_temperature": 24.2,
        "relative_humidity": 79,
        "air_pressure": 968.5,
        "gust_speed": 15.4,
        "obs_time": "2026-05-03T08:00:00+08:00"
      }
    },
    {
      "type": "Feature",
      "geometry": {
        "type": "Point",
        "coordinates": [
          121.595236,
          25.233153
        ]
      },
      "properties": {
        "station_id": "C0A931",
        "station_name": "三和",
        "county_name": "新北市",
        "town_name": "金山區",
        "wind_speed": 1.9,
        "wind_direction": 224,
        "air_temperature": 28.3,
        "relative_humidity": 75,
        "air_pressure": 983.3,
        "gust_speed": 8.2,
        "obs_time": "2026-05-03T08:00:00+08:00"
      }
    },
    {
      "type": "Feature",
      "geometry": {
        "type": "Point",
        "coordinates": [
          121.643967,
          25.223628
        ]
      },
      "properties": {
        "station_id": "C0A940",
        "station_name": "金山",
        "county_name": "新北市",
        "town_name": "金山區",
        "wind_speed": 1.1,
        "wind_direction": 256,
        "air_temperature": 26,
        "relative_humidity": 78,
        "air_pressure": 1004.5,
        "gust_speed": null,
        "obs_time": "2026-05-03T08:00:00+08:00"
      }
    },
    {
      "type": "Feature",
      "geometry": {
        "type": "Point",
        "coordinates": [
          121.662917,
          24.993969
        ]
      },
      "properties": {
        "station_id": "C0A640",
        "station_name": "石碇",
        "county_name": "新北市",
        "town_name": "石碇區",
        "wind_speed": 0,
        "wind_direction": 0,
        "air_temperature": 22.4,
        "relative_humidity": 89,
        "air_pressure": 983.4,
        "gust_speed": null,
        "obs_time": "2026-05-03T08:00:00+08:00"
      }
    },
    {
      "type": "Feature",
      "geometry": {
        "type": "Point",
        "coordinates": [
          121.57545,
          25.079422
        ]
      },
      "properties": {
        "station_id": "C0A9F0",
        "station_name": "內湖",
        "county_name": "臺北市",
        "town_name": "內湖區",
        "wind_speed": 1.3,
        "wind_direction": 236,
        "air_temperature": 25.9,
        "relative_humidity": 78,
        "air_pressure": 1005.9,
        "gust_speed": null,
        "obs_time": "2026-05-03T08:00:00+08:00"
      }
    },
    {
      "type": "Feature",
      "geometry": {
        "type": "Point",
        "coordinates": [
          121.491792,
          24.991622
        ]
      },
      "properties": {
        "station_id": "C0AG80",
        "station_name": "中和",
        "county_name": "新北市",
        "town_name": "中和區",
        "wind_speed": 0.7,
        "wind_direction": 106,
        "air_temperature": 24.4,
        "relative_humidity": 83,
        "air_pressure": 1004.6,
        "gust_speed": null,
        "obs_time": "2026-05-03T08:00:00+08:00"
      }
    },
    {
      "type": "Feature",
      "geometry": {
        "type": "Point",
        "coordinates": [
          121.537169,
          25.117494
        ]
      },
      "properties": {
        "station_id": "C0A9C0",
        "station_name": "天母",
        "county_name": "臺北市",
        "town_name": "士林區",
        "wind_speed": 1.1,
        "wind_direction": 320,
        "air_temperature": 27.7,
        "relative_humidity": 74,
        "air_pressure": 1007.1,
        "gust_speed": null,
        "obs_time": "2026-05-03T08:00:00+08:00"
      }
    },
    {
      "type": "Feature",
      "geometry": {
        "type": "Point",
        "coordinates": [
          121.469681,
          25.109508
        ]
      },
      "properties": {
        "station_id": "C0A980",
        "station_name": "社子",
        "county_name": "臺北市",
        "town_name": "士林區",
        "wind_speed": 0.4,
        "wind_direction": 105,
        "air_temperature": 26.6,
        "relative_humidity": 79,
        "air_pressure": 1009.6,
        "gust_speed": null,
        "obs_time": "2026-05-03T08:00:00+08:00"
      }
    },
    {
      "type": "Feature",
      "geometry": {
        "type": "Point",
        "coordinates": [
          121.522408,
          25.175675
        ]
      },
      "properties": {
        "station_id": "C0AC40",
        "station_name": "大屯山",
        "county_name": "臺北市",
        "town_name": "北投區",
        "wind_speed": 12.2,
        "wind_direction": 268,
        "air_temperature": 19,
        "relative_humidity": 100,
        "air_pressure": 892,
        "gust_speed": 19.8,
        "obs_time": "2026-05-03T08:00:00+08:00"
      }
    },
    {
      "type": "Feature",
      "geometry": {
        "type": "Point",
        "coordinates": [
          121.403947,
          25.150211
        ]
      },
      "properties": {
        "station_id": "C0AD10",
        "station_name": "八里",
        "county_name": "新北市",
        "town_name": "八里區",
        "wind_speed": 2.6,
        "wind_direction": 233,
        "air_temperature": 27.4,
        "relative_humidity": 95,
        "air_pressure": 1004.9,
        "gust_speed": null,
        "obs_time": "2026-05-03T08:00:00+08:00"
      }
    },
    {
      "type": "Feature",
      "geometry": {
        "type": "Point",
        "coordinates": [
          121.472331,
          25.086594
        ]
      },
      "properties": {
        "station_id": "C0AD30",
        "station_name": "蘆洲",
        "county_name": "新北市",
        "town_name": "蘆洲區",
        "wind_speed": 0.6,
        "wind_direction": 41,
        "air_temperature": 26.7,
        "relative_humidity": 76,
        "air_pressure": 1005.9,
        "gust_speed": null,
        "obs_time": "2026-05-03T08:00:00+08:00"
      }
    },
    {
      "type": "Feature",
      "geometry": {
        "type": "Point",
        "coordinates": [
          121.445169,
          24.973208
        ]
      },
      "properties": {
        "station_id": "C0AD40",
        "station_name": "土城",
        "county_name": "新北市",
        "town_name": "土城區",
        "wind_speed": 0.2,
        "wind_direction": 0,
        "air_temperature": 23.6,
        "relative_humidity": 82,
        "air_pressure": 1005.3,
        "gust_speed": null,
        "obs_time": "2026-05-03T08:00:00+08:00"
      }
    },
    {
      "type": "Feature",
      "geometry": {
        "type": "Point",
        "coordinates": [
          121.346294,
          24.951533
        ]
      },
      "properties": {
        "station_id": "C0AD50",
        "station_name": "鶯歌",
        "county_name": "新北市",
        "town_name": "鶯歌區",
        "wind_speed": 0.3,
        "wind_direction": 127,
        "air_temperature": 25.3,
        "relative_humidity": 92,
        "air_pressure": 999.7,
        "gust_speed": null,
        "obs_time": "2026-05-03T08:00:00+08:00"
      }
    },
    {
      "type": "Feature",
      "geometry": {
        "type": "Point",
        "coordinates": [
          121.508111,
          25.01125
        ]
      },
      "properties": {
        "station_id": "C0AH10",
        "station_name": "永和",
        "county_name": "新北市",
        "town_name": "永和區",
        "wind_speed": 1.6,
        "wind_direction": 128,
        "air_temperature": 25,
        "relative_humidity": 77,
        "air_pressure": 1006.2,
        "gust_speed": null,
        "obs_time": "2026-05-03T08:00:00+08:00"
      }
    },
    {
      "type": "Feature",
      "geometry": {
        "type": "Point",
        "coordinates": [
          121.780794,
          25.07125
        ]
      },
      "properties": {
        "station_id": "C0AH30",
        "station_name": "五分山",
        "county_name": "新北市",
        "town_name": "瑞芳區",
        "wind_speed": 0,
        "wind_direction": 0,
        "air_temperature": 25.6,
        "relative_humidity": 80,
        "air_pressure": 924.9,
        "gust_speed": null,
        "obs_time": "2026-05-03T08:00:00+08:00"
      }
    },
    {
      "type": "Feature",
      "geometry": {
        "type": "Point",
        "coordinates": [
          121.577086,
          25.129142
        ]
      },
      "properties": {
        "station_id": "C0AH40",
        "station_name": "平等",
        "county_name": "臺北市",
        "town_name": "士林區",
        "wind_speed": null,
        "wind_direction": null,
        "air_temperature": null,
        "relative_humidity": null,
        "air_pressure": null,
        "gust_speed": null,
        "obs_time": "2026-05-03T08:00:00+08:00"
      }
    },
    {
      "type": "Feature",
      "geometry": {
        "type": "Point",
        "coordinates": [
          121.380839,
          25.072181
        ]
      },
      "properties": {
        "station_id": "C0AH50",
        "station_name": "林口",
        "county_name": "新北市",
        "town_name": "林口區",
        "wind_speed": 2.2,
        "wind_direction": 225,
        "air_temperature": 25.1,
        "relative_humidity": 88,
        "air_pressure": 978.8,
        "gust_speed": 7.7,
        "obs_time": "2026-05-03T08:00:00+08:00"
      }
    },
    {
      "type": "Feature",
      "geometry": {
        "type": "Point",
        "coordinates": [
          121.628328,
          25.002703
        ]
      },
      "properties": {
        "station_id": "C0AH80",
        "station_name": "深坑",
        "county_name": "新北市",
        "town_name": "深坑區",
        "wind_speed": 0,
        "wind_direction": 0,
        "air_temperature": 26.1,
        "relative_humidity": 84,
        "air_pressure": 999.7,
        "gust_speed": null,
        "obs_time": "2026-05-03T08:00:00+08:00"
      }
    },
    {
      "type": "Feature",
      "geometry": {
        "type": "Point",
        "coordinates": [
          121.427281,
          25.074453
        ]
      },
      "properties": {
        "station_id": "C0AI00",
        "station_name": "五股",
        "county_name": "新北市",
        "town_name": "五股區",
        "wind_speed": 1,
        "wind_direction": 103,
        "air_temperature": 26.2,
        "relative_humidity": 85,
        "air_pressure": 989.2,
        "gust_speed": null,
        "obs_time": "2026-05-03T08:00:00+08:00"
      }
    },
    {
      "type": "Feature",
      "geometry": {
        "type": "Point",
        "coordinates": [
          121.544725,
          24.921836
        ]
      },
      "properties": {
        "station_id": "C0AI10",
        "station_name": "屈尺",
        "county_name": "新北市",
        "town_name": "新店區",
        "wind_speed": 2.1,
        "wind_direction": 174,
        "air_temperature": 23.6,
        "relative_humidity": 87,
        "air_pressure": 1000.1,
        "gust_speed": null,
        "obs_time": "2026-05-03T08:00:00+08:00"
      }
    },
    {
      "type": "Feature",
      "geometry": {
        "type": "Point",
        "coordinates": [
          121.500625,
          25.057378
        ]
      },
      "properties": {
        "station_id": "C0AI30",
        "station_name": "三重",
        "county_name": "新北市",
        "town_name": "三重區",
        "wind_speed": 1.3,
        "wind_direction": 131,
        "air_temperature": 24.8,
        "relative_humidity": 99,
        "air_pressure": 1007.7,
        "gust_speed": null,
        "obs_time": "2026-05-03T08:00:00+08:00"
      }
    },
    {
      "type": "Feature",
      "geometry": {
        "type": "Point",
        "coordinates": [
          121.513139,
          25.115597
        ]
      },
      "properties": {
        "station_id": "C0AI40",
        "station_name": "石牌",
        "county_name": "臺北市",
        "town_name": "北投區",
        "wind_speed": null,
        "wind_direction": null,
        "air_temperature": null,
        "relative_humidity": null,
        "air_pressure": null,
        "gust_speed": null,
        "obs_time": "2026-05-03T08:00:00+08:00"
      }
    },
    {
      "type": "Feature",
      "geometry": {
        "type": "Point",
        "coordinates": [
          121.525196,
          24.959207
        ]
      },
      "properties": {
        "station_id": "466881",
        "station_name": "新北",
        "county_name": "新北市",
        "town_name": "新店區",
        "wind_speed": 0.9,
        "wind_direction": 120,
        "air_temperature": 24.1,
        "relative_humidity": 79,
        "air_pressure": 1007,
        "gust_speed": null,
        "obs_time": "2026-05-03T08:00:00+08:00"
      }
    },
    {
      "type": "Feature",
      "geometry": {
        "type": "Point",
        "coordinates": [
          121.448906,
          25.164889
        ]
      },
      "properties": {
        "station_id": "466900",
        "station_name": "淡水",
        "county_name": "新北市",
        "town_name": "淡水區",
        "wind_speed": 2.9,
        "wind_direction": 150,
        "air_temperature": 26.2,
        "relative_humidity": 79,
        "air_pressure": 1007.4,
        "gust_speed": null,
        "obs_time": "2026-05-03T08:00:00+08:00"
      }
    },
    {
      "type": "Feature",
      "geometry": {
        "type": "Point",
        "coordinates": [
          121.529731,
          25.182586
        ]
      },
      "properties": {
        "station_id": "466910",
        "station_name": "鞍部",
        "county_name": "臺北市",
        "town_name": "北投區",
        "wind_speed": 2.3,
        "wind_direction": 160,
        "air_temperature": 19.9,
        "relative_humidity": 100,
        "air_pressure": 918.7,
        "gust_speed": 8.5,
        "obs_time": "2026-05-03T08:00:00+08:00"
      }
    },
    {
      "type": "Feature",
      "geometry": {
        "type": "Point",
        "coordinates": [
          121.514853,
          25.037658
        ]
      },
      "properties": {
        "station_id": "466920",
        "station_name": "臺北",
        "county_name": "臺北市",
        "town_name": "中正區",
        "wind_speed": 1.3,
        "wind_direction": 140,
        "air_temperature": 24.7,
        "relative_humidity": 77,
        "air_pressure": 1006.3,
        "gust_speed": null,
        "obs_time": "2026-05-03T08:00:00+08:00"
      }
    },
    {
      "type": "Feature",
      "geometry": {
        "type": "Point",
        "coordinates": [
          121.544547,
          25.162078
        ]
      },
      "properties": {
        "station_id": "466930",
        "station_name": "陽明山",
        "county_name": "臺北市",
        "town_name": "北投區",
        "wind_speed": 1.4,
        "wind_direction": 330,
        "air_temperature": 21.5,
        "relative_humidity": 92,
        "air_pressure": 942.6,
        "gust_speed": null,
        "obs_time": "2026-05-03T08:00:00+08:00"
      }
    },
    {
      "type": "Feature",
      "geometry": {
        "type": "Point",
        "coordinates": [
          121.386972,
          24.944503
        ]
      },
      "properties": {
        "station_id": "72AI40",
        "station_name": "桃改樹林分場",
        "county_name": "新北市",
        "town_name": "樹林區",
        "wind_speed": 0,
        "wind_direction": 0,
        "air_temperature": 24.9,
        "relative_humidity": 74,
        "air_pressure": 1006.2,
        "gust_speed": null,
        "obs_time": "2026-05-03T08:00:00+08:00"
      }
    },
    {
      "type": "Feature",
      "geometry": {
        "type": "Point",
        "coordinates": [
          121.631222,
          24.955778
        ]
      },
      "properties": {
        "station_id": "82A750",
        "station_name": "茶改北部分場",
        "county_name": "新北市",
        "town_name": "石碇區",
        "wind_speed": 1.4,
        "wind_direction": 50,
        "air_temperature": 23.9,
        "relative_humidity": 79,
        "air_pressure": 964.4,
        "gust_speed": null,
        "obs_time": "2026-05-03T08:00:00+08:00"
      }
    },
    {
      "type": "Feature",
      "geometry": {
        "type": "Point",
        "coordinates": [
          121.539416,
          25.014278
        ]
      },
      "properties": {
        "station_id": "A0A010",
        "station_name": "臺灣大學",
        "county_name": "臺北市",
        "town_name": "大安區",
        "wind_speed": 0.3,
        "wind_direction": 200,
        "air_temperature": 24.8,
        "relative_humidity": 75,
        "air_pressure": 1008.8,
        "gust_speed": null,
        "obs_time": "2026-05-03T08:00:00+08:00"
      }
    },
    {
      "type": "Feature",
      "geometry": {
        "type": "Point",
        "coordinates": [
          121.53987,
          25.13605
        ]
      },
      "properties": {
        "station_id": "A0A460",
        "station_name": "文化大學",
        "county_name": "臺北市",
        "town_name": "士林區",
        "wind_speed": 2.4,
        "wind_direction": 250,
        "air_temperature": 23.5,
        "relative_humidity": 82,
        "air_pressure": 962.6,
        "gust_speed": 8.5,
        "obs_time": "2026-05-03T08:00:00+08:00"
      }
    },
    {
      "type": "Feature",
      "geometry": {
        "type": "Point",
        "coordinates": [
          121.745736,
          24.8926
        ]
      },
      "properties": {
        "station_id": "C2A540",
        "station_name": "四堵",
        "county_name": "新北市",
        "town_name": "坪林區",
        "wind_speed": 0.2,
        "wind_direction": 0,
        "air_temperature": 23.2,
        "relative_humidity": 81,
        "air_pressure": 966.4,
        "gust_speed": null,
        "obs_time": "2026-05-03T08:00:00+08:00"
      }
    },
    {
      "type": "Feature",
      "geometry": {
        "type": "Point",
        "coordinates": [
          121.502811,
          24.776203
        ]
      },
      "properties": {
        "station_id": "C2A560",
        "station_name": "福山",
        "county_name": "新北市",
        "town_name": "烏來區",
        "wind_speed": 0.3,
        "wind_direction": 10,
        "air_temperature": 21.7,
        "relative_humidity": 88,
        "air_pressure": 964.6,
        "gust_speed": null,
        "obs_time": "2026-05-03T08:00:00+08:00"
      }
    },
    {
      "type": "Feature",
      "geometry": {
        "type": "Point",
        "coordinates": [
          121.742892,
          25.002719
        ]
      },
      "properties": {
        "station_id": "C2A650",
        "station_name": "火燒寮",
        "county_name": "新北市",
        "town_name": "平溪區",
        "wind_speed": 0.3,
        "wind_direction": 160,
        "air_temperature": 22.8,
        "relative_humidity": 95,
        "air_pressure": 978.6,
        "gust_speed": null,
        "obs_time": "2026-05-03T08:00:00+08:00"
      }
    },
    {
      "type": "Feature",
      "geometry": {
        "type": "Point",
        "coordinates": [
          121.801147,
          25.113169
        ]
      },
      "properties": {
        "station_id": "C2A660",
        "station_name": "瑞芳",
        "county_name": "新北市",
        "town_name": "瑞芳區",
        "wind_speed": 0.3,
        "wind_direction": 190,
        "air_temperature": 26.1,
        "relative_humidity": 79,
        "air_pressure": 998.8,
        "gust_speed": null,
        "obs_time": "2026-05-03T08:00:00+08:00"
      }
    },
    {
      "type": "Feature",
      "geometry": {
        "type": "Point",
        "coordinates": [
          121.942083,
          25.017842
        ]
      },
      "properties": {
        "station_id": "C2A880",
        "station_name": "福隆",
        "county_name": "新北市",
        "town_name": "貢寮區",
        "wind_speed": 0.3,
        "wind_direction": 350,
        "air_temperature": 25.5,
        "relative_humidity": 79,
        "air_pressure": 1007.6,
        "gust_speed": null,
        "obs_time": "2026-05-03T08:00:00+08:00"
      }
    },
    {
      "type": "Feature",
      "geometry": {
        "type": "Point",
        "coordinates": [
          121.565258,
          25.263783
        ]
      },
      "properties": {
        "station_id": "C2A920",
        "station_name": "富貴角",
        "county_name": "新北市",
        "town_name": "石門區",
        "wind_speed": 4.8,
        "wind_direction": 230,
        "air_temperature": 25.6,
        "relative_humidity": 78,
        "air_pressure": 986.6,
        "gust_speed": 13.6,
        "obs_time": "2026-05-03T08:00:00+08:00"
      }
    },
    {
      "type": "Feature",
      "geometry": {
        "type": "Point",
        "coordinates": [
          121.49199,
          25.11576
        ]
      },
      "properties": {
        "station_id": "C2AA10",
        "station_name": "中八仙",
        "county_name": "臺北市",
        "town_name": "北投區",
        "wind_speed": 1.3,
        "wind_direction": 50,
        "air_temperature": 26.4,
        "relative_humidity": 81,
        "air_pressure": 1009.7,
        "gust_speed": null,
        "obs_time": "2026-05-03T08:00:00+08:00"
      }
    },
    {
      "type": "Feature",
      "geometry": {
        "type": "Point",
        "coordinates": [
          121.53492,
          24.84108
        ]
      },
      "properties": {
        "station_id": "C2AK30",
        "station_name": "信賢",
        "county_name": "新北市",
        "town_name": "烏來區",
        "wind_speed": 1.1,
        "wind_direction": 240,
        "air_temperature": 22,
        "relative_humidity": 80,
        "air_pressure": 971.6,
        "gust_speed": null,
        "obs_time": "2026-05-03T08:00:00+08:00"
      }
    },
    {
      "type": "Feature",
      "geometry": {
        "type": "Point",
        "coordinates": [
          121.72132,
          24.96875
        ]
      },
      "properties": {
        "station_id": "C2AK40",
        "station_name": "漁光",
        "county_name": "新北市",
        "town_name": "坪林區",
        "wind_speed": 1.4,
        "wind_direction": 190,
        "air_temperature": 23.6,
        "relative_humidity": 75,
        "air_pressure": 931.2,
        "gust_speed": null,
        "obs_time": "2026-05-03T08:00:00+08:00"
      }
    },
    {
      "type": "Feature",
      "geometry": {
        "type": "Point",
        "coordinates": [
          121.628153,
          25.066739
        ]
      },
      "properties": {
        "station_id": "CAA010",
        "station_name": "國一N013K",
        "county_name": "新北市",
        "town_name": "汐止區",
        "wind_speed": 1,
        "wind_direction": 220,
        "air_temperature": 25.8,
        "relative_humidity": 81,
        "air_pressure": 1007,
        "gust_speed": null,
        "obs_time": "2026-05-03T08:00:00+08:00"
      }
    },
    {
      "type": "Feature",
      "geometry": {
        "type": "Point",
        "coordinates": [
          121.4964,
          25.07639
        ]
      },
      "properties": {
        "station_id": "CAA020",
        "station_name": "國一S026K",
        "county_name": "新北市",
        "town_name": "三重區",
        "wind_speed": 1.5,
        "wind_direction": 100,
        "air_temperature": 26.3,
        "relative_humidity": 73,
        "air_pressure": 1007.2,
        "gust_speed": null,
        "obs_time": "2026-05-03T08:00:00+08:00"
      }
    },
    {
      "type": "Feature",
      "geometry": {
        "type": "Point",
        "coordinates": [
          121.6475,
          25.08
        ]
      },
      "properties": {
        "station_id": "CAA030",
        "station_name": "國三S010K",
        "county_name": "新北市",
        "town_name": "汐止區",
        "wind_speed": 2,
        "wind_direction": 160,
        "air_temperature": 25.3,
        "relative_humidity": 75,
        "air_pressure": 1004.7,
        "gust_speed": null,
        "obs_time": "2026-05-03T08:00:00+08:00"
      }
    },
    {
      "type": "Feature",
      "geometry": {
        "type": "Point",
        "coordinates": [
          121.6158,
          25.03306
        ]
      },
      "properties": {
        "station_id": "CAA040",
        "station_name": "國三S016K",
        "county_name": "臺北市",
        "town_name": "南港區",
        "wind_speed": 0.5,
        "wind_direction": 40,
        "air_temperature": 26.5,
        "relative_humidity": 83,
        "air_pressure": 1002.2,
        "gust_speed": null,
        "obs_time": "2026-05-03T08:00:00+08:00"
      }
    },
    {
      "type": "Feature",
      "geometry": {
        "type": "Point",
        "coordinates": [
          121.471042,
          24.982361
        ]
      },
      "properties": {
        "station_id": "CAA050",
        "station_name": "國三S037K",
        "county_name": "新北市",
        "town_name": "土城區",
        "wind_speed": 0.9,
        "wind_direction": 40,
        "air_temperature": 25.6,
        "relative_humidity": 85,
        "air_pressure": 1004.4,
        "gust_speed": null,
        "obs_time": "2026-05-03T08:00:00+08:00"
      }
    },
    {
      "type": "Feature",
      "geometry": {
        "type": "Point",
        "coordinates": [
          121.4306,
          24.96
        ]
      },
      "properties": {
        "station_id": "CAA060",
        "station_name": "國三S042K",
        "county_name": "新北市",
        "town_name": "土城區",
        "wind_speed": 0.6,
        "wind_direction": 50,
        "air_temperature": 25.7,
        "relative_humidity": 83,
        "air_pressure": 1005.2,
        "gust_speed": null,
        "obs_time": "2026-05-03T08:00:00+08:00"
      }
    },
    {
      "type": "Feature",
      "geometry": {
        "type": "Point",
        "coordinates": [
          121.3958,
          24.95083
        ]
      },
      "properties": {
        "station_id": "CAA070",
        "station_name": "國三N046K",
        "county_name": "新北市",
        "town_name": "樹林區",
        "wind_speed": 0.5,
        "wind_direction": 100,
        "air_temperature": 25.8,
        "relative_humidity": 83,
        "air_pressure": 1004.9,
        "gust_speed": null,
        "obs_time": "2026-05-03T08:00:00+08:00"
      }
    },
    {
      "type": "Feature",
      "geometry": {
        "type": "Point",
        "coordinates": [
          121.3239,
          24.93917
        ]
      },
      "properties": {
        "station_id": "CAA080",
        "station_name": "國三S054K",
        "county_name": "新北市",
        "town_name": "鶯歌區",
        "wind_speed": 0.4,
        "wind_direction": 210,
        "air_temperature": 25.8,
        "relative_humidity": 81,
        "air_pressure": 1000,
        "gust_speed": null,
        "obs_time": "2026-05-03T08:00:00+08:00"
      }
    },
    {
      "type": "Feature",
      "geometry": {
        "type": "Point",
        "coordinates": [
          121.5975,
          25.00194
        ]
      },
      "properties": {
        "station_id": "CAA090",
        "station_name": "國三甲005K",
        "county_name": "臺北市",
        "town_name": "文山區",
        "wind_speed": 1.7,
        "wind_direction": 70,
        "air_temperature": 23.8,
        "relative_humidity": 90,
        "air_pressure": 1003.6,
        "gust_speed": null,
        "obs_time": "2026-05-03T08:00:00+08:00"
      }
    },
    {
      "type": "Feature",
      "geometry": {
        "type": "Point",
        "coordinates": [
          121.381972,
          25.064433
        ]
      },
      "properties": {
        "station_id": "CAA990",
        "station_name": "國一N039K",
        "county_name": "新北市",
        "town_name": "泰山區",
        "wind_speed": 1,
        "wind_direction": 20,
        "air_temperature": 27,
        "relative_humidity": 77,
        "air_pressure": 986.7,
        "gust_speed": null,
        "obs_time": "2026-05-03T08:00:00+08:00"
      }
    },
    {
      "type": "Feature",
      "geometry": {
        "type": "Point",
        "coordinates": [
          121.651931,
          24.996414
        ]
      },
      "properties": {
        "station_id": "CAAD60",
        "station_name": "國五S005K",
        "county_name": "新北市",
        "town_name": "石碇區",
        "wind_speed": 0.1,
        "wind_direction": 0,
        "air_temperature": null,
        "relative_humidity": null,
        "air_pressure": null,
        "gust_speed": null,
        "obs_time": "2026-05-03T08:00:00+08:00"
      }
    },
    {
      "type": "Feature",
      "geometry": {
        "type": "Point",
        "coordinates": [
          121.656972,
          24.989964
        ]
      },
      "properties": {
        "station_id": "CAAD70",
        "station_name": "國五S006K",
        "county_name": "新北市",
        "town_name": "石碇區",
        "wind_speed": 0.3,
        "wind_direction": 80,
        "air_temperature": 25.2,
        "relative_humidity": 82,
        "air_pressure": 990.5,
        "gust_speed": null,
        "obs_time": "2026-05-03T08:00:00+08:00"
      }
    },
    {
      "type": "Feature",
      "geometry": {
        "type": "Point",
        "coordinates": [
          121.668089,
          24.982411
        ]
      },
      "properties": {
        "station_id": "CAAD80",
        "station_name": "國五N008K",
        "county_name": "新北市",
        "town_name": "石碇區",
        "wind_speed": 0.8,
        "wind_direction": 50,
        "air_temperature": 24.8,
        "relative_humidity": 84,
        "air_pressure": 986.2,
        "gust_speed": null,
        "obs_time": "2026-05-03T08:00:00+08:00"
      }
    },
    {
      "type": "Feature",
      "geometry": {
        "type": "Point",
        "coordinates": [
          121.705508,
          24.947603
        ]
      },
      "properties": {
        "station_id": "CAAD90",
        "station_name": "國五N013K",
        "county_name": "新北市",
        "town_name": "坪林區",
        "wind_speed": 1,
        "wind_direction": 140,
        "air_temperature": 22.1,
        "relative_humidity": 93,
        "air_pressure": 980.9,
        "gust_speed": null,
        "obs_time": "2026-05-03T08:00:00+08:00"
      }
    },
    {
      "type": "Feature",
      "geometry": {
        "type": "Point",
        "coordinates": [
          121.53628,
          25.02955
        ]
      },
      "properties": {
        "station_id": "CAAH60",
        "station_name": "大安森林",
        "county_name": "臺北市",
        "town_name": "大安區",
        "wind_speed": 0,
        "wind_direction": 0,
        "air_temperature": 24.2,
        "relative_humidity": 79,
        "air_pressure": 1008.6,
        "gust_speed": null,
        "obs_time": "2026-05-03T08:00:00+08:00"
      }
    }
  ]
}