{"type" : "FeatureCollection", "name" : "EcoRestaurant", "features" : [{"type" : "Feature", "geometry" : {"type" : "Point", "coordinates" : [121.550306697167, 25.054834776118]}, "properties" : {"name" : "《扶風堂》披薩。義麵。吉拉朵", "address" : "臺北市松山區敦化北路165巷5號1樓", "city" : "臺北市", "district" : "松山區", "tel" : "(02)27153377", "env_actions" : ["環境管理","惜食(善用食材)","環境教育"], "source_dataset" : "tpe_00002761", "seq_no" : "1"}}, {"type" : "Feature", "geometry" : {"type" : "Point", "coordinates" : [121.54323723239, 25.024049135402]}, "properties" : {"name" : "6：35 Brunch & Dinner(大安旗艦店)", "address" : "臺北市大安區復興南路二段288號", "city" : "臺北市", "district" : "大安區", "tel" : "(02)23770100", "env_actions" : ["環境管理"], "source_dataset" : "tpe_00002761", "seq_no" : "2"}}, {"type" : "Feature", "geometry" : {"type" : "Point", "coordinates" : [121.575364899624, 25.060140688466]}, "properties" : {"name" : "88號樂章-88 La Plaza", "address" : "臺北市內湖區民善街88號5樓", "city" : "臺北市", "district" : "內湖區", "tel" : "(02)27943800", "env_actions" : ["環境管理","綠色採購"], "source_dataset" : "tpe_00002761", "seq_no" : "3"}}, {"type" : "Feature", "geometry" : {"type" : "Point", "coordinates" : [121.54308765211, 25.041491888133]}, "properties" : {"name" : "Aunt Stella 詩特莉", "address" : "臺北市大安區忠孝東路三段300號B3", "city" : "臺北市", "district" : "大安區", "tel" : "(02)87721638", "env_actions" : ["環境管理","源頭減量","惜食(善用食材)"], "source_dataset" : "tpe_00002761", "seq_no" : "4"}}, {"type" : "Feature", "geometry" : {"type" : "Point", "coordinates" : [121.548295375681, 25.033471274671]}, "properties" : {"name" : "AW Cafe Wine Bistro", "address" : "臺北市信義區信義路四段115-2號", "city" : "臺北市", "district" : "信義區", "tel" : "(02)27012498", "env_actions" : ["環境管理","綠色採購","食材及餐點","源頭減量","惜食(打包服務)","惜食(善用食材)","環境教育"], "source_dataset" : "tpe_00002761", "seq_no" : "5"}}, {"type" : "Feature", "geometry" : {"type" : "Point", "coordinates" : [121.563477265445, 25.044283091577]}, "properties" : {"name" : "BaganHood 蔬食餐酒館", "address" : "臺北市信義區忠孝東路四段553巷46弄11號", "city" : "臺北市", "district" : "信義區", "tel" : "(02)37622557", "env_actions" : ["惜食(善用食材)","環境教育"], "source_dataset" : "tpe_00002761", "seq_no" : "6"}}, {"type" : "Feature", "geometry" : {"type" : "Point", "coordinates" : [121.54462066551, 25.043907456586]}, "properties" : {"name" : "Bar. Tender 八天餐酒館", "address" : "臺北市大安區復興南路一段107巷5弄2號", "city" : "臺北市", "district" : "大安區", "tel" : "(02)27782105", "env_actions" : ["環境管理","源頭減量"], "source_dataset" : "tpe_00002761", "seq_no" : "7"}}, {"type" : "Feature", "geometry" : {"type" : "Point", "coordinates" : [121.528938962859, 25.0285387342]}, "properties" : {"name" : "Bea's Bistro 美式餐館", "address" : "臺北市大安區潮州街133號", "city" : "臺北市", "district" : "大安區", "tel" : "(02)23918827", "env_actions" : ["環境管理","惜食(善用食材)","環境教育"], "source_dataset" : "tpe_00002761", "seq_no" : "8"}}, {"type" : "Feature", "geometry" : {"type" : "Point", "coordinates" : [121.546784118538, 25.058831141823]}, "properties" : {"name" : "Blooming 花漾蒔光", "address" : "臺北市松山區復興北路313巷38號", "city" : "臺北市", "district" : "松山區", "tel" : "(02)25460909", "env_actions" : ["環境管理"], "source_dataset" : "tpe_00002761", "seq_no" : "9"}}, {"type" : "Feature", "geometry" : {"type" : "Point", "coordinates" : [121.504980941224, 25.045224580449]}, "properties" : {"name" : "Blue磚塊義法廚房", "address" : "臺北市萬華區武昌街二段83之8號", "city" : "臺北市", "district" : "萬華區", "tel" : "(02)23110070", "env_actions" : ["環境管理"], "source_dataset" : "tpe_00002761", "seq_no" : "10"}}, {"type" : "Feature", "geometry" : {"type" : "Point", "coordinates" : [121.528411573511, 25.026879829833]}, "properties" : {"name" : "Camo咖啡", "address" : "臺北市大安區和平東路一段129號", "city" : "臺北市", "district" : "大安區", "tel" : "(02)33433931", "env_actions" : ["環境管理","綠色採購","源頭減量","惜食(善用食材)","環境教育"], "source_dataset" : "tpe_00002761", "seq_no" : "11"}}, {"type" : "Feature", "geometry" : {"type" : "Point", "coordinates" : [121.52427803796, 25.105007004507]}, "properties" : {"name" : "Capricciosa卡布里喬莎(天母SOGO店)", "address" : "臺北市士林區中山北路六段77號8F", "city" : "臺北市", "district" : "士林區", "tel" : "(02)28332558", "env_actions" : ["環境管理","綠色採購","源頭減量","惜食(善用食材)","環境教育"], "source_dataset" : "tpe_00002761", "seq_no" : "12"}}, {"type" : "Feature", "geometry" : {"type" : "Point", "coordinates" : [121.557929116095, 25.045992161634]}, "properties" : {"name" : "Coming Bistro", "address" : "臺北市松山區光復南路55號1樓", "city" : "臺北市", "district" : "松山區", "tel" : "(02)27479225", "env_actions" : ["環境管理"], "source_dataset" : "tpe_00002761", "seq_no" : "16"}}, {"type" : "Feature", "geometry" : {"type" : "Point", "coordinates" : [121.548552243324, 25.040371006687]}, "properties" : {"name" : "EN壽司．和食", "address" : "臺北市大安區敦化南路一段246號B2", "city" : "臺北市", "district" : "大安區", "tel" : "(02)27730246", "env_actions" : ["環境管理","綠色採購","源頭減量","惜食(善用食材)","環境教育"], "source_dataset" : "tpe_00002761", "seq_no" : "19"}}, {"type" : "Feature", "geometry" : {"type" : "Point", "coordinates" : [121.549229622609, 25.034060564374]}, "properties" : {"name" : "GUSTOSO", "address" : "臺北市大安區敦化南路一段331號", "city" : "臺北市", "district" : "大安區", "tel" : "(02)77269099", "env_actions" : ["環境管理","綠色採購","源頭減量","惜食(善用食材)","環境教育"], "source_dataset" : "tpe_00002761", "seq_no" : "21"}}, {"type" : "Feature", "geometry" : {"type" : "Point", "coordinates" : [121.529353783247, 25.025843281777]}, "properties" : {"name" : "inn cafe x 台北師大店", "address" : "臺北市大安區龍泉街7號", "city" : "臺北市", "district" : "大安區", "tel" : "(02)23690055", "env_actions" : ["環境管理","綠色採購"], "source_dataset" : "tpe_00002761", "seq_no" : "22"}}, {"type" : "Feature", "geometry" : {"type" : "Point", "coordinates" : [121.534037339284, 25.117079794927]}, "properties" : {"name" : "KANPAI CLASSIC 天母店", "address" : "臺北市士林區臺北市士林區忠誠路二段 200 號 2 樓", "city" : "臺北市", "district" : "士林區", "tel" : "(02)28771550", "env_actions" : ["環境管理","源頭減量"], "source_dataset" : "tpe_00002761", "seq_no" : "24"}}, {"type" : "Feature", "geometry" : {"type" : "Point", "coordinates" : [121.544882767622, 25.041902421527]}, "properties" : {"name" : "Lady nara台北忠孝SOGO店", "address" : "臺北市大安區忠孝東路四段45號12樓", "city" : "臺北市", "district" : "大安區", "tel" : "(02)27712585", "env_actions" : ["環境管理","綠色採購","源頭減量","惜食(善用食材)","環境教育"], "source_dataset" : "tpe_00002761", "seq_no" : "25"}}, {"type" : "Feature", "geometry" : {"type" : "Point", "coordinates" : [121.577834208299, 25.064401503217]}, "properties" : {"name" : "LIFE KITCHEN", "address" : "臺北市內湖區新湖三路134號", "city" : "臺北市", "district" : "內湖區", "tel" : "(02)27931818", "env_actions" : ["環境管理","綠色採購","源頭減量","惜食(善用食材)"], "source_dataset" : "tpe_00002761", "seq_no" : "26"}}, {"type" : "Feature", "geometry" : {"type" : "Point", "coordinates" : [121.543375366155, 25.051396896621]}, "properties" : {"name" : "Machikaka 智允餐飲", "address" : "臺北市中山區南京東路三段216巷4號一樓", "city" : "臺北市", "district" : "中山區", "tel" : "(02)27772777", "env_actions" : ["環境管理"], "source_dataset" : "tpe_00002761", "seq_no" : "28"}}, {"type" : "Feature", "geometry" : {"type" : "Point", "coordinates" : [121.543950783808, 25.030760357636]}, "properties" : {"name" : "Mama Inca印加媽媽 秘魯餐館", "address" : "臺北市大安區瑞安街31巷1-1號", "city" : "臺北市", "district" : "大安區", "tel" : "(02)27092832", "env_actions" : ["環境管理","綠色採購","惜食(善用食材)","環境教育","8"], "source_dataset" : "tpe_00002761", "seq_no" : "29"}}, {"type" : "Feature", "geometry" : {"type" : "Point", "coordinates" : [121.523613017762, 25.067599325007]}, "properties" : {"name" : "Maya Bistro 瑪亞餐酒", "address" : "臺北市中山區雙城街46巷1號1樓", "city" : "臺北市", "district" : "中山區", "tel" : "(02)25850305", "env_actions" : ["環境管理","綠色採購","源頭減量","惜食(善用食材)"], "source_dataset" : "tpe_00002761", "seq_no" : "30"}}, {"type" : "Feature", "geometry" : {"type" : "Point", "coordinates" : [121.544882767622, 25.041902421527]}, "properties" : {"name" : "Nara Thai Cuisine 台北忠孝SOGO 店", "address" : "臺北市大安區忠孝東路四段45號11樓", "city" : "臺北市", "district" : "大安區", "tel" : "(02)27718939", "env_actions" : ["環境管理","綠色採購","源頭減量","惜食(善用食材)","環境教育"], "source_dataset" : "tpe_00002761", "seq_no" : "38"}}, {"type" : "Feature", "geometry" : {"type" : "Point", "coordinates" : [121.518750591911, 25.044343147913]}, "properties" : {"name" : "OEC蚌麵", "address" : "臺北市中正區臺北市中正區中山南路8號B1", "city" : "臺北市", "district" : "中正區", "tel" : "(02)23117819", "env_actions" : ["環境管理"], "source_dataset" : "tpe_00002761", "seq_no" : "39"}}, {"type" : "Feature", "geometry" : {"type" : "Point", "coordinates" : [121.530198440635, 25.033558385686]}, "properties" : {"name" : "petit doux 微兜  永康店", "address" : "臺北市大安區臺北市大安區信義路二段 198 巷 7-3 號1樓", "city" : "臺北市", "district" : "大安區", "tel" : "(02)23951336", "env_actions" : ["環境管理","綠色採購","源頭減量"], "source_dataset" : "tpe_00002761", "seq_no" : "46"}}, {"type" : "Feature", "geometry" : {"type" : "Point", "coordinates" : [121.516784113607, 25.049090071139]}, "properties" : {"name" : "petit doux 微兜  京站店", "address" : "臺北市大同區臺北市大同區承德路一段1號1樓", "city" : "臺北市", "district" : "大同區", "tel" : "(02)77290009", "env_actions" : ["環境管理","綠色採購","源頭減量"], "source_dataset" : "tpe_00002761", "seq_no" : "47"}}, {"type" : "Feature", "geometry" : {"type" : "Point", "coordinates" : [121.575456010911, 25.042385680155]}, "properties" : {"name" : "PINK SALT｜披薩｜義麵 ", "address" : "臺北市信義區忠孝東路五段423巷28號", "city" : "臺北市", "district" : "信義區", "tel" : "(02)27564233", "env_actions" : ["環境管理","惜食(善用食材)","環境教育"], "source_dataset" : "tpe_00002761", "seq_no" : "48"}}, {"type" : "Feature", "geometry" : {"type" : "Point", "coordinates" : [121.544189165134, 25.036750610469]}, "properties" : {"name" : "Plants", "address" : "臺北市大安區復興南路1段253巷10號1樓", "city" : "臺北市", "district" : "大安區", "tel" : "(02)27845677", "env_actions" : ["環境管理","綠色採購","食材及餐點","源頭減量","惜食(打包服務)","惜食(善用食材)","環境教育"], "source_dataset" : "tpe_00002761", "seq_no" : "49"}}, {"type" : "Feature", "geometry" : {"type" : "Point", "coordinates" : [121.506864550294, 25.036455609387]}, "properties" : {"name" : "PRIME ONE 牛排館", "address" : "臺北市中正區中華路二段1號", "city" : "臺北市", "district" : "中正區", "tel" : "(02)23143300", "env_actions" : ["環境管理","綠色採購","惜食(善用食材)"], "source_dataset" : "tpe_00002761", "seq_no" : "50"}}, {"type" : "Feature", "geometry" : {"type" : "Point", "coordinates" : [121.510030143666, 25.083091931922]}, "properties" : {"name" : "Q Burger士林延平店", "address" : "臺北市士林區延平北路五段179號", "city" : "臺北市", "district" : "士林區", "tel" : "(02)28110658", "env_actions" : ["--"], "source_dataset" : "tpe_00002761", "seq_no" : "52"}}, {"type" : "Feature", "geometry" : {"type" : "Point", "coordinates" : [121.532665054096, 25.107074987659]}, "properties" : {"name" : "Q Burger士林忠義店", "address" : "臺北市士林區忠義街113-1號一樓", "city" : "臺北市", "district" : "士林區", "tel" : "(02)28343148", "env_actions" : ["--"], "source_dataset" : "tpe_00002761", "seq_no" : "53"}}, {"type" : "Feature", "geometry" : {"type" : "Point", "coordinates" : [121.55366960054, 25.019634680366]}, "properties" : {"name" : "Q Burger大安樂業店", "address" : "臺北市大安區樂業街153號", "city" : "臺北市", "district" : "大安區", "tel" : "(02)27360209", "env_actions" : ["--"], "source_dataset" : "tpe_00002761", "seq_no" : "57"}}, {"type" : "Feature", "geometry" : {"type" : "Point", "coordinates" : [121.513242424239, 25.062797206949]}, "properties" : {"name" : "Q Burger大橋頭店", "address" : "臺北市信義區民權西路226號", "city" : "臺北市", "district" : "信義區", "tel" : "(02)25500147", "env_actions" : ["--"], "source_dataset" : "tpe_00002761", "seq_no" : "58"}}, {"type" : "Feature", "geometry" : {"type" : "Point", "coordinates" : [121.528940471601, 25.056967299924]}, "properties" : {"name" : "Q Burger中山中原店", "address" : "臺北市中山區中原街41號1樓", "city" : "臺北市", "district" : "中山區", "tel" : "(02)25232521", "env_actions" : ["--"], "source_dataset" : "tpe_00002761", "seq_no" : "59"}}, {"type" : "Feature", "geometry" : {"type" : "Point", "coordinates" : [121.530505289105, 25.065791977134]}, "properties" : {"name" : "Q Burger中山吉林店", "address" : "臺北市士林區吉林路397號", "city" : "臺北市", "district" : "士林區", "tel" : "(02)25910182", "env_actions" : ["--"], "source_dataset" : "tpe_00002761", "seq_no" : "61"}}, {"type" : "Feature", "geometry" : {"type" : "Point", "coordinates" : [121.54269358215, 25.065887991835]}, "properties" : {"name" : "Q Burger中山復興店", "address" : "臺北市中山區復興北路514巷34號一樓", "city" : "臺北市", "district" : "中山區", "tel" : "(02)25090565", "env_actions" : ["--"], "source_dataset" : "tpe_00002761", "seq_no" : "62"}}, {"type" : "Feature", "geometry" : {"type" : "Point", "coordinates" : [121.539991508024, 25.064385577601]}, "properties" : {"name" : "Q Burger中山榮星店", "address" : "臺北市中山區行仁里五常街63號", "city" : "臺北市", "district" : "中山區", "tel" : "(02)25016190", "env_actions" : ["--"], "source_dataset" : "tpe_00002761", "seq_no" : "64"}}, {"type" : "Feature", "geometry" : {"type" : "Point", "coordinates" : [121.530363802579, 25.060113070095]}, "properties" : {"name" : "Q Burger中山錦州店", "address" : "臺北市中山區吉林路205號", "city" : "臺北市", "district" : "中山區", "tel" : "(02)25222997", "env_actions" : ["--"], "source_dataset" : "tpe_00002761", "seq_no" : "65"}}, {"type" : "Feature", "geometry" : {"type" : "Point", "coordinates" : [121.590517452727, 25.077784175555]}, "properties" : {"name" : "Q Burger內湖星雲店", "address" : "臺北市內湖區星雲街14號", "city" : "臺北市", "district" : "內湖區", "tel" : "(02)27922009", "env_actions" : ["--"], "source_dataset" : "tpe_00002761", "seq_no" : "68"}}, {"type" : "Feature", "geometry" : {"type" : "Point", "coordinates" : [121.56727376467, 24.983356043223]}, "properties" : {"name" : "Q Burger文山木新店", "address" : "臺北市文山區木新路二段229號", "city" : "臺北市", "district" : "文山區", "tel" : "(02)29396817", "env_actions" : ["--"], "source_dataset" : "tpe_00002761", "seq_no" : "71"}}, {"type" : "Feature", "geometry" : {"type" : "Point", "coordinates" : [121.550111398823, 25.001100196969]}, "properties" : {"name" : "Q Burger文山興德店", "address" : "臺北市文山區興隆路二段215之2號1樓", "city" : "臺北市", "district" : "文山區", "tel" : "(02)29343805", "env_actions" : ["--"], "source_dataset" : "tpe_00002761", "seq_no" : "78"}}, {"type" : "Feature", "geometry" : {"type" : "Point", "coordinates" : [121.499485122738, 25.130107284118]}, "properties" : {"name" : "Q Burger北投大興店", "address" : "臺北市北投區大興街48號", "city" : "臺北市", "district" : "北投區", "tel" : "(02)28941027", "env_actions" : ["環境管理","綠色採購","源頭減量","環境教育"], "source_dataset" : "tpe_00002761", "seq_no" : "79"}}, {"type" : "Feature", "geometry" : {"type" : "Point", "coordinates" : [121.49816220696, 25.1435658965]}, "properties" : {"name" : "Q Burger北投中和店", "address" : "臺北市北投區中和街402號", "city" : "臺北市", "district" : "北投區", "tel" : "(02)28915262", "env_actions" : ["--"], "source_dataset" : "tpe_00002761", "seq_no" : "80"}}, {"type" : "Feature", "geometry" : {"type" : "Point", "coordinates" : [121.514464840998, 25.118900763392]}, "properties" : {"name" : "Q Burger北投立農店", "address" : "臺北市北投區立農街二段259號1樓", "city" : "臺北市", "district" : "北投區", "tel" : "(02)28236017", "env_actions" : ["環境管理","綠色採購","源頭減量","環境教育"], "source_dataset" : "tpe_00002761", "seq_no" : "81"}}, {"type" : "Feature", "geometry" : {"type" : "Point", "coordinates" : [121.509812214184, 25.115294407641]}, "properties" : {"name" : "Q Burger北投實踐店", "address" : "臺北市北投區實踐街61號", "city" : "臺北市", "district" : "北投區", "tel" : "(02)28250909", "env_actions" : ["--"], "source_dataset" : "tpe_00002761", "seq_no" : "84"}}, {"type" : "Feature", "geometry" : {"type" : "Point", "coordinates" : [121.566223428383, 25.050048499857]}, "properties" : {"name" : "Q Burger松山南京五店", "address" : "臺北市松山區南京東路五段250巷18弄2-1號", "city" : "臺北市", "district" : "松山區", "tel" : "(02)27565258", "env_actions" : ["環境管理","綠色採購","源頭減量","環境教育"], "source_dataset" : "tpe_00002761", "seq_no" : "87"}}, {"type" : "Feature", "geometry" : {"type" : "Point", "coordinates" : [121.565930732324, 25.062741634931]}, "properties" : {"name" : "Q Burger松山撫遠店", "address" : "臺北市松山區撫遠街352號", "city" : "臺北市", "district" : "松山區", "tel" : "(02)27533262", "env_actions" : ["--"], "source_dataset" : "tpe_00002761", "seq_no" : "88"}}, {"type" : "Feature", "geometry" : {"type" : "Point", "coordinates" : [121.570416223989, 25.045445284362]}, "properties" : {"name" : "Q Burger信義永吉店", "address" : "臺北市信義區永吉路120巷1號1樓", "city" : "臺北市", "district" : "信義區", "tel" : "(02)27653337", "env_actions" : ["--"], "source_dataset" : "tpe_00002761", "seq_no" : "89"}}, {"type" : "Feature", "geometry" : {"type" : "Point", "coordinates" : [121.578491433327, 25.039514584951]}, "properties" : {"name" : "Q Burger信義松山店", "address" : "臺北市信義區松山路465巷2號", "city" : "臺北市", "district" : "信義區", "tel" : "(02)27279620", "env_actions" : ["--"], "source_dataset" : "tpe_00002761", "seq_no" : "91"}}, {"type" : "Feature", "geometry" : {"type" : "Point", "coordinates" : [121.568693742887, 25.026309315593]}, "properties" : {"name" : "Q Burger信義松仁店", "address" : "臺北市信義區松仁路227號1樓", "city" : "臺北市", "district" : "信義區", "tel" : "(02)27208119", "env_actions" : ["--"], "source_dataset" : "tpe_00002761", "seq_no" : "92"}}, {"type" : "Feature", "geometry" : {"type" : "Point", "coordinates" : [121.502456088319, 25.021824704028]}, "properties" : {"name" : "Q Burger萬華青年店", "address" : "臺北市萬華區青年路140號1樓", "city" : "臺北市", "district" : "萬華區", "tel" : "(02)23070701", "env_actions" : ["--"], "source_dataset" : "tpe_00002761", "seq_no" : "96"}}, {"type" : "Feature", "geometry" : {"type" : "Point", "coordinates" : [121.495013880308, 25.029171274523]}, "properties" : {"name" : "Q Burger萬華雙園店", "address" : "臺北市萬華區雙園街15號", "city" : "臺北市", "district" : "萬華區", "tel" : "(02)23087655", "env_actions" : ["--"], "source_dataset" : "tpe_00002761", "seq_no" : "98"}}, {"type" : "Feature", "geometry" : {"type" : "Point", "coordinates" : [121.548552243324, 25.040371006687]}, "properties" : {"name" : "SAISON du SOLEIL", "address" : "臺北市大安區敦化南路一段246號B2", "city" : "臺北市", "district" : "大安區", "tel" : "(02)27310258", "env_actions" : ["環境管理","綠色採購","源頭減量","惜食(善用食材)","環境教育"], "source_dataset" : "tpe_00002761", "seq_no" : "100"}}, {"type" : "Feature", "geometry" : {"type" : "Point", "coordinates" : [121.513982965385, 25.042784994022]}, "properties" : {"name" : "SKYLARK加州風洋食館-和平公園店", "address" : "臺北市中正區臺北市中正區懷寧街90號", "city" : "臺北市", "district" : "中正區", "tel" : "(02)23756364", "env_actions" : ["環境管理","食材及餐點","源頭減量","惜食(打包服務)","惜食(善用食材)","環境教育"], "source_dataset" : "tpe_00002761", "seq_no" : "105"}}, {"type" : "Feature", "geometry" : {"type" : "Point", "coordinates" : [121.61127364338, 25.070210204027]}, "properties" : {"name" : "SKYLARK加州風洋食館-東湖康寧店", "address" : "臺北市內湖區臺北市內湖區康寧路3段72號", "city" : "臺北市", "district" : "內湖區", "tel" : "(02)26332850", "env_actions" : ["環境管理","食材及餐點","源頭減量","惜食(打包服務)","惜食(善用食材)","環境教育"], "source_dataset" : "tpe_00002761", "seq_no" : "106"}}, {"type" : "Feature", "geometry" : {"type" : "Point", "coordinates" : [121.50877545658, 25.041855608598]}, "properties" : {"name" : "SKYLARK加州風洋食館-寶慶遠百店", "address" : "臺北市中正區臺北市中正區寶慶路32號1樓(遠東百貨1樓)", "city" : "臺北市", "district" : "中正區", "tel" : "(02)23754730", "env_actions" : ["環境管理","食材及餐點","源頭減量","惜食(打包服務)","惜食(善用食材)","環境教育"], "source_dataset" : "tpe_00002761", "seq_no" : "107"}}, {"type" : "Feature", "geometry" : {"type" : "Point", "coordinates" : [121.544955400039, 25.041738438636]}, "properties" : {"name" : "UCC Caf? Mercado (忠孝SOGO店)", "address" : "臺北市大安區忠孝東路四段45號B2", "city" : "臺北市", "district" : "大安區", "tel" : "(02)27416800", "env_actions" : ["環境管理","食材及餐點","源頭減量","惜食(打包服務)"], "source_dataset" : "tpe_00002761", "seq_no" : "110"}}, {"type" : "Feature", "geometry" : {"type" : "Point", "coordinates" : [121.518750591911, 25.044343147913]}, "properties" : {"name" : "一雙牛肉麵", "address" : "臺北市中正區臺北市中正區中山南路8號B1", "city" : "臺北市", "district" : "中正區", "tel" : "(02)23117819", "env_actions" : ["環境管理"], "source_dataset" : "tpe_00002761", "seq_no" : "111"}}, {"type" : "Feature", "geometry" : {"type" : "Point", "coordinates" : [121.52698153701, 25.050589593617]}, "properties" : {"name" : "九湯屋日本拉麵(台北南京店)", "address" : "臺北市中山區南京東路一段132巷33號", "city" : "臺北市", "district" : "中山區", "tel" : "(02)25813100", "env_actions" : ["環境管理","綠色採購","源頭減量"], "source_dataset" : "tpe_00002761", "seq_no" : "112"}}, {"type" : "Feature", "geometry" : {"type" : "Point", "coordinates" : [121.545865042855, 25.055994160965]}, "properties" : {"name" : "十八廚", "address" : "臺北市松山區興安街212號1樓", "city" : "臺北市", "district" : "松山區", "tel" : "(02)27547890", "env_actions" : ["環境管理","綠色採購","源頭減量","環境教育"], "source_dataset" : "tpe_00002761", "seq_no" : "114"}}, {"type" : "Feature", "geometry" : {"type" : "Point", "coordinates" : [121.591982106488, 25.071800418697]}, "properties" : {"name" : "大井屋(微風．三總商店街)", "address" : "臺北市內湖區成功路二段325號B1樓", "city" : "臺北市", "district" : "內湖區", "tel" : "(02)87923311", "env_actions" : ["環境管理"], "source_dataset" : "tpe_00002761", "seq_no" : "121"}}, {"type" : "Feature", "geometry" : {"type" : "Point", "coordinates" : [121.52427803796, 25.105007004507]}, "properties" : {"name" : "大心新泰式麵食（天母SOGO店）", "address" : "臺北市士林區中山北路六段77號8樓", "city" : "臺北市", "district" : "士林區", "tel" : "(02)28325366", "env_actions" : ["環境管理","源頭減量"], "source_dataset" : "tpe_00002761", "seq_no" : "122"}}, {"type" : "Feature", "geometry" : {"type" : "Point", "coordinates" : [121.543764064324, 25.033677674322]}, "properties" : {"name" : "大戶屋大安店", "address" : "臺北市大安區復興南路一段323號B1", "city" : "臺北市", "district" : "大安區", "tel" : "(02)89782668", "env_actions" : ["環境管理","綠色採購","源頭減量"], "source_dataset" : "tpe_00002761", "seq_no" : "123"}}, {"type" : "Feature", "geometry" : {"type" : "Point", "coordinates" : [121.531438194928, 25.11181105632]}, "properties" : {"name" : "大戶屋大葉?島屋店", "address" : "臺北市士林區忠誠路二段55號B1F", "city" : "臺北市", "district" : "士林區", "tel" : "(02)28326050", "env_actions" : ["環境管理","綠色採購","源頭減量"], "source_dataset" : "tpe_00002761", "seq_no" : "124"}}, {"type" : "Feature", "geometry" : {"type" : "Point", "coordinates" : [121.532950541718, 25.059809351833]}, "properties" : {"name" : "大戶屋行天宮站店", "address" : "臺北市中山區松江路276號2樓", "city" : "臺北市", "district" : "中山區", "tel" : "(02)25625811", "env_actions" : ["環境管理","綠色採購","源頭減量"], "source_dataset" : "tpe_00002761", "seq_no" : "127"}}, {"type" : "Feature", "geometry" : {"type" : "Point", "coordinates" : [121.545059374322, 25.041391628348]}, "properties" : {"name" : "大戶屋忠孝復興店", "address" : "臺北市大安區忠孝東路四段52號2樓", "city" : "臺北市", "district" : "大安區", "tel" : "(02)27785077", "env_actions" : ["環境管理","綠色採購","源頭減量"], "source_dataset" : "tpe_00002761", "seq_no" : "129"}}, {"type" : "Feature", "geometry" : {"type" : "Point", "coordinates" : [121.578252465268, 25.048455854435]}, "properties" : {"name" : "大戶屋松山車站店", "address" : "臺北市信義區松山路11號1樓", "city" : "臺北市", "district" : "信義區", "tel" : "(02)25287775", "env_actions" : ["環境管理","綠色採購","源頭減量"], "source_dataset" : "tpe_00002761", "seq_no" : "131"}}, {"type" : "Feature", "geometry" : {"type" : "Point", "coordinates" : [121.544829207261, 25.051629997348]}, "properties" : {"name" : "大戶屋南京復興店", "address" : "臺北市松山區南京東路三段258號2樓", "city" : "臺北市", "district" : "松山區", "tel" : "(02)27715337", "env_actions" : ["環境管理","綠色採購","源頭減量"], "source_dataset" : "tpe_00002761", "seq_no" : "132"}}, {"type" : "Feature", "geometry" : {"type" : "Point", "coordinates" : [121.556711979935, 25.08292588642]}, "properties" : {"name" : "大戶屋美麗華店", "address" : "臺北市中山區敬業三路20號B1", "city" : "臺北市", "district" : "中山區", "tel" : "(02)85012772", "env_actions" : ["環境管理","綠色採購","源頭減量"], "source_dataset" : "tpe_00002761", "seq_no" : "134"}}, {"type" : "Feature", "geometry" : {"type" : "Point", "coordinates" : [121.544125546489, 25.046129415299]}, "properties" : {"name" : "大戶屋微風廣場店", "address" : "臺北市松山區復興南路一段39號GF", "city" : "臺北市", "district" : "松山區", "tel" : "(02)87720835", "env_actions" : ["環境管理","綠色採購","源頭減量"], "source_dataset" : "tpe_00002761", "seq_no" : "137"}}, {"type" : "Feature", "geometry" : {"type" : "Point", "coordinates" : [121.504342687085, 25.137092468858]}, "properties" : {"name" : "大戶屋新北投店", "address" : "臺北市北投區中心里泉源路１２號２樓之１", "city" : "臺北市", "district" : "北投區", "tel" : "(02)28951255", "env_actions" : ["環境管理","綠色採購","源頭減量"], "source_dataset" : "tpe_00002761", "seq_no" : "138"}}, {"type" : "Feature", "geometry" : {"type" : "Point", "coordinates" : [121.524054157326, 25.053887243873]}, "properties" : {"name" : "大根日本料亭", "address" : "臺北市中山區中山北路二段39巷14-1號", "city" : "臺北市", "district" : "中山區", "tel" : "(02)25817776", "env_actions" : ["環境管理","源頭減量","惜食(善用食材)"], "source_dataset" : "tpe_00002761", "seq_no" : "143"}}, {"type" : "Feature", "geometry" : {"type" : "Point", "coordinates" : [121.503945720151, 25.046447382796]}, "properties" : {"name" : "小小蔬房", "address" : "臺北市萬華區漢口街二段125號", "city" : "臺北市", "district" : "萬華區", "tel" : "(02)23111168", "env_actions" : ["環境管理","綠色採購","環境教育"], "source_dataset" : "tpe_00002761", "seq_no" : "145"}}, {"type" : "Feature", "geometry" : {"type" : "Point", "coordinates" : [121.591982106488, 25.071800418697]}, "properties" : {"name" : "小南門傳統豆花(微風．三總商店街)", "address" : "臺北市內湖區成功路二段325號B1樓", "city" : "臺北市", "district" : "內湖區", "tel" : "(02)87923311", "env_actions" : ["環境管理"], "source_dataset" : "tpe_00002761", "seq_no" : "148"}}, {"type" : "Feature", "geometry" : {"type" : "Point", "coordinates" : [121.543569239575, 25.023876719654]}, "properties" : {"name" : "小拾聚 餐食館", "address" : "臺北市大安區復興南路二段325號", "city" : "臺北市", "district" : "大安區", "tel" : "(02)27388980", "env_actions" : ["環境管理","綠色採購","源頭減量","惜食(善用食材)","環境教育","8"], "source_dataset" : "tpe_00002761", "seq_no" : "149"}}, {"type" : "Feature", "geometry" : {"type" : "Point", "coordinates" : [121.566719888508, 25.041359735206]}, "properties" : {"name" : "小醉好(信義店)|法式下午茶Day Drink & 小餐酒館", "address" : "臺北市信義區忠孝東路五段61號", "city" : "臺北市", "district" : "信義區", "tel" : "(02)27566629", "env_actions" : ["環境管理","惜食(善用食材)","環境教育"], "source_dataset" : "tpe_00002761", "seq_no" : "150"}}, {"type" : "Feature", "geometry" : {"type" : "Point", "coordinates" : [121.594060315562, 25.061401578161]}, "properties" : {"name" : "中國信託內湖行政大樓員工餐廳", "address" : "臺北市內湖區安康路22巷33號4樓", "city" : "臺北市", "district" : "內湖區", "tel" : "(02)81787777", "env_actions" : ["環境管理","綠色採購"], "source_dataset" : "tpe_00002761", "seq_no" : "154"}}, {"type" : "Feature", "geometry" : {"type" : "Point", "coordinates" : [121.541681376653, 25.046563170434]}, "properties" : {"name" : "天下食堂", "address" : "臺北市中山區安東街4之5號", "city" : "臺北市", "district" : "中山區", "tel" : "(02)27771163", "env_actions" : ["環境管理"], "source_dataset" : "tpe_00002761", "seq_no" : "158"}}, {"type" : "Feature", "geometry" : {"type" : "Point", "coordinates" : [121.525560050051, 25.054131199165]}, "properties" : {"name" : "古拉爵 義式屋-欣欣百貨店", "address" : "臺北市中山區臺北市中山區林森北路247號2樓", "city" : "臺北市", "district" : "中山區", "tel" : "(02)25427680", "env_actions" : ["環境管理","食材及餐點","源頭減量","惜食(打包服務)","惜食(善用食材)","環境教育"], "source_dataset" : "tpe_00002761", "seq_no" : "164"}}, {"type" : "Feature", "geometry" : {"type" : "Point", "coordinates" : [121.506864550294, 25.036455609387]}, "properties" : {"name" : "台北花園大酒店-花園thai thai", "address" : "臺北市中正區中華路二段1號", "city" : "臺北市", "district" : "中正區", "tel" : "(02)23121000", "env_actions" : ["環境管理","綠色採購","源頭減量","惜食(善用食材)"], "source_dataset" : "tpe_00002761", "seq_no" : "166"}}, {"type" : "Feature", "geometry" : {"type" : "Point", "coordinates" : [121.542641195256, 25.022392284601]}, "properties" : {"name" : "永和樓中華料理店", "address" : "臺北市大安區和平東路二段118巷52弄3號", "city" : "臺北市", "district" : "大安區", "tel" : "(02)23772077", "env_actions" : ["環境管理","環境教育"], "source_dataset" : "tpe_00002761", "seq_no" : "167"}}, {"type" : "Feature", "geometry" : {"type" : "Point", "coordinates" : [121.550272331364, 25.05935517841]}, "properties" : {"name" : "玉山銀行(第二總部大樓)員工餐廳", "address" : "臺北市松山區敦化北路315號", "city" : "臺北市", "district" : "松山區", "tel" : "(02)21751313", "env_actions" : ["環境管理","綠色採購","源頭減量","環境教育"], "source_dataset" : "tpe_00002761", "seq_no" : "168"}}, {"type" : "Feature", "geometry" : {"type" : "Point", "coordinates" : [121.506343037961, 25.037666078767]}, "properties" : {"name" : "甘物家 x 甘物日飲(桂林家樂福店)", "address" : "臺北市萬華區萬華區桂林路1號", "city" : "臺北市", "district" : "萬華區", "tel" : "(02)23816607", "env_actions" : ["環境管理","綠色採購"], "source_dataset" : "tpe_00002761", "seq_no" : "170"}}, {"type" : "Feature", "geometry" : {"type" : "Point", "coordinates" : [121.533867603435, 25.051853400624]}, "properties" : {"name" : "丼賞和食??物vs刺身丼丼專門店", "address" : "臺北市中山區南京東路二段140號B1", "city" : "臺北市", "district" : "中山區", "tel" : "(02)25175526", "env_actions" : ["環境管理","惜食(善用食材)","環境教育"], "source_dataset" : "tpe_00002761", "seq_no" : "173"}}, {"type" : "Feature", "geometry" : {"type" : "Point", "coordinates" : [121.543057105291, 25.041211752706]}, "properties" : {"name" : "伊勢路勝勢日式豬排(復興 SOGO店)", "address" : "臺北市大安區忠孝東路三段300號10樓", "city" : "臺北市", "district" : "大安區", "tel" : "(02)87729822", "env_actions" : ["環境管理","綠色採購","源頭減量","惜食(善用食材)","環境教育"], "source_dataset" : "tpe_00002761", "seq_no" : "174"}}, {"type" : "Feature", "geometry" : {"type" : "Point", "coordinates" : [121.515776911793, 25.065796856511]}, "properties" : {"name" : "向樂達工房(Caf? Chat Leopard 豹紋喵喵)", "address" : "臺北市大同區蘭州街蘭州街14號1樓", "city" : "臺北市", "district" : "大同區", "tel" : "(02)26256499", "env_actions" : ["環境管理","綠色採購","食材及餐點","源頭減量","惜食(打包服務)","環境教育"], "source_dataset" : "tpe_00002761", "seq_no" : "177"}}, {"type" : "Feature", "geometry" : {"type" : "Point", "coordinates" : [121.591982106488, 25.071800418697]}, "properties" : {"name" : "好好吃大餛飩(微風．三總商店街)", "address" : "臺北市內湖區成功路二段325號B1樓", "city" : "臺北市", "district" : "內湖區", "tel" : "(02)87923311#1", "env_actions" : ["環境管理"], "source_dataset" : "tpe_00002761", "seq_no" : "179"}}, {"type" : "Feature", "geometry" : {"type" : "Point", "coordinates" : [121.56128145827, 24.981937280382]}, "properties" : {"name" : "成家小館", "address" : "臺北市文山區木新路三段154號", "city" : "臺北市", "district" : "文山區", "tel" : "(02)29374611", "env_actions" : ["綠色採購","惜食(善用食材)","環境教育"], "source_dataset" : "tpe_00002761", "seq_no" : "183"}}, {"type" : "Feature", "geometry" : {"type" : "Point", "coordinates" : [121.52427803796, 25.105007004507]}, "properties" : {"name" : "成真咖啡（天母SOGO店）", "address" : "臺北市士林區士林區中山北路六段77號1樓", "city" : "臺北市", "district" : "士林區", "tel" : "(02)28368881", "env_actions" : ["環境管理","綠色採購","惜食(善用食材)"], "source_dataset" : "tpe_00002761", "seq_no" : "185"}}, {"type" : "Feature", "geometry" : {"type" : "Point", "coordinates" : [121.578422198807, 25.04132997945]}, "properties" : {"name" : "有之和牛台北忠孝", "address" : "臺北市信義區110臺北市信義區忠孝東路五段497號1樓", "city" : "臺北市", "district" : "信義區", "tel" : "(02)87851117", "env_actions" : ["環境管理","惜食(善用食材)"], "source_dataset" : "tpe_00002761", "seq_no" : "187"}}, {"type" : "Feature", "geometry" : {"type" : "Point", "coordinates" : [121.52427803796, 25.105007004507]}, "properties" : {"name" : "朱記餡餅粥(天母SOGO店)", "address" : "臺北市士林區中山北路6段77號8樓", "city" : "臺北市", "district" : "士林區", "tel" : "(02)28353619", "env_actions" : ["環境管理","源頭減量","惜食(善用食材)"], "source_dataset" : "tpe_00002761", "seq_no" : "189"}}, {"type" : "Feature", "geometry" : {"type" : "Point", "coordinates" : [121.545605203857, 25.05400438097]}, "properties" : {"name" : "老乾杯 慶城店", "address" : "臺北市松山區臺北市松山區慶城街29號1樓", "city" : "臺北市", "district" : "松山區", "tel" : "(02)27139000", "env_actions" : ["環境管理","源頭減量"], "source_dataset" : "tpe_00002761", "seq_no" : "193"}}, {"type" : "Feature", "geometry" : {"type" : "Point", "coordinates" : [121.556959832812, 25.082541827617]}, "properties" : {"name" : "老乾杯大直忠泰店", "address" : "臺北市中山區樂群三路200號5樓", "city" : "臺北市", "district" : "中山區", "tel" : "(02)85025551", "env_actions" : ["環境管理","源頭減量"], "source_dataset" : "tpe_00002761", "seq_no" : "195"}}, {"type" : "Feature", "geometry" : {"type" : "Point", "coordinates" : [121.544403741855, 25.058583582313]}, "properties" : {"name" : "老舅的家鄉味", "address" : "臺北市松山區復興北路307號", "city" : "臺北市", "district" : "松山區", "tel" : "(02)27181122", "env_actions" : ["環境管理"], "source_dataset" : "tpe_00002761", "seq_no" : "198"}}, {"type" : "Feature", "geometry" : {"type" : "Point", "coordinates" : [121.591982106488, 25.071800418697]}, "properties" : {"name" : "老董(微風．三總商店街)", "address" : "臺北市內湖區成功路二段325號B1樓", "city" : "臺北市", "district" : "內湖區", "tel" : "(02)87923311#1", "env_actions" : ["環境管理"], "source_dataset" : "tpe_00002761", "seq_no" : "199"}}, {"type" : "Feature", "geometry" : {"type" : "Point", "coordinates" : [121.591982106488, 25.071800418697]}, "properties" : {"name" : "西雅圖極品咖啡(微風．三總商店街)", "address" : "臺北市內湖區成功路二段325號B1樓", "city" : "臺北市", "district" : "內湖區", "tel" : "(02)87923311#1", "env_actions" : ["環境管理"], "source_dataset" : "tpe_00002761", "seq_no" : "202"}}, {"type" : "Feature", "geometry" : {"type" : "Point", "coordinates" : [121.591982106488, 25.071800418697]}, "properties" : {"name" : "李記中式餐廳(微風．三總商店街)", "address" : "臺北市內湖區成功路二段325號B1樓", "city" : "臺北市", "district" : "內湖區", "tel" : "(02)87923311#1", "env_actions" : ["環境管理"], "source_dataset" : "tpe_00002761", "seq_no" : "204"}}, {"type" : "Feature", "geometry" : {"type" : "Point", "coordinates" : [121.518750591911, 25.044343147913]}, "properties" : {"name" : "李記港式燒臘", "address" : "臺北市中正區臺北市中正區中山南路8號B1", "city" : "臺北市", "district" : "中正區", "tel" : "(02)82872296", "env_actions" : ["環境管理"], "source_dataset" : "tpe_00002761", "seq_no" : "205"}}, {"type" : "Feature", "geometry" : {"type" : "Point", "coordinates" : [121.534692049741, 25.060642177733]}, "properties" : {"name" : "沙渡垂陽碳烤(錦州店)", "address" : "臺北市中山區錦州街241巷1弄20號", "city" : "臺北市", "district" : "中山區", "tel" : "", "env_actions" : ["環境管理","綠色採購","源頭減量"], "source_dataset" : "tpe_00002761", "seq_no" : "206"}}, {"type" : "Feature", "geometry" : {"type" : "Point", "coordinates" : [121.510035424265, 25.11530140653]}, "properties" : {"name" : "味?屋", "address" : "臺北市北投區實踐街67號", "city" : "臺北市", "district" : "北投區", "tel" : "(02)28283230", "env_actions" : ["源頭減量","惜食(善用食材)","環境教育"], "source_dataset" : "tpe_00002761", "seq_no" : "209"}}, {"type" : "Feature", "geometry" : {"type" : "Point", "coordinates" : [121.531432327596, 25.043581023367]}, "properties" : {"name" : "咖食堂", "address" : "臺北市中正區八德路1段82巷9弄13號", "city" : "臺北市", "district" : "中正區", "tel" : "(02)23965252", "env_actions" : ["環境管理","綠色採購","環境教育"], "source_dataset" : "tpe_00002761", "seq_no" : "210"}}, {"type" : "Feature", "geometry" : {"type" : "Point", "coordinates" : [121.514893742984, 25.045402704294]}, "properties" : {"name" : "咖啡弄(站前店)", "address" : "臺北市中正區館前路18號2樓", "city" : "臺北市", "district" : "中正區", "tel" : "(02)23883000", "env_actions" : ["環境管理"], "source_dataset" : "tpe_00002761", "seq_no" : "212"}}, {"type" : "Feature", "geometry" : {"type" : "Point", "coordinates" : [121.551533137239, 25.042391840854]}, "properties" : {"name" : "咖啡弄(敦化店)", "address" : "臺北市大安區臺北市大安區敦化南路一段187巷42號2樓", "city" : "臺北市", "district" : "大安區", "tel" : "(02)27111910", "env_actions" : ["環境管理"], "source_dataset" : "tpe_00002761", "seq_no" : "213"}}, {"type" : "Feature", "geometry" : {"type" : "Point", "coordinates" : [121.591982106488, 25.071800418697]}, "properties" : {"name" : "怡來養生食舖(微風．三總商店街)", "address" : "臺北市內湖區成功路二段325號B1樓", "city" : "臺北市", "district" : "內湖區", "tel" : "(02)87923311#1", "env_actions" : ["環境管理"], "source_dataset" : "tpe_00002761", "seq_no" : "218"}}, {"type" : "Feature", "geometry" : {"type" : "Point", "coordinates" : [121.546733659481, 25.043492761926]}, "properties" : {"name" : "房間餐酒 The Room Bistro", "address" : "臺北市大安區敦化南路一段160巷56號", "city" : "臺北市", "district" : "大安區", "tel" : "(02)27731665", "env_actions" : ["環境管理","源頭減量"], "source_dataset" : "tpe_00002761", "seq_no" : "219"}}, {"type" : "Feature", "geometry" : {"type" : "Point", "coordinates" : [121.591982106488, 25.071800418697]}, "properties" : {"name" : "明德素食園(微風．三總商店街)", "address" : "臺北市內湖區成功路二段325號B1樓", "city" : "臺北市", "district" : "內湖區", "tel" : "(02)87923311#1", "env_actions" : ["環境管理"], "source_dataset" : "tpe_00002761", "seq_no" : "221"}}, {"type" : "Feature", "geometry" : {"type" : "Point", "coordinates" : [121.509131352189, 25.062833332952]}, "properties" : {"name" : "東方饌黔天下(迪化)", "address" : "臺北市大同區迪化街一段358-2號", "city" : "臺北市", "district" : "大同區", "tel" : "(02)25577872", "env_actions" : ["環境管理"], "source_dataset" : "tpe_00002761", "seq_no" : "224"}}, {"type" : "Feature", "geometry" : {"type" : "Point", "coordinates" : [121.506303549514, 25.037675427756]}, "properties" : {"name" : "爭鮮迴轉壽司", "address" : "臺北市萬華區臺北市萬華區桂林路1號1樓", "city" : "臺北市", "district" : "萬華區", "tel" : "(02)23812806", "env_actions" : ["環境管理"], "source_dataset" : "tpe_00002761", "seq_no" : "226"}}, {"type" : "Feature", "geometry" : {"type" : "Point", "coordinates" : [121.574385893333, 24.99161837855]}, "properties" : {"name" : "芽米早午餐(木柵店)", "address" : "臺北市文山區秀明路二段16號", "city" : "臺北市", "district" : "文山區", "tel" : "(02)29393166", "env_actions" : ["環境管理","綠色採購","環境教育"], "source_dataset" : "tpe_00002761", "seq_no" : "227"}}, {"type" : "Feature", "geometry" : {"type" : "Point", "coordinates" : [121.591982106488, 25.071800418697]}, "properties" : {"name" : "花蓮扁食(微風．三總商店街)", "address" : "臺北市內湖區成功路二段325號B1樓", "city" : "臺北市", "district" : "內湖區", "tel" : "(02)87923311#1", "env_actions" : ["環境管理"], "source_dataset" : "tpe_00002761", "seq_no" : "228"}}, {"type" : "Feature", "geometry" : {"type" : "Point", "coordinates" : [121.604792504387, 25.052363497695]}, "properties" : {"name" : "金色三麥南港CITYLINK店", "address" : "臺北市南港區臺北市南港區忠孝東路七段299號C棟1樓", "city" : "臺北市", "district" : "南港區", "tel" : "(02)27827000", "env_actions" : ["環境管理","綠色採購","源頭減量"], "source_dataset" : "tpe_00002761", "seq_no" : "235"}}, {"type" : "Feature", "geometry" : {"type" : "Point", "coordinates" : [121.543057105291, 25.041211752706]}, "properties" : {"name" : "阿瑪迪斯咖啡館", "address" : "臺北市大安區忠孝東路三段300號10樓", "city" : "臺北市", "district" : "大安區", "tel" : "(02)87728679", "env_actions" : ["環境管理","源頭減量","惜食(善用食材)"], "source_dataset" : "tpe_00002761", "seq_no" : "239"}}, {"type" : "Feature", "geometry" : {"type" : "Point", "coordinates" : [121.551310245009, 25.099445013516]}, "properties" : {"name" : "青青食尚花園會館", "address" : "臺北市士林區至善路二段266巷32號", "city" : "臺北市", "district" : "士林區", "tel" : "(02)28411996#3", "env_actions" : ["環境管理","綠色採購","源頭減量","惜食(善用食材)","環境教育","8"], "source_dataset" : "tpe_00002761", "seq_no" : "240"}}, {"type" : "Feature", "geometry" : {"type" : "Point", "coordinates" : [121.52427803796, 25.105007004507]}, "properties" : {"name" : "非常泰（天母sogo 店）", "address" : "臺北市士林區中山北路六段77號8樓", "city" : "臺北市", "district" : "士林區", "tel" : "(02)28310188", "env_actions" : ["環境管理","源頭減量"], "source_dataset" : "tpe_00002761", "seq_no" : "241"}}, {"type" : "Feature", "geometry" : {"type" : "Point", "coordinates" : [121.534296340092, 25.023168281197]}, "properties" : {"name" : "恬園餐廳", "address" : "臺北市大安區新生南路三段30號", "city" : "臺北市", "district" : "大安區", "tel" : "(02)77122323#2", "env_actions" : ["環境管理","綠色採購","源頭減量","惜食(善用食材)","環境教育"], "source_dataset" : "tpe_00002761", "seq_no" : "243"}}, {"type" : "Feature", "geometry" : {"type" : "Point", "coordinates" : [121.556896717081, 25.042508768403]}, "properties" : {"name" : "星辰牛排", "address" : "臺北市大安區光復南路180巷16號", "city" : "臺北市", "district" : "大安區", "tel" : "(02)27217512", "env_actions" : ["環境管理","綠色採購","源頭減量","惜食(善用食材)"], "source_dataset" : "tpe_00002761", "seq_no" : "245"}}, {"type" : "Feature", "geometry" : {"type" : "Point", "coordinates" : [121.549889278389, 25.035584101004]}, "properties" : {"name" : "洗心壽司割烹", "address" : "臺北市大安區敦化南路一段295巷9號", "city" : "臺北市", "district" : "大安區", "tel" : "", "env_actions" : ["惜食(善用食材)"], "source_dataset" : "tpe_00002761", "seq_no" : "247"}}, {"type" : "Feature", "geometry" : {"type" : "Point", "coordinates" : [121.544882767622, 25.041902421527]}, "properties" : {"name" : "皇家哥本哈根咖啡輕食複合店 (忠孝SOGO店)", "address" : "臺北市大安區忠孝東路四段45號4F", "city" : "臺北市", "district" : "大安區", "tel" : "(02)27113362", "env_actions" : ["環境管理","綠色採購","食材及餐點","源頭減量","惜食(打包服務)","惜食(善用食材)","環境教育"], "source_dataset" : "tpe_00002761", "seq_no" : "250"}}, {"type" : "Feature", "geometry" : {"type" : "Point", "coordinates" : [121.548552243324, 25.040371006687]}, "properties" : {"name" : "紅豆食府", "address" : "臺北市大安區敦化南路一段246號B2", "city" : "臺北市", "district" : "大安區", "tel" : "(02)87715511", "env_actions" : ["環境管理","綠色採購","源頭減量","惜食(善用食材)","環境教育"], "source_dataset" : "tpe_00002761", "seq_no" : "253"}}, {"type" : "Feature", "geometry" : {"type" : "Point", "coordinates" : [121.52427803796, 25.105007004507]}, "properties" : {"name" : "紅豆食府(天母SOGO店)", "address" : "臺北市士林區中山北路六段77號8F", "city" : "臺北市", "district" : "士林區", "tel" : "(02)28332208", "env_actions" : ["環境管理","綠色採購","源頭減量","惜食(善用食材)","環境教育"], "source_dataset" : "tpe_00002761", "seq_no" : "254"}}, {"type" : "Feature", "geometry" : {"type" : "Point", "coordinates" : [121.543057105291, 25.041211752706]}, "properties" : {"name" : "紅花鐵板燒(復興SOGO店)", "address" : "臺北市大安區忠孝東路三段300號10樓", "city" : "臺北市", "district" : "大安區", "tel" : "(02)27316555", "env_actions" : ["--"], "source_dataset" : "tpe_00002761", "seq_no" : "256"}}, {"type" : "Feature", "geometry" : {"type" : "Point", "coordinates" : [121.500452897279, 25.130396878873]}, "properties" : {"name" : "美華閣湯包麵食館", "address" : "臺北市北投區大興街58號", "city" : "臺北市", "district" : "北投區", "tel" : "(02)28977288", "env_actions" : ["環境管理"], "source_dataset" : "tpe_00002761", "seq_no" : "258"}}, {"type" : "Feature", "geometry" : {"type" : "Point", "coordinates" : [121.585287815698, 25.052175114421]}, "properties" : {"name" : "宮保王食品有限公司", "address" : "臺北市南港區南港路三段149巷49弄12號", "city" : "臺北市", "district" : "南港區", "tel" : "(02)26519947", "env_actions" : ["環境管理","惜食(善用食材)","環境教育"], "source_dataset" : "tpe_00002761", "seq_no" : "262"}}, {"type" : "Feature", "geometry" : {"type" : "Point", "coordinates" : [121.551933708392, 25.058523609796]}, "properties" : {"name" : "島津和牛咖哩 (民生店)", "address" : "臺北市松山區民生東路四段97巷1弄2號", "city" : "臺北市", "district" : "松山區", "tel" : "(02)27171007", "env_actions" : ["環境管理"], "source_dataset" : "tpe_00002761", "seq_no" : "263"}}, {"type" : "Feature", "geometry" : {"type" : "Point", "coordinates" : [121.553524258339, 25.042727829443]}, "properties" : {"name" : "真飽餐盒", "address" : "臺北市大安區延吉街70巷6弄3號", "city" : "臺北市", "district" : "大安區", "tel" : "(02)27720506", "env_actions" : ["環境管理"], "source_dataset" : "tpe_00002761", "seq_no" : "271"}}, {"type" : "Feature", "geometry" : {"type" : "Point", "coordinates" : [121.544882767622, 25.041902421527]}, "properties" : {"name" : "神樂家（忠孝SOGO店）", "address" : "臺北市大安區忠孝東路四段45號11樓", "city" : "臺北市", "district" : "大安區", "tel" : "(02)89785666", "env_actions" : ["環境管理","綠色採購","源頭減量","環境教育"], "source_dataset" : "tpe_00002761", "seq_no" : "272"}}, {"type" : "Feature", "geometry" : {"type" : "Point", "coordinates" : [121.531515308438, 25.018229412389]}, "properties" : {"name" : "秘徑小食光", "address" : "臺北市大安區羅斯福路三段283巷3號", "city" : "臺北市", "district" : "大安區", "tel" : "(02)33651995", "env_actions" : ["環境管理","源頭減量"], "source_dataset" : "tpe_00002761", "seq_no" : "273"}}, {"type" : "Feature", "geometry" : {"type" : "Point", "coordinates" : [121.547007831534, 25.040659301468]}, "properties" : {"name" : "乾杯燒肉居酒屋 本店", "address" : "臺北市大安區臺北市大安區敦化南路一段236巷17號", "city" : "臺北市", "district" : "大安區", "tel" : "(02)87731150", "env_actions" : ["環境管理","源頭減量"], "source_dataset" : "tpe_00002761", "seq_no" : "278"}}, {"type" : "Feature", "geometry" : {"type" : "Point", "coordinates" : [121.614968805395, 25.058742880383]}, "properties" : {"name" : "乾杯燒肉居酒屋 南港中信店", "address" : "臺北市南港區臺北市南港區經貿二路186-1號2樓", "city" : "臺北市", "district" : "南港區", "tel" : "(02)27866066", "env_actions" : ["環境管理","源頭減量"], "source_dataset" : "tpe_00002761", "seq_no" : "280"}}, {"type" : "Feature", "geometry" : {"type" : "Point", "coordinates" : [121.574810772005, 25.141111172336]}, "properties" : {"name" : "梅居休閒農場", "address" : "臺北市士林區平菁街43巷99號", "city" : "臺北市", "district" : "士林區", "tel" : "", "env_actions" : ["環境管理","綠色採購","食材及餐點","源頭減量","惜食(打包服務)","惜食(善用食材)","環境教育"], "source_dataset" : "tpe_00002761", "seq_no" : "283"}}, {"type" : "Feature", "geometry" : {"type" : "Point", "coordinates" : [121.525560050051, 25.054131199165]}, "properties" : {"name" : "涮乃葉-欣欣百貨店", "address" : "臺北市中山區臺北市中山區林森北路247號2樓", "city" : "臺北市", "district" : "中山區", "tel" : "(02)25416320", "env_actions" : ["環境管理","食材及餐點","源頭減量","惜食(打包服務)","惜食(善用食材)","環境教育"], "source_dataset" : "tpe_00002761", "seq_no" : "284"}}, {"type" : "Feature", "geometry" : {"type" : "Point", "coordinates" : [121.548552243324, 25.040371006687]}, "properties" : {"name" : "深紅鍋物", "address" : "臺北市大安區敦化南路一段246號B2", "city" : "臺北市", "district" : "大安區", "tel" : "(02)87730035", "env_actions" : ["環境管理"], "source_dataset" : "tpe_00002761", "seq_no" : "289"}}, {"type" : "Feature", "geometry" : {"type" : "Point", "coordinates" : [121.513107727055, 25.045571934919]}, "properties" : {"name" : "第一銀行總行大樓員工餐廳", "address" : "臺北市中正區重慶南路一段30號21樓", "city" : "臺北市", "district" : "中正區", "tel" : "(02)23481520", "env_actions" : ["環境管理","綠色採購","惜食(善用食材)","環境教育"], "source_dataset" : "tpe_00002761", "seq_no" : "291"}}, {"type" : "Feature", "geometry" : {"type" : "Point", "coordinates" : [121.544882767622, 25.041902421527]}, "properties" : {"name" : "荷李活茶街 (忠孝SOGO店)", "address" : "臺北市大安區忠孝東路四段45號2F", "city" : "臺北市", "district" : "大安區", "tel" : "(02)27780369", "env_actions" : ["環境管理","綠色採購","食材及餐點","源頭減量","惜食(打包服務)","惜食(善用食材)","環境教育"], "source_dataset" : "tpe_00002761", "seq_no" : "292"}}, {"type" : "Feature", "geometry" : {"type" : "Point", "coordinates" : [121.530523477835, 25.019241443379]}, "properties" : {"name" : "野橙咖啡", "address" : "臺北市大安區羅斯福路三段269巷6之1號", "city" : "臺北市", "district" : "大安區", "tel" : "(02)27025522", "env_actions" : ["環境管理","綠色採購","源頭減量"], "source_dataset" : "tpe_00002761", "seq_no" : "294"}}, {"type" : "Feature", "geometry" : {"type" : "Point", "coordinates" : [121.52427803796, 25.105007004507]}, "properties" : {"name" : "魚君 ????? 天母SOGO店", "address" : "臺北市士林區中山北路六段77號8樓", "city" : "臺北市", "district" : "士林區", "tel" : "(02)88661170", "env_actions" : ["環境管理","綠色採購","源頭減量","環境教育"], "source_dataset" : "tpe_00002761", "seq_no" : "295"}}, {"type" : "Feature", "geometry" : {"type" : "Point", "coordinates" : [121.563059176115, 25.042648117543]}, "properties" : {"name" : "鳥作洋食", "address" : "臺北市信義區忠孝東路四段553巷16弄2號1樓", "city" : "臺北市", "district" : "信義區", "tel" : "(02)27567966", "env_actions" : ["環境管理"], "source_dataset" : "tpe_00002761", "seq_no" : "296"}}, {"type" : "Feature", "geometry" : {"type" : "Point", "coordinates" : [121.585003082447, 25.057258612969]}, "properties" : {"name" : "麥味登內湖新明", "address" : "臺北市內湖區新明路198號", "city" : "臺北市", "district" : "內湖區", "tel" : "(02)27960603", "env_actions" : ["環境管理","綠色採購","源頭減量","惜食(善用食材)","環境教育"], "source_dataset" : "tpe_00002761", "seq_no" : "304"}}, {"type" : "Feature", "geometry" : {"type" : "Point", "coordinates" : [121.607585270706, 25.071091519236]}, "properties" : {"name" : "麥味登內湖葫洲", "address" : "臺北市內湖區民權東路六段296巷67號", "city" : "臺北市", "district" : "內湖區", "tel" : "(02)26333323", "env_actions" : ["環境管理","綠色採購","源頭減量","惜食(善用食材)","環境教育"], "source_dataset" : "tpe_00002761", "seq_no" : "306"}}, {"type" : "Feature", "geometry" : {"type" : "Point", "coordinates" : [121.583158728472, 25.07722363578]}, "properties" : {"name" : "麥味登內湖旗艦", "address" : "臺北市內湖區文德路90巷43號", "city" : "臺北市", "district" : "內湖區", "tel" : "(02)26272227", "env_actions" : ["環境管理","綠色採購","源頭減量","惜食(善用食材)","環境教育"], "source_dataset" : "tpe_00002761", "seq_no" : "307"}}, {"type" : "Feature", "geometry" : {"type" : "Point", "coordinates" : [121.528215017881, 25.112098304141]}, "properties" : {"name" : "麥味登天母士東", "address" : "臺北市士林區士東路71號", "city" : "臺北市", "district" : "士林區", "tel" : "(02)28712828", "env_actions" : ["環境管理","綠色採購","源頭減量","惜食(善用食材)","環境教育"], "source_dataset" : "tpe_00002761", "seq_no" : "309"}}, {"type" : "Feature", "geometry" : {"type" : "Point", "coordinates" : [121.556735030169, 24.980590979094]}, "properties" : {"name" : "麥味登文山木星好運", "address" : "臺北市文山區木新路三段315號", "city" : "臺北市", "district" : "文山區", "tel" : "(02)29360988", "env_actions" : ["環境管理","綠色採購","源頭減量","惜食(善用食材)","環境教育"], "source_dataset" : "tpe_00002761", "seq_no" : "310"}}, {"type" : "Feature", "geometry" : {"type" : "Point", "coordinates" : [121.576049449656, 24.98857465805]}, "properties" : {"name" : "麥味登文山政大", "address" : "臺北市文山區萬壽路25巷3號", "city" : "臺北市", "district" : "文山區", "tel" : "(02)29381314", "env_actions" : ["環境管理","綠色採購","源頭減量","惜食(善用食材)","環境教育"], "source_dataset" : "tpe_00002761", "seq_no" : "314"}}, {"type" : "Feature", "geometry" : {"type" : "Point", "coordinates" : [121.540505570146, 24.99013113556]}, "properties" : {"name" : "麥味登文山滬江", "address" : "臺北市文山區羅斯福路六段455巷21號1樓", "city" : "臺北市", "district" : "文山區", "tel" : "(02)29351157", "env_actions" : ["環境管理","綠色採購","源頭減量","惜食(善用食材)","環境教育"], "source_dataset" : "tpe_00002761", "seq_no" : "315"}}, {"type" : "Feature", "geometry" : {"type" : "Point", "coordinates" : [121.545949867715, 25.029787092949]}, "properties" : {"name" : "麥味登北市大安", "address" : "臺北市大安區大安路二段134號", "city" : "臺北市", "district" : "大安區", "tel" : "(02)27017080", "env_actions" : ["環境管理","綠色採購","源頭減量","惜食(善用食材)","環境教育"], "source_dataset" : "tpe_00002761", "seq_no" : "318"}}, {"type" : "Feature", "geometry" : {"type" : "Point", "coordinates" : [121.582117863736, 25.041380689964]}, "properties" : {"name" : "麥味登北市大道", "address" : "臺北市信義區大道路50號", "city" : "臺北市", "district" : "信義區", "tel" : "(02)27598668", "env_actions" : ["環境管理","綠色採購","源頭減量","惜食(善用食材)","環境教育"], "source_dataset" : "tpe_00002761", "seq_no" : "319"}}, {"type" : "Feature", "geometry" : {"type" : "Point", "coordinates" : [121.553382436537, 25.024897551641]}, "properties" : {"name" : "麥味登北市六張犁店", "address" : "臺北市信義區基隆路二段183號1樓", "city" : "臺北市", "district" : "信義區", "tel" : "(02)27323011", "env_actions" : ["環境管理","綠色採購","源頭減量","惜食(善用食材)","環境教育"], "source_dataset" : "tpe_00002761", "seq_no" : "321"}}, {"type" : "Feature", "geometry" : {"type" : "Point", "coordinates" : [121.566370614602, 24.988669122098]}, "properties" : {"name" : "麥味登北市文山木柵店", "address" : "臺北市文山區木柵路三段55號", "city" : "臺北市", "district" : "文山區", "tel" : "(02)86617903", "env_actions" : ["環境管理","綠色採購","源頭減量","惜食(善用食材)","環境教育"], "source_dataset" : "tpe_00002761", "seq_no" : "323"}}, {"type" : "Feature", "geometry" : {"type" : "Point", "coordinates" : [121.561566191521, 25.030588444802]}, "properties" : {"name" : "麥味登北市世貿莊敬店", "address" : "臺北市信義區莊敬路203號", "city" : "臺北市", "district" : "信義區", "tel" : "(02)87861811", "env_actions" : ["環境管理","綠色採購","源頭減量","惜食(善用食材)","環境教育"], "source_dataset" : "tpe_00002761", "seq_no" : "324"}}, {"type" : "Feature", "geometry" : {"type" : "Point", "coordinates" : [121.550877923868, 25.047556224767]}, "properties" : {"name" : "麥味登北市台視店", "address" : "臺北市松山區八德路三段12巷5弄6號", "city" : "臺北市", "district" : "松山區", "tel" : "(02)25795877", "env_actions" : ["環境管理","綠色採購","源頭減量","惜食(善用食材)","環境教育"], "source_dataset" : "tpe_00002761", "seq_no" : "326"}}, {"type" : "Feature", "geometry" : {"type" : "Point", "coordinates" : [121.562355347705, 25.059171782368]}, "properties" : {"name" : "麥味登北市民生", "address" : "臺北市松山區民生東路五段153-5號", "city" : "臺北市", "district" : "松山區", "tel" : "(02)27607148", "env_actions" : ["環境管理","綠色採購","源頭減量","惜食(善用食材)","環境教育"], "source_dataset" : "tpe_00002761", "seq_no" : "327"}}, {"type" : "Feature", "geometry" : {"type" : "Point", "coordinates" : [121.576542808477, 25.03984793324]}, "properties" : {"name" : "麥味登北市永春", "address" : "臺北市信義區忠孝東路五段372巷27弄77-1號", "city" : "臺北市", "district" : "信義區", "tel" : "(02)27220602", "env_actions" : ["環境管理","綠色採購","源頭減量","惜食(善用食材)","環境教育"], "source_dataset" : "tpe_00002761", "seq_no" : "330"}}, {"type" : "Feature", "geometry" : {"type" : "Point", "coordinates" : [121.584797977277, 25.045452702346]}, "properties" : {"name" : "麥味登北市同德", "address" : "臺北市南港區同德路54號", "city" : "臺北市", "district" : "南港區", "tel" : "(02)27855330", "env_actions" : ["環境管理","綠色採購","源頭減量","惜食(善用食材)","環境教育"], "source_dataset" : "tpe_00002761", "seq_no" : "331"}}, {"type" : "Feature", "geometry" : {"type" : "Point", "coordinates" : [121.506795986326, 25.046097396429]}, "properties" : {"name" : "麥味登北市西門", "address" : "臺北市萬華區西寧南路24號", "city" : "臺北市", "district" : "萬華區", "tel" : "(02)23717288", "env_actions" : ["環境管理","綠色採購","源頭減量","惜食(善用食材)","環境教育"], "source_dataset" : "tpe_00002761", "seq_no" : "335"}}, {"type" : "Feature", "geometry" : {"type" : "Point", "coordinates" : [121.563141151128, 24.984820696984]}, "properties" : {"name" : "麥味登北市忠順", "address" : "臺北市文山區忠順街2段25號", "city" : "臺北市", "district" : "文山區", "tel" : "(02)29399358", "env_actions" : ["環境管理","綠色採購","源頭減量","惜食(善用食材)","環境教育"], "source_dataset" : "tpe_00002761", "seq_no" : "339"}}, {"type" : "Feature", "geometry" : {"type" : "Point", "coordinates" : [121.577969073121, 25.044471768217]}, "properties" : {"name" : "麥味登北市松山", "address" : "臺北市信義區松山路241號", "city" : "臺北市", "district" : "信義區", "tel" : "(02)27682899", "env_actions" : ["環境管理","綠色採購","源頭減量","惜食(善用食材)","環境教育"], "source_dataset" : "tpe_00002761", "seq_no" : "342"}}, {"type" : "Feature", "geometry" : {"type" : "Point", "coordinates" : [121.569071096167, 25.025177339569]}, "properties" : {"name" : "麥味登北市松仁", "address" : "臺北市信義區松仁路232號", "city" : "臺北市", "district" : "信義區", "tel" : "(02)27585197", "env_actions" : ["環境管理","綠色採購","源頭減量","惜食(善用食材)","環境教育"], "source_dataset" : "tpe_00002761", "seq_no" : "343"}}, {"type" : "Feature", "geometry" : {"type" : "Point", "coordinates" : [121.538162576751, 25.054619528844]}, "properties" : {"name" : "麥味登北市長春", "address" : "臺北市中山區長春路238號", "city" : "臺北市", "district" : "中山區", "tel" : "(02)25071770", "env_actions" : ["環境管理","綠色採購","源頭減量","惜食(善用食材)","環境教育"], "source_dataset" : "tpe_00002761", "seq_no" : "346"}}, {"type" : "Feature", "geometry" : {"type" : "Point", "coordinates" : [121.563704750297, 25.051213500579]}, "properties" : {"name" : "麥味登北市南京三民(togo外賣專門店)", "address" : "臺北市松山區南京東路五段186號", "city" : "臺北市", "district" : "松山區", "tel" : "(02)27489768", "env_actions" : ["環境管理","綠色採購","源頭減量","惜食(善用食材)","環境教育"], "source_dataset" : "tpe_00002761", "seq_no" : "348"}}, {"type" : "Feature", "geometry" : {"type" : "Point", "coordinates" : [121.552819591739, 25.054641112245]}, "properties" : {"name" : "麥味登北市健康店", "address" : "臺北市松山區健康路15巷13號", "city" : "臺北市", "district" : "松山區", "tel" : "(02)25148117", "env_actions" : ["環境管理","綠色採購","源頭減量","惜食(善用食材)","環境教育"], "source_dataset" : "tpe_00002761", "seq_no" : "351"}}, {"type" : "Feature", "geometry" : {"type" : "Point", "coordinates" : [121.523518637532, 25.058131672003]}, "properties" : {"name" : "麥味登北市國王", "address" : "臺北市中山區民生東路一段5號", "city" : "臺北市", "district" : "中山區", "tel" : "(02)25115091", "env_actions" : ["環境管理","綠色採購","源頭減量","惜食(善用食材)","環境教育"], "source_dataset" : "tpe_00002761", "seq_no" : "353"}}, {"type" : "Feature", "geometry" : {"type" : "Point", "coordinates" : [121.553181689956, 25.031196929063]}, "properties" : {"name" : "麥味登北市通化", "address" : "臺北市大安區通安街54號", "city" : "臺北市", "district" : "大安區", "tel" : "(02)27065066", "env_actions" : ["環境管理","綠色採購","源頭減量","惜食(善用食材)","環境教育"], "source_dataset" : "tpe_00002761", "seq_no" : "355"}}, {"type" : "Feature", "geometry" : {"type" : "Point", "coordinates" : [121.548308283812, 25.059240723522]}, "properties" : {"name" : "麥味登北市敦北", "address" : "臺北市松山區敦化北路222巷11號", "city" : "臺北市", "district" : "松山區", "tel" : "(02)27120158", "env_actions" : ["環境管理","綠色採購","源頭減量","惜食(善用食材)","環境教育"], "source_dataset" : "tpe_00002761", "seq_no" : "356"}}, {"type" : "Feature", "geometry" : {"type" : "Point", "coordinates" : [121.531264773352, 25.042544307673]}, "properties" : {"name" : "麥味登北市新生店", "address" : "臺北市中正區忠孝東路二段116號", "city" : "臺北市", "district" : "中正區", "tel" : "(02)23919493", "env_actions" : ["環境管理","綠色採購","源頭減量","惜食(善用食材)","環境教育"], "source_dataset" : "tpe_00002761", "seq_no" : "358"}}, {"type" : "Feature", "geometry" : {"type" : "Point", "coordinates" : [121.546234181871, 25.083586548028]}, "properties" : {"name" : "麥味登北市實踐", "address" : "臺北市中山區大直街70號", "city" : "臺北市", "district" : "中山區", "tel" : "(02)25336934", "env_actions" : ["環境管理","綠色採購","源頭減量","惜食(善用食材)","環境教育"], "source_dataset" : "tpe_00002761", "seq_no" : "361"}}, {"type" : "Feature", "geometry" : {"type" : "Point", "coordinates" : [121.540676980065, 25.064413195972]}, "properties" : {"name" : "麥味登北市榮星花園", "address" : "臺北市中山區五常街85號", "city" : "臺北市", "district" : "中山區", "tel" : "(02)25082251", "env_actions" : ["環境管理","綠色採購","源頭減量","惜食(善用食材)","環境教育"], "source_dataset" : "tpe_00002761", "seq_no" : "362"}}, {"type" : "Feature", "geometry" : {"type" : "Point", "coordinates" : [121.540614367249, 25.058980633066]}, "properties" : {"name" : "麥味登北市龍江1店", "address" : "臺北市中山區龍江路244號", "city" : "臺北市", "district" : "中山區", "tel" : "(02)77292550", "env_actions" : ["環境管理","綠色採購","源頭減量","惜食(善用食材)","環境教育"], "source_dataset" : "tpe_00002761", "seq_no" : "363"}}, {"type" : "Feature", "geometry" : {"type" : "Point", "coordinates" : [121.510284618246, 25.05243059483]}, "properties" : {"name" : "麥味登北門塔城", "address" : "臺北市大同區塔城街48號", "city" : "臺北市", "district" : "大同區", "tel" : "(02)25522215", "env_actions" : ["環境管理","綠色採購","源頭減量","惜食(善用食材)","環境教育"], "source_dataset" : "tpe_00002761", "seq_no" : "367"}}, {"type" : "Feature", "geometry" : {"type" : "Point", "coordinates" : [121.555345226803, 25.02284080024]}, "properties" : {"name" : "麥味登台北陽光店", "address" : "臺北市信義區信安街155號", "city" : "臺北市", "district" : "信義區", "tel" : "(02)27339595", "env_actions" : ["環境管理","綠色採購","源頭減量","惜食(善用食材)","環境教育"], "source_dataset" : "tpe_00002761", "seq_no" : "369"}}, {"type" : "Feature", "geometry" : {"type" : "Point", "coordinates" : [121.539263623552, 25.00173030654]}, "properties" : {"name" : "麥味登台北萬隆", "address" : "臺北市文山區羅斯福路五段233號", "city" : "臺北市", "district" : "文山區", "tel" : "(02)29356080", "env_actions" : ["環境管理","綠色採購","源頭減量","惜食(善用食材)","環境教育"], "source_dataset" : "tpe_00002761", "seq_no" : "370"}}, {"type" : "Feature", "geometry" : {"type" : "Point", "coordinates" : [121.491893884489, 25.031637146618]}, "properties" : {"name" : "麥味登萬華雙園", "address" : "臺北市萬華區雙園街148號", "city" : "臺北市", "district" : "萬華區", "tel" : "(02)22123484", "env_actions" : ["環境管理","綠色採購","源頭減量","惜食(善用食材)","環境教育"], "source_dataset" : "tpe_00002761", "seq_no" : "374"}}, {"type" : "Feature", "geometry" : {"type" : "Point", "coordinates" : [121.494683214228, 25.025494343147]}, "properties" : {"name" : "麥味登萬華寶興", "address" : "臺北市萬華區寶興街109號", "city" : "臺北市", "district" : "萬華區", "tel" : "(02)23395976", "env_actions" : ["環境管理","綠色採購","源頭減量","惜食(善用食材)","環境教育"], "source_dataset" : "tpe_00002761", "seq_no" : "375"}}, {"type" : "Feature", "geometry" : {"type" : "Point", "coordinates" : [121.55163003204, 25.084982847369]}, "properties" : {"name" : "凱基證券總公司員工餐廳(自有)", "address" : "臺北市中山區成功里明水路700號4樓", "city" : "臺北市", "district" : "中山區", "tel" : "(02)21818888", "env_actions" : ["環境管理","綠色採購","環境教育"], "source_dataset" : "tpe_00002761", "seq_no" : "378"}}, {"type" : "Feature", "geometry" : {"type" : "Point", "coordinates" : [121.591982106488, 25.071800418697]}, "properties" : {"name" : "喜陽鮮食(微風．三總商店街)", "address" : "臺北市內湖區成功路二段325號B1樓", "city" : "臺北市", "district" : "內湖區", "tel" : "(02)87923311#1", "env_actions" : ["環境管理"], "source_dataset" : "tpe_00002761", "seq_no" : "381"}}, {"type" : "Feature", "geometry" : {"type" : "Point", "coordinates" : [121.556279892827, 25.041155342497]}, "properties" : {"name" : "晶湯匙泰式主題餐廳", "address" : "臺北市大安區忠孝東路四段300號10樓", "city" : "臺北市", "district" : "大安區", "tel" : "(02)87725006", "env_actions" : ["環境管理","綠色採購","源頭減量","環境教育"], "source_dataset" : "tpe_00002761", "seq_no" : "383"}}, {"type" : "Feature", "geometry" : {"type" : "Point", "coordinates" : [121.522979010606, 25.030129661332]}, "properties" : {"name" : "無二會所", "address" : "臺北市大安區杭州南路二段61巷12號", "city" : "臺北市", "district" : "大安區", "tel" : "(02)23917599", "env_actions" : ["環境管理","綠色採購","源頭減量","環境教育"], "source_dataset" : "tpe_00002761", "seq_no" : "385"}}, {"type" : "Feature", "geometry" : {"type" : "Point", "coordinates" : [121.56878091468, 25.034519305934]}, "properties" : {"name" : "華南銀行員工餐廳", "address" : "臺北市信義區松仁路123號3樓", "city" : "臺北市", "district" : "信義區", "tel" : "(02)23713111#3", "env_actions" : ["環境管理","綠色採購","源頭減量"], "source_dataset" : "tpe_00002761", "seq_no" : "387"}}, {"type" : "Feature", "geometry" : {"type" : "Point", "coordinates" : [121.548552243324, 25.040371006687]}, "properties" : {"name" : "開飯川食堂", "address" : "臺北市大安區敦化南路一段246號B2", "city" : "臺北市", "district" : "大安區", "tel" : "(02)27515618", "env_actions" : ["環境管理","綠色採購","源頭減量","惜食(善用食材)","環境教育"], "source_dataset" : "tpe_00002761", "seq_no" : "389"}}, {"type" : "Feature", "geometry" : {"type" : "Point", "coordinates" : [121.614968805395, 25.058742880383]}, "properties" : {"name" : "黑毛屋 南港中信店", "address" : "臺北市南港區臺北市南港區經貿二路 186-1 號 2 樓", "city" : "臺北市", "district" : "南港區", "tel" : "(02)27865669", "env_actions" : ["環境管理","源頭減量"], "source_dataset" : "tpe_00002761", "seq_no" : "393"}}, {"type" : "Feature", "geometry" : {"type" : "Point", "coordinates" : [121.556959832812, 25.082541827617]}, "properties" : {"name" : "黑毛屋大直忠泰店", "address" : "臺北市中正區樂群三路200號5樓", "city" : "臺北市", "district" : "中正區", "tel" : "(02)85025991", "env_actions" : ["環境管理","源頭減量"], "source_dataset" : "tpe_00002761", "seq_no" : "394"}}, {"type" : "Feature", "geometry" : {"type" : "Point", "coordinates" : [121.52427803796, 25.105007004507]}, "properties" : {"name" : "黑毛屋天母SOGO店", "address" : "臺北市士林區中山北路6段77號8樓", "city" : "臺北市", "district" : "士林區", "tel" : "(02)28366018", "env_actions" : ["環境管理","綠色採購","源頭減量","惜食(善用食材)","環境教育"], "source_dataset" : "tpe_00002761", "seq_no" : "395"}}, {"type" : "Feature", "geometry" : {"type" : "Point", "coordinates" : [121.56666691488, 25.039359058737]}, "properties" : {"name" : "黑毛屋本家 信義店", "address" : "臺北市信義區臺北市信義區松高路 19 號 6 樓", "city" : "臺北市", "district" : "信義區", "tel" : "(02)27237722", "env_actions" : ["環境管理","源頭減量"], "source_dataset" : "tpe_00002761", "seq_no" : "396"}}, {"type" : "Feature", "geometry" : {"type" : "Point", "coordinates" : [121.522111515876, 25.044943649493]}, "properties" : {"name" : "新盛員工餐廳", "address" : "臺北市中正區忠孝東路一段12號B3", "city" : "臺北市", "district" : "中正區", "tel" : "", "env_actions" : ["環境管理","綠色採購","源頭減量","惜食(善用食材)","環境教育"], "source_dataset" : "tpe_00002761", "seq_no" : "400"}}, {"type" : "Feature", "geometry" : {"type" : "Point", "coordinates" : [121.52427803796, 25.105007004507]}, "properties" : {"name" : "新葡苑（天母SOGO店）", "address" : "臺北市士林區中山北路6段77號8樓", "city" : "臺北市", "district" : "士林區", "tel" : "(02)28366628", "env_actions" : ["環境管理","綠色採購","源頭減量","惜食(善用食材)","環境教育"], "source_dataset" : "tpe_00002761", "seq_no" : "401"}}, {"type" : "Feature", "geometry" : {"type" : "Point", "coordinates" : [121.543057105291, 25.041211752706]}, "properties" : {"name" : "新葡苑(復興SOGO店)", "address" : "臺北市大安區忠孝東路三段300號10樓", "city" : "臺北市", "district" : "大安區", "tel" : "(02)87720177", "env_actions" : ["--"], "source_dataset" : "tpe_00002761", "seq_no" : "402"}}, {"type" : "Feature", "geometry" : {"type" : "Point", "coordinates" : [121.591982106488, 25.071800418697]}, "properties" : {"name" : "楊記(微風．三總商店街)", "address" : "臺北市內湖區成功路二段325號B1樓", "city" : "臺北市", "district" : "內湖區", "tel" : "(02)87923311#1", "env_actions" : ["環境管理"], "source_dataset" : "tpe_00002761", "seq_no" : "403"}}, {"type" : "Feature", "geometry" : {"type" : "Point", "coordinates" : [121.544955400039, 25.041738438636]}, "properties" : {"name" : "詩特莉 Aunt Stella (忠孝SOGO店)", "address" : "臺北市大安區忠孝東路四段45號B1", "city" : "臺北市", "district" : "大安區", "tel" : "(02)27403072", "env_actions" : ["環境管理","綠色採購","食材及餐點","源頭減量","惜食(打包服務)","惜食(善用食材)","環境教育"], "source_dataset" : "tpe_00002761", "seq_no" : "407"}}, {"type" : "Feature", "geometry" : {"type" : "Point", "coordinates" : [121.52427803796, 25.105007004507]}, "properties" : {"name" : "漢來海港-天母店", "address" : "臺北市士林區中山北路六段77號7F", "city" : "臺北市", "district" : "士林區", "tel" : "(07)4128068", "env_actions" : ["環境管理","環境教育"], "source_dataset" : "tpe_00002761", "seq_no" : "411"}}, {"type" : "Feature", "geometry" : {"type" : "Point", "coordinates" : [121.560498420876, 25.057164190829]}, "properties" : {"name" : "綠帶純植物烘焙", "address" : "臺北市松山區民生東路五段36巷8弄64號1樓", "city" : "臺北市", "district" : "松山區", "tel" : "(02)27477668", "env_actions" : ["環境管理","綠色採購","惜食(善用食材)","環境教育"], "source_dataset" : "tpe_00002761", "seq_no" : "414"}}, {"type" : "Feature", "geometry" : {"type" : "Point", "coordinates" : [121.553122513719, 25.030287576388]}, "properties" : {"name" : "翟記牛肉麵食館", "address" : "臺北市大安區通安街80號", "city" : "臺北市", "district" : "大安區", "tel" : "(02)87717195", "env_actions" : ["環境管理"], "source_dataset" : "tpe_00002761", "seq_no" : "415"}}, {"type" : "Feature", "geometry" : {"type" : "Point", "coordinates" : [121.544882767622, 25.041902421527]}, "properties" : {"name" : "遠東SOGO忠孝店員工餐廳", "address" : "臺北市大安區忠孝東路四段45號", "city" : "臺北市", "district" : "大安區", "tel" : "(02)27765555", "env_actions" : ["環境管理","綠色採購","源頭減量","惜食(善用食材)","環境教育"], "source_dataset" : "tpe_00002761", "seq_no" : "420"}}, {"type" : "Feature", "geometry" : {"type" : "Point", "coordinates" : [121.567967870072, 25.036731960735]}, "properties" : {"name" : "樂檸漢堡（信義遠百門市）", "address" : "臺北市信義區松仁路58號B3（A13 信義遠百 B3）", "city" : "臺北市", "district" : "信義區", "tel" : "(02)27255260", "env_actions" : ["環境管理"], "source_dataset" : "tpe_00002761", "seq_no" : "424"}}, {"type" : "Feature", "geometry" : {"type" : "Point", "coordinates" : [121.54430123118, 25.043566480765]}, "properties" : {"name" : "蔬店手作鍋物復興店", "address" : "臺北市大安區復興南路一段107巷2號", "city" : "臺北市", "district" : "大安區", "tel" : "(02)27311008", "env_actions" : ["環境管理","惜食(善用食材)","環境教育"], "source_dataset" : "tpe_00002761", "seq_no" : "426"}}, {"type" : "Feature", "geometry" : {"type" : "Point", "coordinates" : [121.570113804922, 25.042614045107]}, "properties" : {"name" : "蔬漫小姐Miss Shumaan.house", "address" : "臺北市信義區永吉路120巷82號1F", "city" : "臺北市", "district" : "信義區", "tel" : "(02)27662386", "env_actions" : ["環境管理","綠色採購","源頭減量","惜食(善用食材)","環境教育"], "source_dataset" : "tpe_00002761", "seq_no" : "427"}}, {"type" : "Feature", "geometry" : {"type" : "Point", "coordinates" : [121.546620084693, 25.041361621135]}, "properties" : {"name" : "燒肉Smile大安忠孝店", "address" : "臺北市大安區臺北市大安區忠孝東路四段104號號2樓之1", "city" : "臺北市", "district" : "大安區", "tel" : "(02)27522000", "env_actions" : ["環境管理","惜食(善用食材)"], "source_dataset" : "tpe_00002761", "seq_no" : "432"}}, {"type" : "Feature", "geometry" : {"type" : "Point", "coordinates" : [121.569761429713, 25.081682011989]}, "properties" : {"name" : "燒肉Smile台北內湖店", "address" : "臺北市內湖區臺北市內湖區內湖路一段320號", "city" : "臺北市", "district" : "內湖區", "tel" : "(02)26599555", "env_actions" : ["惜食(善用食材)"], "source_dataset" : "tpe_00002761", "seq_no" : "433"}}, {"type" : "Feature", "geometry" : {"type" : "Point", "coordinates" : [121.578422198807, 25.04132997945]}, "properties" : {"name" : "燒肉Smile台北忠孝", "address" : "臺北市信義區忠孝東路五段497號2樓", "city" : "臺北市", "district" : "信義區", "tel" : "(02)87852227", "env_actions" : ["環境管理","惜食(善用食材)"], "source_dataset" : "tpe_00002761", "seq_no" : "434"}}, {"type" : "Feature", "geometry" : {"type" : "Point", "coordinates" : [121.513300594647, 25.114333045256]}, "properties" : {"name" : "築間幸福鍋物北投石牌", "address" : "臺北市北投區112臺北市北投區石牌路一段160號", "city" : "臺北市", "district" : "北投區", "tel" : "(02)28289366", "env_actions" : ["環境管理","惜食(善用食材)"], "source_dataset" : "tpe_00002761", "seq_no" : "436"}}, {"type" : "Feature", "geometry" : {"type" : "Point", "coordinates" : [121.563650435565, 25.054561693712]}, "properties" : {"name" : "築間幸福鍋物台北三民", "address" : "臺北市松山區105臺北市松山區三民路25號", "city" : "臺北市", "district" : "松山區", "tel" : "(02)25289191", "env_actions" : ["環境管理","惜食(善用食材)"], "source_dataset" : "tpe_00002761", "seq_no" : "437"}}, {"type" : "Feature", "geometry" : {"type" : "Point", "coordinates" : [121.569701163829, 25.081698943433]}, "properties" : {"name" : "築間幸福鍋物台北內湖", "address" : "臺北市內湖區114臺北市內湖區內湖路一段318號", "city" : "臺北市", "district" : "內湖區", "tel" : "(02)26561277", "env_actions" : ["環境管理","惜食(善用食材)"], "source_dataset" : "tpe_00002761", "seq_no" : "438"}}, {"type" : "Feature", "geometry" : {"type" : "Point", "coordinates" : [121.505291686163, 25.044967934976]}, "properties" : {"name" : "築間幸福鍋物台北西門町", "address" : "臺北市萬華區108臺北市萬華區昆明街92-1號2樓", "city" : "臺北市", "district" : "萬華區", "tel" : "(02)23310003", "env_actions" : ["環境管理","惜食(善用食材)"], "source_dataset" : "tpe_00002761", "seq_no" : "439"}}, {"type" : "Feature", "geometry" : {"type" : "Point", "coordinates" : [121.579993721833, 25.04228220556]}, "properties" : {"name" : "築間幸福鍋物台北忠孝一", "address" : "臺北市信義區110臺北市信義區忠孝東路五段695號", "city" : "臺北市", "district" : "信義區", "tel" : "(02)87852222", "env_actions" : ["環境管理","惜食(善用食材)"], "source_dataset" : "tpe_00002761", "seq_no" : "440"}}, {"type" : "Feature", "geometry" : {"type" : "Point", "coordinates" : [121.54724193809, 25.041352820136]}, "properties" : {"name" : "築間幸福鍋物台北忠孝二", "address" : "臺北市大安區106臺北市大安區忠孝東路四段120號2樓", "city" : "臺北市", "district" : "大安區", "tel" : "(02)27732727", "env_actions" : ["環境管理","惜食(善用食材)"], "source_dataset" : "tpe_00002761", "seq_no" : "441"}}, {"type" : "Feature", "geometry" : {"type" : "Point", "coordinates" : [121.544139544267, 25.047346090454]}, "properties" : {"name" : "築間幸福鍋物台北復興南", "address" : "臺北市松山區105臺北市松山區復興南路一段1之1號", "city" : "臺北市", "district" : "松山區", "tel" : "(02)27525568", "env_actions" : ["環境管理","惜食(善用食材)"], "source_dataset" : "tpe_00002761", "seq_no" : "446"}}, {"type" : "Feature", "geometry" : {"type" : "Point", "coordinates" : [121.527055633034, 25.06498643433]}, "properties" : {"name" : "築間幸福鍋物台北農安", "address" : "臺北市中山區104臺北市中山區農安街57號", "city" : "臺北市", "district" : "中山區", "tel" : "(02)25911717", "env_actions" : ["環境管理","惜食(善用食材)"], "source_dataset" : "tpe_00002761", "seq_no" : "447"}}, {"type" : "Feature", "geometry" : {"type" : "Point", "coordinates" : [121.559832646307, 25.033876623508]}, "properties" : {"name" : "築間幸福鍋物信義世貿店", "address" : "臺北市信義區臺北市信義區基隆路一段426號", "city" : "臺北市", "district" : "信義區", "tel" : "(02)27201555", "env_actions" : ["惜食(善用食材)"], "source_dataset" : "tpe_00002761", "seq_no" : "449"}}, {"type" : "Feature", "geometry" : {"type" : "Point", "coordinates" : [121.52427803796, 25.105007004507]}, "properties" : {"name" : "靜岡勝政日式豬排", "address" : "臺北市士林區中山北路六段77號8F", "city" : "臺北市", "district" : "士林區", "tel" : "(02)28363899", "env_actions" : ["環境管理","綠色採購","源頭減量","惜食(善用食材)","環境教育"], "source_dataset" : "tpe_00002761", "seq_no" : "451"}}, {"type" : "Feature", "geometry" : {"type" : "Point", "coordinates" : [121.53033002351, 25.050614990783]}, "properties" : {"name" : "餡老滿(台北吉林店)", "address" : "臺北市中山區松江路90巷23號", "city" : "臺北市", "district" : "中山區", "tel" : "(02)25672028", "env_actions" : ["環境管理","綠色採購","源頭減量","惜食(善用食材)"], "source_dataset" : "tpe_00002761", "seq_no" : "453"}}, {"type" : "Feature", "geometry" : {"type" : "Point", "coordinates" : [121.565242326616, 25.039515129775]}, "properties" : {"name" : "默爾Pasta Pizza(信義誠品店)", "address" : "臺北市信義區松高路11號5樓", "city" : "臺北市", "district" : "信義區", "tel" : "(02)27224660", "env_actions" : ["環境管理","綠色採購","食材及餐點","源頭減量","惜食(打包服務)","惜食(善用食材)","環境教育"], "source_dataset" : "tpe_00002761", "seq_no" : "455"}}, {"type" : "Feature", "geometry" : {"type" : "Point", "coordinates" : [121.591982106488, 25.071800418697]}, "properties" : {"name" : "龍凰號(微風．三總商店街)", "address" : "臺北市內湖區成功路二段325號B1樓", "city" : "臺北市", "district" : "內湖區", "tel" : "(02)87923311", "env_actions" : ["環境管理"], "source_dataset" : "tpe_00002761", "seq_no" : "457"}}, {"type" : "Feature", "geometry" : {"type" : "Point", "coordinates" : [121.591982106488, 25.071800418697]}, "properties" : {"name" : "優米自助餐(微風．三總商店街)", "address" : "臺北市內湖區成功路二段325號B1樓", "city" : "臺北市", "district" : "內湖區", "tel" : "(02)87923311", "env_actions" : ["環境管理"], "source_dataset" : "tpe_00002761", "seq_no" : "458"}}, {"type" : "Feature", "geometry" : {"type" : "Point", "coordinates" : [121.51834289614, 25.035539215913]}, "properties" : {"name" : "戲台酒館 Theater Trattoria", "address" : "臺北市中正區中山南路21-1號", "city" : "臺北市", "district" : "中正區", "tel" : "(02)23971920", "env_actions" : ["環境管理"], "source_dataset" : "tpe_00002761", "seq_no" : "460"}}, {"type" : "Feature", "geometry" : {"type" : "Point", "coordinates" : [121.532882061569, 25.056298298322]}, "properties" : {"name" : "禪風茶樓 Zen Tea Restaurant", "address" : "臺北市中山區松江路182號2樓", "city" : "臺北市", "district" : "中山區", "tel" : "(02)25678977", "env_actions" : ["環境管理","惜食(善用食材)","環境教育"], "source_dataset" : "tpe_00002761", "seq_no" : "461"}}, {"type" : "Feature", "geometry" : {"type" : "Point", "coordinates" : [121.532300944222, 25.048570602689]}, "properties" : {"name" : "韓宮韓式料理", "address" : "臺北市中山區長安東路二段49之1號", "city" : "臺北市", "district" : "中山區", "tel" : "(02)25235380", "env_actions" : ["環境管理","綠色採購","源頭減量"], "source_dataset" : "tpe_00002761", "seq_no" : "462"}}, {"type" : "Feature", "geometry" : {"type" : "Point", "coordinates" : [121.506775283025, 25.04298607588]}, "properties" : {"name" : "薆悅精品inn cafe x 台北成都會館", "address" : "臺北市萬華區成都路27巷8號", "city" : "臺北市", "district" : "萬華區", "tel" : "(02)23751212", "env_actions" : ["環境管理","綠色採購","源頭減量"], "source_dataset" : "tpe_00002761", "seq_no" : "464"}}, {"type" : "Feature", "geometry" : {"type" : "Point", "coordinates" : [121.548863920173, 25.143440754685]}, "properties" : {"name" : "藏粵閣", "address" : "臺北市士林區格致路237號2樓", "city" : "臺北市", "district" : "士林區", "tel" : "(02)28616661", "env_actions" : ["環境管理","源頭減量","惜食(善用食材)"], "source_dataset" : "tpe_00002761", "seq_no" : "465"}}, {"type" : "Feature", "geometry" : {"type" : "Point", "coordinates" : [121.514896592831, 25.045615269358]}, "properties" : {"name" : "藏壽司 台北館前店", "address" : "臺北市中正區館前路12號5樓", "city" : "臺北市", "district" : "中正區", "tel" : "(02)23316029", "env_actions" : ["環境管理","綠色採購","源頭減量"], "source_dataset" : "tpe_00002761", "seq_no" : "468"}}, {"type" : "Feature", "geometry" : {"type" : "Point", "coordinates" : [121.566020921602, 25.035668087674]}, "properties" : {"name" : "藏壽司 信義ATT店", "address" : "臺北市信義區松壽路12號4樓", "city" : "臺北市", "district" : "信義區", "tel" : "(02)77340800", "env_actions" : ["環境管理","綠色採購","源頭減量"], "source_dataset" : "tpe_00002761", "seq_no" : "470"}}, {"type" : "Feature", "geometry" : {"type" : "Point", "coordinates" : [121.567277033612, 25.038728823438]}, "properties" : {"name" : "藏壽司 微風松高店", "address" : "臺北市信義區松高路16號B1", "city" : "臺北市", "district" : "信義區", "tel" : "(02)27206900", "env_actions" : ["環境管理","綠色採購","源頭減量"], "source_dataset" : "tpe_00002761", "seq_no" : "472"}}, {"type" : "Feature", "geometry" : {"type" : "Point", "coordinates" : [121.51597098518, 25.065141583358]}, "properties" : {"name" : "讚豆工坊", "address" : "臺北市大同區大龍街60號", "city" : "臺北市", "district" : "大同區", "tel" : "", "env_actions" : ["環境管理"], "source_dataset" : "tpe_00002761", "seq_no" : "478"}}]}
