{"type" : "FeatureCollection", "name" : "EcoRestaurant", "features" : [{"type" : "Feature", "geometry" : {"type" : "Point", "coordinates" : [121.466501998467, 25.080995995123]}, "properties" : {"name" : "31早午餐", "address" : "新北市蘆洲區和平路171號", "city" : "新北市", "district" : "蘆洲區", "tel" : "02-82861790", "env_actions" : [], "source_dataset" : "ntpe_e90d14f8", "seq_no" : "1"}}, {"type" : "Feature", "geometry" : {"type" : "Point", "coordinates" : [121.466619009835, 25.013677997055]}, "properties" : {"name" : "57黃燜雞(板橋大遠百)", "address" : "新北市板橋區新站路28號B1", "city" : "新北市", "district" : "板橋區", "tel" : "0988754052", "env_actions" : [], "source_dataset" : "ntpe_e90d14f8", "seq_no" : "2"}}, {"type" : "Feature", "geometry" : {"type" : "Point", "coordinates" : [121.48555096308, 24.998090004082]}, "properties" : {"name" : "Apple203早午餐店-中和遠東", "address" : "新北市中和區中正路738號", "city" : "新北市", "district" : "中和區", "tel" : "02-82261077", "env_actions" : [], "source_dataset" : "ntpe_e90d14f8", "seq_no" : "4"}}, {"type" : "Feature", "geometry" : {"type" : "Point", "coordinates" : [121.475688899623, 25.006077203437]}, "properties" : {"name" : "Bellini Pasta Pasta 中和環球", "address" : "新北市中和區中山路三段122號4樓", "city" : "新北市", "district" : "中和區", "tel" : "0988629682", "env_actions" : [], "source_dataset" : "ntpe_e90d14f8", "seq_no" : "10"}}, {"type" : "Feature", "geometry" : {"type" : "Point", "coordinates" : [121.475688899623, 25.006077203437]}, "properties" : {"name" : "Cold Stone 中和環球", "address" : "新北市中和區中山路三段122號B2樓", "city" : "新北市", "district" : "中和區", "tel" : "02-22211807", "env_actions" : [], "source_dataset" : "ntpe_e90d14f8", "seq_no" : "13"}}, {"type" : "Feature", "geometry" : {"type" : "Point", "coordinates" : [121.464032019239, 25.013858920435]}, "properties" : {"name" : "DRIP CAFE好滴咖啡-環球板橋車站店", "address" : "新北市板橋區縣民大道二段七號2F", "city" : "新北市", "district" : "板橋區", "tel" : "02-29609288", "env_actions" : [], "source_dataset" : "ntpe_e90d14f8", "seq_no" : "15"}}, {"type" : "Feature", "geometry" : {"type" : "Point", "coordinates" : [121.466429327366, 25.011417900683]}, "properties" : {"name" : "Kali Chimaek 韓式炸雞", "address" : "新北市板橋區中山路一段158巷21號", "city" : "新北市", "district" : "板橋區", "tel" : "02-29647777", "env_actions" : [], "source_dataset" : "ntpe_e90d14f8", "seq_no" : "17"}}, {"type" : "Feature", "geometry" : {"type" : "Point", "coordinates" : [121.475688899623, 25.006077203437]}, "properties" : {"name" : "Mami Cooking 中和環球店", "address" : "新北市中和區中山路三段122號B2樓", "city" : "新北市", "district" : "中和區", "tel" : "0986750260", "env_actions" : [], "source_dataset" : "ntpe_e90d14f8", "seq_no" : "18"}}, {"type" : "Feature", "geometry" : {"type" : "Point", "coordinates" : [121.475688899623, 25.006077203437]}, "properties" : {"name" : "MOMO PARADISE 中和環球", "address" : "新北市中和區中山路三段122號4樓", "city" : "新北市", "district" : "中和區", "tel" : "02-82286002", "env_actions" : [], "source_dataset" : "ntpe_e90d14f8", "seq_no" : "19"}}, {"type" : "Feature", "geometry" : {"type" : "Point", "coordinates" : [121.520681028031, 25.007936016194]}, "properties" : {"name" : "Party創作美食茶房", "address" : "新北市永和區竹林路222號2樓", "city" : "新北市", "district" : "永和區", "tel" : "02-89211103", "env_actions" : [], "source_dataset" : "ntpe_e90d14f8", "seq_no" : "21"}}, {"type" : "Feature", "geometry" : {"type" : "Point", "coordinates" : [121.492757974888, 25.0678379997]}, "properties" : {"name" : "Q Burger三重大智店", "address" : "新北市三重區大智街55號", "city" : "新北市", "district" : "三重區", "tel" : "02-29883200", "env_actions" : [], "source_dataset" : "ntpe_e90d14f8", "seq_no" : "28"}}, {"type" : "Feature", "geometry" : {"type" : "Point", "coordinates" : [121.483178968301, 25.066862010894]}, "properties" : {"name" : "Q Burger三重中正店", "address" : "新北市三重區中正北路180號", "city" : "新北市", "district" : "三重區", "tel" : "02-29856668", "env_actions" : [], "source_dataset" : "ntpe_e90d14f8", "seq_no" : "29"}}, {"type" : "Feature", "geometry" : {"type" : "Point", "coordinates" : [121.487633027829, 25.082392001097]}, "properties" : {"name" : "Q Burger三重仁愛店", "address" : "新北市三重區溪尾街269號", "city" : "新北市", "district" : "三重區", "tel" : "02-29860322", "env_actions" : [], "source_dataset" : "ntpe_e90d14f8", "seq_no" : "32"}}, {"type" : "Feature", "geometry" : {"type" : "Point", "coordinates" : [121.490327977338, 25.069057985707]}, "properties" : {"name" : "Q Burger三重自強店", "address" : "新北市三重區自強路二段7號", "city" : "新北市", "district" : "三重區", "tel" : "02-29882918", "env_actions" : [], "source_dataset" : "ntpe_e90d14f8", "seq_no" : "37"}}, {"type" : "Feature", "geometry" : {"type" : "Point", "coordinates" : [121.485198001138, 25.070399006396]}, "properties" : {"name" : "Q Burger三重忠孝店", "address" : "新北市三重區忠孝路二段46號", "city" : "新北市", "district" : "三重區", "tel" : "02-29846788", "env_actions" : [], "source_dataset" : "ntpe_e90d14f8", "seq_no" : "38"}}, {"type" : "Feature", "geometry" : {"type" : "Point", "coordinates" : [121.477416409868, 25.066399120291]}, "properties" : {"name" : "Q Burger三重頂崁店", "address" : "新北市三重區頂崁街188號", "city" : "新北市", "district" : "三重區", "tel" : "02-29843557", "env_actions" : [], "source_dataset" : "ntpe_e90d14f8", "seq_no" : "41"}}, {"type" : "Feature", "geometry" : {"type" : "Point", "coordinates" : [121.378232008488, 24.929529011682]}, "properties" : {"name" : "Q Burger三峽大同店", "address" : "新北市三峽區介壽里大同路1-4號1樓", "city" : "新北市", "district" : "三峽區", "tel" : "02-26740031", "env_actions" : [], "source_dataset" : "ntpe_e90d14f8", "seq_no" : "47"}}, {"type" : "Feature", "geometry" : {"type" : "Point", "coordinates" : [121.366674034561, 24.935843015525]}, "properties" : {"name" : "Q Burger三峽文化店", "address" : "新北市三峽區文化路266之13號1樓", "city" : "新北市", "district" : "三峽區", "tel" : "02-26738182", "env_actions" : [], "source_dataset" : "ntpe_e90d14f8", "seq_no" : "49"}}, {"type" : "Feature", "geometry" : {"type" : "Point", "coordinates" : [121.372168372093, 24.94293251305]}, "properties" : {"name" : "Q Burger三峽北大店", "address" : "新北市三峽區國際二街37號", "city" : "新北市", "district" : "三峽區", "tel" : "02-26737288", "env_actions" : [], "source_dataset" : "ntpe_e90d14f8", "seq_no" : "50"}}, {"type" : "Feature", "geometry" : {"type" : "Point", "coordinates" : [121.467246982021, 24.983343009364]}, "properties" : {"name" : "Q Burger土城永豐店", "address" : "新北市土城區永豐路135巷10號1樓", "city" : "新北市", "district" : "土城區", "tel" : "02-22707050", "env_actions" : [], "source_dataset" : "ntpe_e90d14f8", "seq_no" : "52"}}, {"type" : "Feature", "geometry" : {"type" : "Point", "coordinates" : [121.465576971632, 24.988758012182]}, "properties" : {"name" : "Q Burger土城立德店", "address" : "新北市土城區延和路54號", "city" : "新北市", "district" : "土城區", "tel" : "02-22632929", "env_actions" : [], "source_dataset" : "ntpe_e90d14f8", "seq_no" : "53"}}, {"type" : "Feature", "geometry" : {"type" : "Point", "coordinates" : [121.45897203193, 24.98054630355]}, "properties" : {"name" : "Q Burger土城青雲店", "address" : "新北市土城區青雲路238號1樓", "city" : "新北市", "district" : "土城區", "tel" : "02-22730363", "env_actions" : [], "source_dataset" : "ntpe_e90d14f8", "seq_no" : "56"}}, {"type" : "Feature", "geometry" : {"type" : "Point", "coordinates" : [121.517437985874, 24.993282018692]}, "properties" : {"name" : "Q Burger中和大仁店", "address" : "新北市中和區大仁街19巷6號1樓", "city" : "新北市", "district" : "中和區", "tel" : "02-86680138", "env_actions" : [], "source_dataset" : "ntpe_e90d14f8", "seq_no" : "60"}}, {"type" : "Feature", "geometry" : {"type" : "Point", "coordinates" : [121.500044028042, 24.990772979795]}, "properties" : {"name" : "Q Burger中和中興店", "address" : "新北市中和區中興街163號1樓+地下室", "city" : "新北市", "district" : "中和區", "tel" : "02-22429011", "env_actions" : [], "source_dataset" : "ntpe_e90d14f8", "seq_no" : "62"}}, {"type" : "Feature", "geometry" : {"type" : "Point", "coordinates" : [121.511461018357, 24.987078991247]}, "properties" : {"name" : "Q Burger中和仁愛店", "address" : "新北市中和區仁愛街102號", "city" : "新北市", "district" : "中和區", "tel" : "02-29436889", "env_actions" : [], "source_dataset" : "ntpe_e90d14f8", "seq_no" : "63"}}, {"type" : "Feature", "geometry" : {"type" : "Point", "coordinates" : [121.524089026043, 24.991219986692]}, "properties" : {"name" : "Q Burger中和自立店", "address" : "新北市中和區自立路76號一樓", "city" : "新北市", "district" : "中和區", "tel" : "02-29488588", "env_actions" : [], "source_dataset" : "ntpe_e90d14f8", "seq_no" : "66"}}, {"type" : "Feature", "geometry" : {"type" : "Point", "coordinates" : [121.512791980762, 24.995887994299]}, "properties" : {"name" : "Q Burger中和宜安店", "address" : "新北市中和區宜安路25號", "city" : "新北市", "district" : "中和區", "tel" : "02-29470125", "env_actions" : [], "source_dataset" : "ntpe_e90d14f8", "seq_no" : "69"}}, {"type" : "Feature", "geometry" : {"type" : "Point", "coordinates" : [121.502753981158, 24.995434994342]}, "properties" : {"name" : "Q Burger中和南山店", "address" : "新北市中和區南山路161號1樓", "city" : "新北市", "district" : "中和區", "tel" : "02-22439007", "env_actions" : [], "source_dataset" : "ntpe_e90d14f8", "seq_no" : "72"}}, {"type" : "Feature", "geometry" : {"type" : "Point", "coordinates" : [121.504919026748, 24.991283982522]}, "properties" : {"name" : "Q Burger中和南勢角店", "address" : "新北市中和區南山路174-2號", "city" : "新北市", "district" : "中和區", "tel" : "02-29470520", "env_actions" : [], "source_dataset" : "ntpe_e90d14f8", "seq_no" : "73"}}, {"type" : "Feature", "geometry" : {"type" : "Point", "coordinates" : [121.481077960451, 25.002845979763]}, "properties" : {"name" : "Q Burger中和員山店", "address" : "新北市中和區員山路395號", "city" : "新北市", "district" : "中和區", "tel" : "02-82286062", "env_actions" : [], "source_dataset" : "ntpe_e90d14f8", "seq_no" : "75"}}, {"type" : "Feature", "geometry" : {"type" : "Point", "coordinates" : [121.49922696012, 24.996534993405]}, "properties" : {"name" : "Q Burger中和圓通店", "address" : "新北市中和區圓通路112號1樓", "city" : "新北市", "district" : "中和區", "tel" : "02-22427298", "env_actions" : [], "source_dataset" : "ntpe_e90d14f8", "seq_no" : "83"}}, {"type" : "Feature", "geometry" : {"type" : "Point", "coordinates" : [121.506858096228, 24.985072279808]}, "properties" : {"name" : "Q Burger中和興南店", "address" : "新北市中和區興南路二段69號", "city" : "新北市", "district" : "中和區", "tel" : "02-86683877", "env_actions" : [], "source_dataset" : "ntpe_e90d14f8", "seq_no" : "86"}}, {"type" : "Feature", "geometry" : {"type" : "Point", "coordinates" : [121.450899001887, 25.102991994984]}, "properties" : {"name" : "Q Burger五股成洲店", "address" : "新北市五股區成泰路三段577巷43號1樓", "city" : "新北市", "district" : "五股區", "tel" : "02-22918228", "env_actions" : [], "source_dataset" : "ntpe_e90d14f8", "seq_no" : "89"}}, {"type" : "Feature", "geometry" : {"type" : "Point", "coordinates" : [121.449128995393, 25.097712988545]}, "properties" : {"name" : "Q Burger五股西雲店", "address" : "新北市五股區西雲路241號1樓", "city" : "新北市", "district" : "五股區", "tel" : "02-22935777", "env_actions" : [], "source_dataset" : "ntpe_e90d14f8", "seq_no" : "91"}}, {"type" : "Feature", "geometry" : {"type" : "Point", "coordinates" : [121.445715968239, 25.092647008175]}, "properties" : {"name" : "Q Burger五股洲子洋店", "address" : "新北市五股區成泰路三段201號", "city" : "新北市", "district" : "五股區", "tel" : "02-22921599", "env_actions" : [], "source_dataset" : "ntpe_e90d14f8", "seq_no" : "92"}}, {"type" : "Feature", "geometry" : {"type" : "Point", "coordinates" : [121.5084949981, 25.011235007556]}, "properties" : {"name" : "Q Burger永和永平店", "address" : "新北市永和區永平路250號", "city" : "新北市", "district" : "永和區", "tel" : "02-29295009", "env_actions" : [], "source_dataset" : "ntpe_e90d14f8", "seq_no" : "95"}}, {"type" : "Feature", "geometry" : {"type" : "Point", "coordinates" : [121.518488992713, 25.005801019727]}, "properties" : {"name" : "Q Burger永和永利店", "address" : "新北市永和區永利路3號1樓", "city" : "新北市", "district" : "永和區", "tel" : "02-22320310", "env_actions" : [], "source_dataset" : "ntpe_e90d14f8", "seq_no" : "97"}}, {"type" : "Feature", "geometry" : {"type" : "Point", "coordinates" : [121.519720964841, 24.999991983641]}, "properties" : {"name" : "Q Burger永和得和店", "address" : "新北市永和區得和路172號1樓", "city" : "新北市", "district" : "永和區", "tel" : "02-86681921", "env_actions" : [], "source_dataset" : "ntpe_e90d14f8", "seq_no" : "100"}}, {"type" : "Feature", "geometry" : {"type" : "Point", "coordinates" : [121.3819430123, 25.074361006298]}, "properties" : {"name" : "Q Burger林口仁愛店", "address" : "新北市林口區西林里仁愛路二段150號", "city" : "新北市", "district" : "林口區", "tel" : "02-26016558", "env_actions" : [], "source_dataset" : "ntpe_e90d14f8", "seq_no" : "108"}}, {"type" : "Feature", "geometry" : {"type" : "Point", "coordinates" : [121.467594411908, 25.020259090243]}, "properties" : {"name" : "Q Burger板橋介壽店", "address" : "新北市板橋區介壽街17號1樓", "city" : "新北市", "district" : "板橋區", "tel" : "02-22553597", "env_actions" : [], "source_dataset" : "ntpe_e90d14f8", "seq_no" : "112"}}, {"type" : "Feature", "geometry" : {"type" : "Point", "coordinates" : [121.462657973851, 25.029859009678]}, "properties" : {"name" : "Q Burger板橋四維店", "address" : "新北市板橋區四維路308號", "city" : "新北市", "district" : "板橋區", "tel" : "02-22551055", "env_actions" : [], "source_dataset" : "ntpe_e90d14f8", "seq_no" : "114"}}, {"type" : "Feature", "geometry" : {"type" : "Point", "coordinates" : [121.43257398225, 24.990117012053]}, "properties" : {"name" : "Q Burger板橋金園店", "address" : "新北市板橋區金門街171號", "city" : "新北市", "district" : "板橋區", "tel" : "02-26818787", "env_actions" : [], "source_dataset" : "ntpe_e90d14f8", "seq_no" : "118"}}, {"type" : "Feature", "geometry" : {"type" : "Point", "coordinates" : [121.460453030402, 25.024648986303]}, "properties" : {"name" : "Q Burger板橋英士店", "address" : "新北市板橋區英士路70號", "city" : "新北市", "district" : "板橋區", "tel" : "02-22580533", "env_actions" : [], "source_dataset" : "ntpe_e90d14f8", "seq_no" : "120"}}, {"type" : "Feature", "geometry" : {"type" : "Point", "coordinates" : [121.472524982631, 25.011971986392]}, "properties" : {"name" : "Q Burger板橋海山店", "address" : "新北市板橋區漢生東路193巷7號1樓", "city" : "新北市", "district" : "板橋區", "tel" : "02-29546666", "env_actions" : [], "source_dataset" : "ntpe_e90d14f8", "seq_no" : "122"}}, {"type" : "Feature", "geometry" : {"type" : "Point", "coordinates" : [121.46091202342, 25.018622984653]}, "properties" : {"name" : "Q Burger板橋國光店", "address" : "新北市板橋區國光路183號", "city" : "新北市", "district" : "板橋區", "tel" : "02-29684685", "env_actions" : [], "source_dataset" : "ntpe_e90d14f8", "seq_no" : "123"}}, {"type" : "Feature", "geometry" : {"type" : "Point", "coordinates" : [121.456770022147, 25.025013012358]}, "properties" : {"name" : "Q Burger板橋龍泉店", "address" : "新北市板橋區龍泉街83號", "city" : "新北市", "district" : "板橋區", "tel" : "02-22570118", "env_actions" : [], "source_dataset" : "ntpe_e90d14f8", "seq_no" : "129"}}, {"type" : "Feature", "geometry" : {"type" : "Point", "coordinates" : [121.433838979077, 25.056954014607]}, "properties" : {"name" : "Q Burger泰山全興店", "address" : "新北市泰山區全興路105號", "city" : "新北市", "district" : "泰山區", "tel" : "02-22970930", "env_actions" : [], "source_dataset" : "ntpe_e90d14f8", "seq_no" : "131"}}, {"type" : "Feature", "geometry" : {"type" : "Point", "coordinates" : [121.425160021253, 25.063874993969]}, "properties" : {"name" : "Q Burger泰山泰林店", "address" : "新北市泰山區泰林路二段475號1樓", "city" : "新北市", "district" : "泰山區", "tel" : "02-29090097", "env_actions" : [], "source_dataset" : "ntpe_e90d14f8", "seq_no" : "133"}}, {"type" : "Feature", "geometry" : {"type" : "Point", "coordinates" : [121.492479611883, 25.064230302844]}, "properties" : {"name" : "Q Burger國隆總店店", "address" : "新北市三重區國隆路26號", "city" : "新北市", "district" : "三重區", "tel" : "02-89837007", "env_actions" : [], "source_dataset" : "ntpe_e90d14f8", "seq_no" : "136"}}, {"type" : "Feature", "geometry" : {"type" : "Point", "coordinates" : [121.459200187334, 25.066717884069]}, "properties" : {"name" : "Q Burger新北五工店", "address" : "新北市新莊區五工二路95號", "city" : "新北市", "district" : "新莊區", "tel" : "02-22981080", "env_actions" : [], "source_dataset" : "ntpe_e90d14f8", "seq_no" : "141"}}, {"type" : "Feature", "geometry" : {"type" : "Point", "coordinates" : [121.534708981186, 24.972177979058]}, "properties" : {"name" : "Q Burger新店三民店", "address" : "新北市新店區三民路121號1樓", "city" : "新北市", "district" : "新店區", "tel" : "02-89110352", "env_actions" : [], "source_dataset" : "ntpe_e90d14f8", "seq_no" : "142"}}, {"type" : "Feature", "geometry" : {"type" : "Point", "coordinates" : [121.533721006258, 24.986409989645]}, "properties" : {"name" : "Q Burger新店中正店", "address" : "新北市新店區中正路546號1樓", "city" : "新北市", "district" : "新店區", "tel" : "02-86673625", "env_actions" : [], "source_dataset" : "ntpe_e90d14f8", "seq_no" : "144"}}, {"type" : "Feature", "geometry" : {"type" : "Point", "coordinates" : [121.512730960507, 24.96215498306]}, "properties" : {"name" : "Q Burger新店安康店", "address" : "新北市新店區安康路二段107巷1號", "city" : "新北市", "district" : "新店區", "tel" : "02-86663040", "env_actions" : [], "source_dataset" : "ntpe_e90d14f8", "seq_no" : "147"}}, {"type" : "Feature", "geometry" : {"type" : "Point", "coordinates" : [121.445343560281, 25.044785586672]}, "properties" : {"name" : "Q Burger新莊中平店", "address" : "新北市新莊區中平路82巷10號", "city" : "新北市", "district" : "新莊區", "tel" : "02-29979188", "env_actions" : [], "source_dataset" : "ntpe_e90d14f8", "seq_no" : "151"}}, {"type" : "Feature", "geometry" : {"type" : "Point", "coordinates" : [121.454865989021, 25.041545017176]}, "properties" : {"name" : "Q Burger新莊中美店", "address" : "新北市新莊區中港路179號", "city" : "新北市", "district" : "新莊區", "tel" : "02-29961570", "env_actions" : [], "source_dataset" : "ntpe_e90d14f8", "seq_no" : "153"}}, {"type" : "Feature", "geometry" : {"type" : "Point", "coordinates" : [121.452155030077, 25.047616993565]}, "properties" : {"name" : "Q Burger新莊中港店", "address" : "新北市新莊區中港路419號", "city" : "新北市", "district" : "新莊區", "tel" : "02-22791117", "env_actions" : [], "source_dataset" : "ntpe_e90d14f8", "seq_no" : "154"}}, {"type" : "Feature", "geometry" : {"type" : "Point", "coordinates" : [121.465001973074, 25.043925016673]}, "properties" : {"name" : "Q Burger新莊化成店", "address" : "新北市新莊區化成路31號", "city" : "新北市", "district" : "新莊區", "tel" : "02-29906004", "env_actions" : [], "source_dataset" : "ntpe_e90d14f8", "seq_no" : "157"}}, {"type" : "Feature", "geometry" : {"type" : "Point", "coordinates" : [121.428180020968, 25.019677008977]}, "properties" : {"name" : "Q Burger新莊民本店", "address" : "新北市新莊區民本街22號", "city" : "新北市", "district" : "新莊區", "tel" : "02-22081229", "env_actions" : [], "source_dataset" : "ntpe_e90d14f8", "seq_no" : "158"}}, {"type" : "Feature", "geometry" : {"type" : "Point", "coordinates" : [121.42595152437, 25.013455708983]}, "properties" : {"name" : "Q Burger新莊光明店", "address" : "新北市新莊區民安西路256號1樓", "city" : "新北市", "district" : "新莊區", "tel" : "02-22035686", "env_actions" : [], "source_dataset" : "ntpe_e90d14f8", "seq_no" : "161"}}, {"type" : "Feature", "geometry" : {"type" : "Point", "coordinates" : [121.456404990263, 25.045320980738]}, "properties" : {"name" : "Q Burger新莊自立店", "address" : "新北市新莊區自立街190號", "city" : "新北市", "district" : "新莊區", "tel" : "02-29927886", "env_actions" : [], "source_dataset" : "ntpe_e90d14f8", "seq_no" : "163"}}, {"type" : "Feature", "geometry" : {"type" : "Point", "coordinates" : [121.447085990313, 25.036757986544]}, "properties" : {"name" : "Q Burger新莊建中店", "address" : "新北市新莊區建中街86號", "city" : "新北市", "district" : "新莊區", "tel" : "02-29922626", "env_actions" : [], "source_dataset" : "ntpe_e90d14f8", "seq_no" : "165"}}, {"type" : "Feature", "geometry" : {"type" : "Point", "coordinates" : [121.455435287885, 25.038430092409]}, "properties" : {"name" : "Q Burger新莊國小店", "address" : "新北市新莊區中港路50號", "city" : "新北市", "district" : "新莊區", "tel" : "02-22771516", "env_actions" : [], "source_dataset" : "ntpe_e90d14f8", "seq_no" : "167"}}, {"type" : "Feature", "geometry" : {"type" : "Point", "coordinates" : [121.448081173677, 25.034169487205]}, "properties" : {"name" : "Q Burger新莊新豐店", "address" : "新北市新莊區新豐街25號1樓", "city" : "新北市", "district" : "新莊區", "tel" : "02-22010220", "env_actions" : [], "source_dataset" : "ntpe_e90d14f8", "seq_no" : "168"}}, {"type" : "Feature", "geometry" : {"type" : "Point", "coordinates" : [121.417901963656, 25.022432014822]}, "properties" : {"name" : "Q Burger新莊裕民店", "address" : "新北市新莊區裕民街128號", "city" : "新北市", "district" : "新莊區", "tel" : "02-29015532", "env_actions" : [], "source_dataset" : "ntpe_e90d14f8", "seq_no" : "169"}}, {"type" : "Feature", "geometry" : {"type" : "Point", "coordinates" : [121.383869006012, 24.9495610059]}, "properties" : {"name" : "Q Burger樹林大有店", "address" : "新北市樹林區大有路118號", "city" : "新北市", "district" : "樹林區", "tel" : "02-26800083", "env_actions" : [], "source_dataset" : "ntpe_e90d14f8", "seq_no" : "175"}}, {"type" : "Feature", "geometry" : {"type" : "Point", "coordinates" : [121.422201963804, 24.990997991986]}, "properties" : {"name" : "Q Burger樹林日新店", "address" : "新北市樹林區日新街67號", "city" : "新北市", "district" : "樹林區", "tel" : "02-26852697", "env_actions" : [], "source_dataset" : "ntpe_e90d14f8", "seq_no" : "177"}}, {"type" : "Feature", "geometry" : {"type" : "Point", "coordinates" : [121.415484036047, 25.00153299654]}, "properties" : {"name" : "Q Burger樹林保安店", "address" : "新北市樹林區保安街二段115號1樓", "city" : "新北市", "district" : "樹林區", "tel" : "02-26889990", "env_actions" : [], "source_dataset" : "ntpe_e90d14f8", "seq_no" : "179"}}, {"type" : "Feature", "geometry" : {"type" : "Point", "coordinates" : [121.457507964902, 25.086790991522]}, "properties" : {"name" : "Q Burger蘆洲成功店", "address" : "新北市蘆洲區長安街268號", "city" : "新北市", "district" : "蘆洲區", "tel" : "02-22880695", "env_actions" : [], "source_dataset" : "ntpe_e90d14f8", "seq_no" : "187"}}, {"type" : "Feature", "geometry" : {"type" : "Point", "coordinates" : [121.476828000265, 25.083825013174]}, "properties" : {"name" : "Q Burger蘆洲鷺江店", "address" : "新北市蘆洲區鷺江街95號", "city" : "新北市", "district" : "蘆洲區", "tel" : "02-22880500", "env_actions" : [], "source_dataset" : "ntpe_e90d14f8", "seq_no" : "192"}}, {"type" : "Feature", "geometry" : {"type" : "Point", "coordinates" : [121.346584959583, 24.954145990756]}, "properties" : {"name" : "Q Burger鶯歌南雅店", "address" : "新北市鶯歌區南雅路447號1樓", "city" : "新北市", "district" : "鶯歌區", "tel" : "02-86776886", "env_actions" : [], "source_dataset" : "ntpe_e90d14f8", "seq_no" : "193"}}, {"type" : "Feature", "geometry" : {"type" : "Point", "coordinates" : [121.475688899623, 25.006077203437]}, "properties" : {"name" : "TGIFridays環球餐廳 中和環球", "address" : "新北市中和區中山路三段122號4樓", "city" : "新北市", "district" : "中和區", "tel" : "02-22253578", "env_actions" : [], "source_dataset" : "ntpe_e90d14f8", "seq_no" : "195"}}, {"type" : "Feature", "geometry" : {"type" : "Point", "coordinates" : [121.464032019239, 25.013858920435]}, "properties" : {"name" : "YAYOI彌生軒-環球板橋車站店", "address" : "新北市板橋區縣民大道二段7號2樓", "city" : "新北市", "district" : "板橋區", "tel" : "02-89693056", "env_actions" : [], "source_dataset" : "ntpe_e90d14f8", "seq_no" : "197"}}, {"type" : "Feature", "geometry" : {"type" : "Point", "coordinates" : [121.464032019239, 25.013858920435]}, "properties" : {"name" : "一幻拉麵/胡同居酒屋-環球板橋車站店", "address" : "新北市板橋區縣民大道二段7號2F", "city" : "新北市", "district" : "板橋區", "tel" : "02-89693132", "env_actions" : [], "source_dataset" : "ntpe_e90d14f8", "seq_no" : "198"}}, {"type" : "Feature", "geometry" : {"type" : "Point", "coordinates" : [121.475688899623, 25.006077203437]}, "properties" : {"name" : "九如-中和環球", "address" : "新北市中和區中山路三段122號", "city" : "新北市", "district" : "中和區", "tel" : "02-22218223", "env_actions" : [], "source_dataset" : "ntpe_e90d14f8", "seq_no" : "199"}}, {"type" : "Feature", "geometry" : {"type" : "Point", "coordinates" : [121.466619009835, 25.013677997055]}, "properties" : {"name" : "八町目燒肉丼定食-板橋大遠百", "address" : "新北市板橋區新站路28號B1", "city" : "新北市", "district" : "板橋區", "tel" : "0910409716", "env_actions" : [], "source_dataset" : "ntpe_e90d14f8", "seq_no" : "203"}}, {"type" : "Feature", "geometry" : {"type" : "Point", "coordinates" : [121.475688899623, 25.006077203437]}, "properties" : {"name" : "三年五班 中和環球", "address" : "新北市中和區中山路三段122號B2樓", "city" : "新北市", "district" : "中和區", "tel" : "0902356950", "env_actions" : [], "source_dataset" : "ntpe_e90d14f8", "seq_no" : "207"}}, {"type" : "Feature", "geometry" : {"type" : "Point", "coordinates" : [121.689250488621, 25.204931695575]}, "properties" : {"name" : "三葉活海鮮餐廳", "address" : "新北市萬里區港東路74-16號", "city" : "新北市", "district" : "萬里區", "tel" : "02-24923132", "env_actions" : [], "source_dataset" : "ntpe_e90d14f8", "seq_no" : "208"}}, {"type" : "Feature", "geometry" : {"type" : "Point", "coordinates" : [121.510522999573, 25.010200010152]}, "properties" : {"name" : "上環茶餐廳", "address" : "新北市永和區中山路一段126號", "city" : "新北市", "district" : "永和區", "tel" : "02-29202088", "env_actions" : [], "source_dataset" : "ntpe_e90d14f8", "seq_no" : "210"}}, {"type" : "Feature", "geometry" : {"type" : "Point", "coordinates" : [121.466619009835, 25.013677997055]}, "properties" : {"name" : "上癮河粉(板橋大遠百)", "address" : "新北市板橋區新站路28號B1", "city" : "新北市", "district" : "板橋區", "tel" : "02-77553567", "env_actions" : [], "source_dataset" : "ntpe_e90d14f8", "seq_no" : "211"}}, {"type" : "Feature", "geometry" : {"type" : "Point", "coordinates" : [121.475688899623, 25.006077203437]}, "properties" : {"name" : "大心 中和環球店", "address" : "新北市中和區中山路三段122號B2樓", "city" : "新北市", "district" : "中和區", "tel" : "02-22216389", "env_actions" : [], "source_dataset" : "ntpe_e90d14f8", "seq_no" : "214"}}, {"type" : "Feature", "geometry" : {"type" : "Point", "coordinates" : [121.475688899623, 25.006077203437]}, "properties" : {"name" : "大戶屋中和環球店", "address" : "新北市中和區中山路三段122號B2樓", "city" : "新北市", "district" : "中和區", "tel" : "02-22216266", "env_actions" : [], "source_dataset" : "ntpe_e90d14f8", "seq_no" : "215"}}, {"type" : "Feature", "geometry" : {"type" : "Point", "coordinates" : [121.464423035022, 25.011040002578]}, "properties" : {"name" : "大戶屋板橋遠百中山店", "address" : "新北市板橋區中山路一段152號12樓", "city" : "新北市", "district" : "板橋區", "tel" : "02-29561238", "env_actions" : [], "source_dataset" : "ntpe_e90d14f8", "seq_no" : "218"}}, {"type" : "Feature", "geometry" : {"type" : "Point", "coordinates" : [121.486479929409, 25.087995387189]}, "properties" : {"name" : "大戶屋蘆洲家樂福店", "address" : "新北市三重區五華街282號4樓", "city" : "新北市", "district" : "三重區", "tel" : "02-82871080", "env_actions" : [], "source_dataset" : "ntpe_e90d14f8", "seq_no" : "222"}}, {"type" : "Feature", "geometry" : {"type" : "Point", "coordinates" : [121.471701963559, 25.081424017009]}, "properties" : {"name" : "小食聊聊 Brunch ", "address" : "新北市蘆洲區中山二路147號", "city" : "新北市", "district" : "蘆洲區", "tel" : "02-82851231", "env_actions" : [], "source_dataset" : "ntpe_e90d14f8", "seq_no" : "226"}}, {"type" : "Feature", "geometry" : {"type" : "Point", "coordinates" : [121.475688899623, 25.006077203437]}, "properties" : {"name" : "小福利麻辣鍋 中和環球", "address" : "新北市中和區中山路三段122號4樓", "city" : "新北市", "district" : "中和區", "tel" : "02-22263686", "env_actions" : [], "source_dataset" : "ntpe_e90d14f8", "seq_no" : "228"}}, {"type" : "Feature", "geometry" : {"type" : "Point", "coordinates" : [121.501167772343, 24.975365921398]}, "properties" : {"name" : "山間倉房", "address" : "新北市中和區興南路二段399巷124號", "city" : "新北市", "district" : "中和區", "tel" : "02-29406696", "env_actions" : [], "source_dataset" : "ntpe_e90d14f8", "seq_no" : "230"}}, {"type" : "Feature", "geometry" : {"type" : "Point", "coordinates" : [121.466270993215, 25.00817100285]}, "properties" : {"name" : "中華電信學院員工餐廳", "address" : "新北市板橋區民族路168號", "city" : "新北市", "district" : "板橋區", "tel" : "02-29639318", "env_actions" : [], "source_dataset" : "ntpe_e90d14f8", "seq_no" : "232"}}, {"type" : "Feature", "geometry" : {"type" : "Point", "coordinates" : [121.375847859949, 25.082503187043]}, "properties" : {"name" : "中環茶餐廳", "address" : "新北市林口區文化三路二段185號", "city" : "新北市", "district" : "林口區", "tel" : "02-26095308", "env_actions" : [], "source_dataset" : "ntpe_e90d14f8", "seq_no" : "233"}}, {"type" : "Feature", "geometry" : {"type" : "Point", "coordinates" : [121.540954510994, 24.930831825149]}, "properties" : {"name" : "六堆文山新客家料理", "address" : "新北市新店區湖子內路100號", "city" : "新北市", "district" : "新店區", "tel" : "02-26669369", "env_actions" : [], "source_dataset" : "ntpe_e90d14f8", "seq_no" : "234"}}, {"type" : "Feature", "geometry" : {"type" : "Point", "coordinates" : [121.475688899623, 25.006077203437]}, "properties" : {"name" : "日出茶太", "address" : "新北市中和區中山路三段122號3F", "city" : "新北市", "district" : "中和區", "tel" : "02-82213316", "env_actions" : [], "source_dataset" : "ntpe_e90d14f8", "seq_no" : "242"}}, {"type" : "Feature", "geometry" : {"type" : "Point", "coordinates" : [121.475688899623, 25.006077203437]}, "properties" : {"name" : "牛角燒肉專門店-中和環球店", "address" : "新北市中和區中山路三段122號4樓", "city" : "新北市", "district" : "中和區", "tel" : "02-22226599", "env_actions" : [], "source_dataset" : "ntpe_e90d14f8", "seq_no" : "245"}}, {"type" : "Feature", "geometry" : {"type" : "Point", "coordinates" : [121.466619009835, 25.013677997055]}, "properties" : {"name" : "牛魔王牛排館(板橋大遠百)", "address" : "新北市板橋區新站路28號B1", "city" : "新北市", "district" : "板橋區", "tel" : "02-33652366", "env_actions" : [], "source_dataset" : "ntpe_e90d14f8", "seq_no" : "246"}}, {"type" : "Feature", "geometry" : {"type" : "Point", "coordinates" : [121.613551006472, 25.001338787843]}, "properties" : {"name" : "王水成", "address" : "新北市深坑區深坑街118號", "city" : "新北市", "district" : "深坑區", "tel" : "02-26629118", "env_actions" : [], "source_dataset" : "ntpe_e90d14f8", "seq_no" : "247"}}, {"type" : "Feature", "geometry" : {"type" : "Point", "coordinates" : [121.640574765224, 25.220559083494]}, "properties" : {"name" : "兄弟食堂", "address" : "新北市金山區金包里街2號", "city" : "新北市", "district" : "金山區", "tel" : "02-24986458", "env_actions" : [], "source_dataset" : "ntpe_e90d14f8", "seq_no" : "249"}}, {"type" : "Feature", "geometry" : {"type" : "Point", "coordinates" : [121.485974, 25.156223]}, "properties" : {"name" : "北投國華高爾夫俱樂部餐廳", "address" : "新北市淡水區坪頂里小坪頂23-1號", "city" : "新北市", "district" : "淡水區", "tel" : "02-86261281", "env_actions" : [], "source_dataset" : "ntpe_e90d14f8", "seq_no" : "251"}}, {"type" : "Feature", "geometry" : {"type" : "Point", "coordinates" : [121.466619009835, 25.013677997055]}, "properties" : {"name" : "占元府新台式潮鍋", "address" : "新北市板橋區新站路28號B1", "city" : "新北市", "district" : "板橋區", "tel" : "02-26931539", "env_actions" : [], "source_dataset" : "ntpe_e90d14f8", "seq_no" : "252"}}, {"type" : "Feature", "geometry" : {"type" : "Point", "coordinates" : [121.363547165582, 25.071241094298]}, "properties" : {"name" : "古拉爵 義式屋-林口三井店", "address" : "新北市林口區文化三路1段356號2樓", "city" : "新北市", "district" : "林口區", "tel" : "02-26069130", "env_actions" : [], "source_dataset" : "ntpe_e90d14f8", "seq_no" : "254"}}, {"type" : "Feature", "geometry" : {"type" : "Point", "coordinates" : [121.475688899623, 25.006077203437]}, "properties" : {"name" : "台灣壽司郎股份有限公司-新北中和環球店", "address" : "新北市中和區中山路三段122號B2樓", "city" : "新北市", "district" : "中和區", "tel" : "02-22212010", "env_actions" : [], "source_dataset" : "ntpe_e90d14f8", "seq_no" : "260"}}, {"type" : "Feature", "geometry" : {"type" : "Point", "coordinates" : [121.471983008772, 25.004521019293]}, "properties" : {"name" : "巧滋小廚早午餐", "address" : "新北市板橋區莒光路8號1樓", "city" : "新北市", "district" : "板橋區", "tel" : "0965731905", "env_actions" : [], "source_dataset" : "ntpe_e90d14f8", "seq_no" : "262"}}, {"type" : "Feature", "geometry" : {"type" : "Point", "coordinates" : [121.502999738559, 24.996019296812]}, "properties" : {"name" : "布拉德施維根廚房 Brother Su Vegan Kitchen", "address" : "新北市中和區南華路29號", "city" : "新北市", "district" : "中和區", "tel" : "-", "env_actions" : [], "source_dataset" : "ntpe_e90d14f8", "seq_no" : "263"}}, {"type" : "Feature", "geometry" : {"type" : "Point", "coordinates" : [121.443557963447, 25.037368985376]}, "properties" : {"name" : "弘爺漢堡-新莊信義店", "address" : "新北市新莊區公園一路98號", "city" : "新北市", "district" : "新莊區", "tel" : "02-29908418", "env_actions" : [], "source_dataset" : "ntpe_e90d14f8", "seq_no" : "264"}}, {"type" : "Feature", "geometry" : {"type" : "Point", "coordinates" : [121.475688899623, 25.006077203437]}, "properties" : {"name" : "瓦城 中和環球", "address" : "新北市中和區中山路三段122號4樓", "city" : "新北市", "district" : "中和區", "tel" : "02-77317778", "env_actions" : [], "source_dataset" : "ntpe_e90d14f8", "seq_no" : "267"}}, {"type" : "Feature", "geometry" : {"type" : "Point", "coordinates" : [121.372416979341, 24.934470981795]}, "properties" : {"name" : "甘樂食堂", "address" : "新北市三峽區清水街317號", "city" : "新北市", "district" : "三峽區", "tel" : "02-26731857", "env_actions" : [], "source_dataset" : "ntpe_e90d14f8", "seq_no" : "269"}}, {"type" : "Feature", "geometry" : {"type" : "Point", "coordinates" : [121.425867034786, 24.998565006535]}, "properties" : {"name" : "仨食三餐", "address" : "新北市樹林區千歲街61巷36-1號1樓", "city" : "新北市", "district" : "樹林區", "tel" : "02-26823823", "env_actions" : [], "source_dataset" : "ntpe_e90d14f8", "seq_no" : "272"}}, {"type" : "Feature", "geometry" : {"type" : "Point", "coordinates" : [121.516669030076, 25.011849987792]}, "properties" : {"name" : "全 壽司丼飯煮物(永和店)", "address" : "新北市永和區中興街55號", "city" : "新北市", "district" : "永和區", "tel" : "02-89215959", "env_actions" : [], "source_dataset" : "ntpe_e90d14f8", "seq_no" : "275"}}, {"type" : "Feature", "geometry" : {"type" : "Point", "coordinates" : [121.515320968589, 25.000343017746]}, "properties" : {"name" : "再一塊吧ing永和店", "address" : "新北市永和區得和路20號", "city" : "新北市", "district" : "永和區", "tel" : "0936931262", "env_actions" : [], "source_dataset" : "ntpe_e90d14f8", "seq_no" : "276"}}, {"type" : "Feature", "geometry" : {"type" : "Point", "coordinates" : [121.424727012135, 25.010017997124]}, "properties" : {"name" : "吉可堡早餐店", "address" : "新北市樹林區俊英街113-1號", "city" : "新北市", "district" : "樹林區", "tel" : "02-26763998", "env_actions" : [], "source_dataset" : "ntpe_e90d14f8", "seq_no" : "277"}}, {"type" : "Feature", "geometry" : {"type" : "Point", "coordinates" : [121.409770008833, 24.978584016198]}, "properties" : {"name" : "吉得堡東興店", "address" : "新北市樹林區東興街12之1號", "city" : "新北市", "district" : "樹林區", "tel" : "02-86845389", "env_actions" : [], "source_dataset" : "ntpe_e90d14f8", "seq_no" : "279"}}, {"type" : "Feature", "geometry" : {"type" : "Point", "coordinates" : [121.378451195256, 25.075553918758]}, "properties" : {"name" : "好好時光公益咖啡館", "address" : "新北市林口區文化一路一段207之1號", "city" : "新北市", "district" : "林口區", "tel" : "02-26012485", "env_actions" : [], "source_dataset" : "ntpe_e90d14f8", "seq_no" : "284"}}, {"type" : "Feature", "geometry" : {"type" : "Point", "coordinates" : [121.486081034637, 24.996076000387]}, "properties" : {"name" : "好餓早餐", "address" : "新北市中和區連城路403號", "city" : "新北市", "district" : "中和區", "tel" : "02-82217996", "env_actions" : [], "source_dataset" : "ntpe_e90d14f8", "seq_no" : "289"}}, {"type" : "Feature", "geometry" : {"type" : "Point", "coordinates" : [121.494871136497, 25.002072581557]}, "properties" : {"name" : "宇禾田鐵板燒 ", "address" : "新北市中和區中山路二段311號", "city" : "新北市", "district" : "中和區", "tel" : "02-22433339", "env_actions" : [], "source_dataset" : "ntpe_e90d14f8", "seq_no" : "291"}}, {"type" : "Feature", "geometry" : {"type" : "Point", "coordinates" : [121.445241971614, 24.984262001228]}, "properties" : {"name" : "早安公雞農場晨食(土城店)", "address" : "新北市土城區明德路二段106號", "city" : "新北市", "district" : "土城區", "tel" : "02-82616068", "env_actions" : [], "source_dataset" : "ntpe_e90d14f8", "seq_no" : "293"}}, {"type" : "Feature", "geometry" : {"type" : "Point", "coordinates" : [121.480844021533, 25.068278007707]}, "properties" : {"name" : "早饗食", "address" : "新北市三重區中正北路272號", "city" : "新北市", "district" : "三重區", "tel" : "02-29800660", "env_actions" : [], "source_dataset" : "ntpe_e90d14f8", "seq_no" : "296"}}, {"type" : "Feature", "geometry" : {"type" : "Point", "coordinates" : [121.733614980119, 24.965419985804]}, "properties" : {"name" : "有種", "address" : "新北市坪林區漁光里坪雙路2段11號之5", "city" : "新北市", "district" : "坪林區", "tel" : "0954077879", "env_actions" : [], "source_dataset" : "ntpe_e90d14f8", "seq_no" : "298"}}, {"type" : "Feature", "geometry" : {"type" : "Point", "coordinates" : [121.428337936023, 24.995446687096]}, "properties" : {"name" : "朴庶韓國銅盤烤肉 樹林秀泰店", "address" : "新北市樹林區樹新路40-6號七樓", "city" : "新北市", "district" : "樹林區", "tel" : "02-26863377", "env_actions" : [], "source_dataset" : "ntpe_e90d14f8", "seq_no" : "299"}}, {"type" : "Feature", "geometry" : {"type" : "Point", "coordinates" : [121.412939960795, 25.022308004565]}, "properties" : {"name" : "米炭火燒肉小酒館 迴龍店", "address" : "新北市新莊區新北市新莊區中正路891-17號", "city" : "新北市", "district" : "新莊區", "tel" : "02-29088787", "env_actions" : [], "source_dataset" : "ntpe_e90d14f8", "seq_no" : "302"}}, {"type" : "Feature", "geometry" : {"type" : "Point", "coordinates" : [121.466619009835, 25.013677997055]}, "properties" : {"name" : "老乾杯板橋大遠百店", "address" : "新北市板橋區新北市板橋區新站路28號11樓", "city" : "新北市", "district" : "板橋區", "tel" : "02-29526466", "env_actions" : [], "source_dataset" : "ntpe_e90d14f8", "seq_no" : "305"}}, {"type" : "Feature", "geometry" : {"type" : "Point", "coordinates" : [121.433347967189, 25.020246014474]}, "properties" : {"name" : "妞蛋吐司早午餐", "address" : "新北市新莊區民安東路176號1樓", "city" : "新北市", "district" : "新莊區", "tel" : "02-22027707", "env_actions" : [], "source_dataset" : "ntpe_e90d14f8", "seq_no" : "308"}}, {"type" : "Feature", "geometry" : {"type" : "Point", "coordinates" : [121.379380999775, 24.94748598195]}, "properties" : {"name" : "私嚐吃飯-北大店", "address" : "新北市樹林區學勤路322號1樓", "city" : "新北市", "district" : "樹林區", "tel" : "02-26689700", "env_actions" : [], "source_dataset" : "ntpe_e90d14f8", "seq_no" : "311"}}, {"type" : "Feature", "geometry" : {"type" : "Point", "coordinates" : [121.507709362315, 24.986513003235]}, "properties" : {"name" : "豆司苑咖啡", "address" : "新北市中和區南山路320巷3號", "city" : "新北市", "district" : "中和區", "tel" : "02-29497910", "env_actions" : [], "source_dataset" : "ntpe_e90d14f8", "seq_no" : "312"}}, {"type" : "Feature", "geometry" : {"type" : "Point", "coordinates" : [121.503547915026, 25.004118520303]}, "properties" : {"name" : "邑朵早午餐", "address" : "新北市板橋區中山路二段89巷12號", "city" : "新北市", "district" : "板橋區", "tel" : "02-29578182", "env_actions" : [], "source_dataset" : "ntpe_e90d14f8", "seq_no" : "314"}}, {"type" : "Feature", "geometry" : {"type" : "Point", "coordinates" : [121.466619009835, 25.013677997055]}, "properties" : {"name" : "亞瑟蘭印度料理", "address" : "新北市板橋區新站路28號B1", "city" : "新北市", "district" : "板橋區", "tel" : "02-28343303", "env_actions" : [], "source_dataset" : "ntpe_e90d14f8", "seq_no" : "316"}}, {"type" : "Feature", "geometry" : {"type" : "Point", "coordinates" : [121.46200395093, 25.137990194712]}, "properties" : {"name" : "享健康食坊", "address" : "新北市淡水區民生路45號", "city" : "新北市", "district" : "淡水區", "tel" : "02-28094661#3014", "env_actions" : [], "source_dataset" : "ntpe_e90d14f8", "seq_no" : "317"}}, {"type" : "Feature", "geometry" : {"type" : "Point", "coordinates" : [121.464032019239, 25.013858920435]}, "properties" : {"name" : "京都勝牛-環球板橋車站店", "address" : "新北市板橋區縣民大道二段7號2樓", "city" : "新北市", "district" : "板橋區", "tel" : "02-29665589", "env_actions" : [], "source_dataset" : "ntpe_e90d14f8", "seq_no" : "318"}}, {"type" : "Feature", "geometry" : {"type" : "Point", "coordinates" : [121.4641372879, 25.013924834458]}, "properties" : {"name" : "咖哩樹-板橋環球店", "address" : "新北市板橋區縣民大道二段七號B1", "city" : "新北市", "district" : "板橋區", "tel" : "02-29602727", "env_actions" : [], "source_dataset" : "ntpe_e90d14f8", "seq_no" : "319"}}, {"type" : "Feature", "geometry" : {"type" : "Point", "coordinates" : [121.466619009835, 25.013677997055]}, "properties" : {"name" : "周廚牛肉麵(板橋大遠百)", "address" : "新北市板橋區新站路28號B1", "city" : "新北市", "district" : "板橋區", "tel" : "02-23611999#894", "env_actions" : [], "source_dataset" : "ntpe_e90d14f8", "seq_no" : "322"}}, {"type" : "Feature", "geometry" : {"type" : "Point", "coordinates" : [121.491943002442, 25.073550979175]}, "properties" : {"name" : "帕彼手作早餐坊", "address" : "新北市三重區三和路三段188號", "city" : "新北市", "district" : "三重區", "tel" : "02-29881313", "env_actions" : [], "source_dataset" : "ntpe_e90d14f8", "seq_no" : "324"}}, {"type" : "Feature", "geometry" : {"type" : "Point", "coordinates" : [121.47999501856, 25.085290002211]}, "properties" : {"name" : "幸福時光-蘆洲店", "address" : "新北市蘆洲區信義路222巷20號", "city" : "新北市", "district" : "蘆洲區", "tel" : "0952176277", "env_actions" : [], "source_dataset" : "ntpe_e90d14f8", "seq_no" : "325"}}, {"type" : "Feature", "geometry" : {"type" : "Point", "coordinates" : [121.422251500852, 25.040594006442]}, "properties" : {"name" : "明志科大第二餐廳", "address" : "新北市泰山區工專路84號", "city" : "新北市", "district" : "泰山區", "tel" : "02-26890808", "env_actions" : [], "source_dataset" : "ntpe_e90d14f8", "seq_no" : "328"}}, {"type" : "Feature", "geometry" : {"type" : "Point", "coordinates" : [121.422251500852, 25.040594006442]}, "properties" : {"name" : "明志科技大學學生餐廳", "address" : "新北市泰山區工專路84號", "city" : "新北市", "district" : "泰山區", "tel" : "02-29083309", "env_actions" : [], "source_dataset" : "ntpe_e90d14f8", "seq_no" : "329"}}, {"type" : "Feature", "geometry" : {"type" : "Point", "coordinates" : [121.454342958263, 25.06522100189]}, "properties" : {"name" : "明緯員工餐廳", "address" : "新北市五股區五權三路28號", "city" : "新北市", "district" : "五股區", "tel" : "02-22996100#118", "env_actions" : [], "source_dataset" : "ntpe_e90d14f8", "seq_no" : "330"}}, {"type" : "Feature", "geometry" : {"type" : "Point", "coordinates" : [121.464423035022, 25.011040002578]}, "properties" : {"name" : "果然匯-板橋遠百店", "address" : "新北市板橋區中山路一段152號11樓 (遠百中山店)", "city" : "新北市", "district" : "板橋區", "tel" : "02-29562888", "env_actions" : [], "source_dataset" : "ntpe_e90d14f8", "seq_no" : "332"}}, {"type" : "Feature", "geometry" : {"type" : "Point", "coordinates" : [121.389767770371, 25.074636812822]}, "properties" : {"name" : "林口康橋學生餐廳", "address" : "新北市林口區興林路55號", "city" : "新北市", "district" : "林口區", "tel" : "02-26015442", "env_actions" : [], "source_dataset" : "ntpe_e90d14f8", "seq_no" : "333"}}, {"type" : "Feature", "geometry" : {"type" : "Point", "coordinates" : [121.475688899623, 25.006077203437]}, "properties" : {"name" : "欣葉小聚中和環球店", "address" : "新北市中和區中山路三段122號4樓", "city" : "新北市", "district" : "中和區", "tel" : "02-32345858", "env_actions" : [], "source_dataset" : "ntpe_e90d14f8", "seq_no" : "339"}}, {"type" : "Feature", "geometry" : {"type" : "Point", "coordinates" : [121.475688899623, 25.006077203437]}, "properties" : {"name" : "欣葉小聚餐廳 中和環球", "address" : "新北市中和區中山路三段122號4樓", "city" : "新北市", "district" : "中和區", "tel" : "02-32345858", "env_actions" : [], "source_dataset" : "ntpe_e90d14f8", "seq_no" : "340"}}, {"type" : "Feature", "geometry" : {"type" : "Point", "coordinates" : [121.864062036324, 25.034749011991]}, "properties" : {"name" : "注腳雙溪", "address" : "新北市雙溪區泰昌街27號", "city" : "新北市", "district" : "雙溪區", "tel" : "02-24931158", "env_actions" : [], "source_dataset" : "ntpe_e90d14f8", "seq_no" : "341"}}, {"type" : "Feature", "geometry" : {"type" : "Point", "coordinates" : [121.488196962275, 25.077270993533]}, "properties" : {"name" : "法華素食餐廳", "address" : "新北市三重區仁美街24號", "city" : "新北市", "district" : "三重區", "tel" : "02-22860768", "env_actions" : [], "source_dataset" : "ntpe_e90d14f8", "seq_no" : "343"}}, {"type" : "Feature", "geometry" : {"type" : "Point", "coordinates" : [121.475550262945, 25.006852319933]}, "properties" : {"name" : "肥熊早早午餐(中和店)", "address" : "新北市中和區中山路三段118之3號", "city" : "新北市", "district" : "中和區", "tel" : "02 -22289997", "env_actions" : [], "source_dataset" : "ntpe_e90d14f8", "seq_no" : "345"}}, {"type" : "Feature", "geometry" : {"type" : "Point", "coordinates" : [121.475688899623, 25.006077203437]}, "properties" : {"name" : "金春喜韓廚 中和環球", "address" : "新北市中和區中山路三段122號4樓", "city" : "新北市", "district" : "中和區", "tel" : "02-22265568", "env_actions" : [], "source_dataset" : "ntpe_e90d14f8", "seq_no" : "351"}}, {"type" : "Feature", "geometry" : {"type" : "Point", "coordinates" : [121.428337936023, 24.995446687096]}, "properties" : {"name" : "芡芳石頭火鍋 樹林秀泰店", "address" : "新北市樹林區樹新路40-6號7樓", "city" : "新北市", "district" : "樹林區", "tel" : "02-26862999", "env_actions" : [], "source_dataset" : "ntpe_e90d14f8", "seq_no" : "358"}}, {"type" : "Feature", "geometry" : {"type" : "Point", "coordinates" : [121.546363430818, 24.97774930437]}, "properties" : {"name" : "星馬快餐 新北新店裕隆城百貨門市", "address" : "新北市新店區中興路三段70號6F20櫃", "city" : "新北市", "district" : "新店區", "tel" : "0926656376", "env_actions" : [], "source_dataset" : "ntpe_e90d14f8", "seq_no" : "367"}}, {"type" : "Feature", "geometry" : {"type" : "Point", "coordinates" : [121.444939971643, 25.04691798475]}, "properties" : {"name" : "星馬快餐 新北新莊門市", "address" : "新北市新莊區中平路138號1F", "city" : "新北市", "district" : "新莊區", "tel" : "0926656376", "env_actions" : [], "source_dataset" : "ntpe_e90d14f8", "seq_no" : "368"}}, {"type" : "Feature", "geometry" : {"type" : "Point", "coordinates" : [121.688698959392, 25.204683088327]}, "properties" : {"name" : "柏榕美食活海鮮", "address" : "新北市萬里區港東路151之2號", "city" : "新北市", "district" : "萬里區", "tel" : "02-24924798", "env_actions" : [], "source_dataset" : "ntpe_e90d14f8", "seq_no" : "370"}}, {"type" : "Feature", "geometry" : {"type" : "Point", "coordinates" : [121.425161027082, 25.025568020076]}, "properties" : {"name" : "美香早餐店", "address" : "新北市新莊區後港一路28巷4弄8號", "city" : "新北市", "district" : "新莊區", "tel" : "02-22019802", "env_actions" : [], "source_dataset" : "ntpe_e90d14f8", "seq_no" : "373"}}, {"type" : "Feature", "geometry" : {"type" : "Point", "coordinates" : [121.541529000523, 24.984539987047]}, "properties" : {"name" : "原粹蔬食作", "address" : "新北市新店區北新路三段206巷1弄7號一樓", "city" : "新北市", "district" : "新店區", "tel" : "02-89147185", "env_actions" : [], "source_dataset" : "ntpe_e90d14f8", "seq_no" : "378"}}, {"type" : "Feature", "geometry" : {"type" : "Point", "coordinates" : [121.516939178816, 25.003971501721]}, "properties" : {"name" : "哩賀涼麵", "address" : "新北市永和區秀朗路一段169號", "city" : "新北市", "district" : "永和區", "tel" : "0985177944", "env_actions" : [], "source_dataset" : "ntpe_e90d14f8", "seq_no" : "380"}}, {"type" : "Feature", "geometry" : {"type" : "Point", "coordinates" : [121.475688899623, 25.006077203437]}, "properties" : {"name" : "時時香 中和環球", "address" : "新北市中和區中山路三段122號4樓", "city" : "新北市", "district" : "中和區", "tel" : "02-82267386", "env_actions" : [], "source_dataset" : "ntpe_e90d14f8", "seq_no" : "385"}}, {"type" : "Feature", "geometry" : {"type" : "Point", "coordinates" : [121.402206933779, 25.129382207584]}, "properties" : {"name" : "桃樂絲森林餐廳", "address" : "新北市八里區荖阡村荖阡坑路34之5號", "city" : "新北市", "district" : "八里區", "tel" : "02-86303356", "env_actions" : [], "source_dataset" : "ntpe_e90d14f8", "seq_no" : "386"}}, {"type" : "Feature", "geometry" : {"type" : "Point", "coordinates" : [121.516686967349, 24.996578998396]}, "properties" : {"name" : "泰雅田泰式小館(永和店)", "address" : "新北市永和區民有街21巷2號1樓", "city" : "新北市", "district" : "永和區", "tel" : "02-86689228", "env_actions" : [], "source_dataset" : "ntpe_e90d14f8", "seq_no" : "387"}}, {"type" : "Feature", "geometry" : {"type" : "Point", "coordinates" : [121.418077983622, 25.181553980886]}, "properties" : {"name" : "海角阿鄉海產店", "address" : "新北市淡水區觀海路26號", "city" : "新北市", "district" : "淡水區", "tel" : "02-28053411", "env_actions" : [], "source_dataset" : "ntpe_e90d14f8", "seq_no" : "388"}}, {"type" : "Feature", "geometry" : {"type" : "Point", "coordinates" : [121.449451028113, 25.059944007108]}, "properties" : {"name" : "海底撈", "address" : "新北市新莊區新北市新北市新莊區新北大道四段3號9樓", "city" : "新北市", "district" : "新莊區", "tel" : "02-85219292", "env_actions" : [], "source_dataset" : "ntpe_e90d14f8", "seq_no" : "389"}}, {"type" : "Feature", "geometry" : {"type" : "Point", "coordinates" : [121.466619009835, 25.013677997055]}, "properties" : {"name" : "海底撈火鍋板橋店", "address" : "新北市板橋區新站路28號5樓", "city" : "新北市", "district" : "板橋區", "tel" : "02-29641328", "env_actions" : [], "source_dataset" : "ntpe_e90d14f8", "seq_no" : "390"}}, {"type" : "Feature", "geometry" : {"type" : "Point", "coordinates" : [121.448314022947, 24.991210096046]}, "properties" : {"name" : "海霸王餐廳股份有限公司海山分公司", "address" : "新北市土城區中央路一段22號", "city" : "新北市", "district" : "土城區", "tel" : "02-22664835", "env_actions" : [], "source_dataset" : "ntpe_e90d14f8", "seq_no" : "393"}}, {"type" : "Feature", "geometry" : {"type" : "Point", "coordinates" : [121.466619009835, 25.013677997055]}, "properties" : {"name" : "真不同酸菜魚(板橋大遠百)", "address" : "新北市板橋區新站路28號B1", "city" : "新北市", "district" : "板橋區", "tel" : "02-25115233", "env_actions" : [], "source_dataset" : "ntpe_e90d14f8", "seq_no" : "395"}}, {"type" : "Feature", "geometry" : {"type" : "Point", "coordinates" : [121.499621, 24.778502]}, "properties" : {"name" : "馬岸泰雅美食", "address" : "新北市烏來區福山村大羅蘭25號", "city" : "新北市", "district" : "烏來區", "tel" : "02-26616105", "env_actions" : [], "source_dataset" : "ntpe_e90d14f8", "seq_no" : "399"}}, {"type" : "Feature", "geometry" : {"type" : "Point", "coordinates" : [121.473582024441, 25.018823982691]}, "properties" : {"name" : "鬼匠拉麵2（板橋永豐店）", "address" : "新北市板橋區永豐街77號", "city" : "新北市", "district" : "板橋區", "tel" : "02-29551196", "env_actions" : [], "source_dataset" : "ntpe_e90d14f8", "seq_no" : "402"}}, {"type" : "Feature", "geometry" : {"type" : "Point", "coordinates" : [121.363547165582, 25.071241094298]}, "properties" : {"name" : "乾杯燒肉居酒屋 林口店", "address" : "新北市林口區新北市林口區文化三路一段356號2樓", "city" : "新北市", "district" : "林口區", "tel" : "02-26068522", "env_actions" : [], "source_dataset" : "ntpe_e90d14f8", "seq_no" : "404"}}, {"type" : "Feature", "geometry" : {"type" : "Point", "coordinates" : [121.449451028113, 25.059944007108]}, "properties" : {"name" : "乾杯燒肉居酒屋 新莊宏匯店", "address" : "新北市新莊區新北市新莊區新北大道四段3號7樓", "city" : "新北市", "district" : "新莊區", "tel" : "02-85216277", "env_actions" : [], "source_dataset" : "ntpe_e90d14f8", "seq_no" : "405"}}, {"type" : "Feature", "geometry" : {"type" : "Point", "coordinates" : [121.493872013639, 25.081249002871]}, "properties" : {"name" : "悠樂間 Shalom Cafe", "address" : "新北市三重區自強路五段39號", "city" : "新北市", "district" : "三重區", "tel" : "0925595853", "env_actions" : [], "source_dataset" : "ntpe_e90d14f8", "seq_no" : "407"}}, {"type" : "Feature", "geometry" : {"type" : "Point", "coordinates" : [121.458466016435, 24.999282916542]}, "properties" : {"name" : "教堂小廚", "address" : "新北市板橋區仁愛路12號", "city" : "新北市", "district" : "板橋區", "tel" : "0900111444", "env_actions" : [], "source_dataset" : "ntpe_e90d14f8", "seq_no" : "408"}}, {"type" : "Feature", "geometry" : {"type" : "Point", "coordinates" : [121.441927012728, 25.001180998516]}, "properties" : {"name" : "速芝堡早餐店", "address" : "新北市板橋區大觀路2段174巷102弄32號", "city" : "新北市", "district" : "板橋區", "tel" : "02-29601462", "env_actions" : [], "source_dataset" : "ntpe_e90d14f8", "seq_no" : "418"}}, {"type" : "Feature", "geometry" : {"type" : "Point", "coordinates" : [121.688346416544, 25.204900892081]}, "properties" : {"name" : "魚村活海鮮", "address" : "新北市萬里區港東路74之6號", "city" : "新北市", "district" : "萬里區", "tel" : "02-24921046", "env_actions" : [], "source_dataset" : "ntpe_e90d14f8", "seq_no" : "421"}}, {"type" : "Feature", "geometry" : {"type" : "Point", "coordinates" : [121.949152016057, 25.018061983873]}, "properties" : {"name" : "魚佳餚餐廳", "address" : "新北市貢寮區東興街36號", "city" : "新北市", "district" : "貢寮區", "tel" : "02-24992265", "env_actions" : [], "source_dataset" : "ntpe_e90d14f8", "seq_no" : "422"}}, {"type" : "Feature", "geometry" : {"type" : "Point", "coordinates" : [121.475208029838, 25.084144992327]}, "properties" : {"name" : "魚缸珈琲館", "address" : "新北市蘆洲區三民路78號", "city" : "新北市", "district" : "蘆洲區", "tel" : "02-82828350", "env_actions" : [], "source_dataset" : "ntpe_e90d14f8", "seq_no" : "423"}}, {"type" : "Feature", "geometry" : {"type" : "Point", "coordinates" : [121.466683969585, 25.012256007182]}, "properties" : {"name" : "鹿兒島燒肉專賣店-板橋新板店", "address" : "新北市板橋區中山路一段164-1號", "city" : "新北市", "district" : "板橋區", "tel" : "02-29625099", "env_actions" : [], "source_dataset" : "ntpe_e90d14f8", "seq_no" : "424"}}, {"type" : "Feature", "geometry" : {"type" : "Point", "coordinates" : [121.452918034723, 25.047234988328]}, "properties" : {"name" : "鹿兒島燒肉專賣店-新莊中華店", "address" : "新北市新莊區中華路二段65號1樓", "city" : "新北市", "district" : "新莊區", "tel" : "02-29909950", "env_actions" : [], "source_dataset" : "ntpe_e90d14f8", "seq_no" : "425"}}, {"type" : "Feature", "geometry" : {"type" : "Point", "coordinates" : [121.39740577964, 25.146532293943]}, "properties" : {"name" : "麥味登八里小麥", "address" : "新北市八里區中山路二段542號", "city" : "新北市", "district" : "八里區", "tel" : "02-26195768", "env_actions" : [], "source_dataset" : "ntpe_e90d14f8", "seq_no" : "426"}}, {"type" : "Feature", "geometry" : {"type" : "Point", "coordinates" : [121.49983297172, 25.257680018087]}, "properties" : {"name" : "麥味登三芝公正", "address" : "新北市三芝區公正街9號", "city" : "新北市", "district" : "三芝區", "tel" : "02-26369969", "env_actions" : [], "source_dataset" : "ntpe_e90d14f8", "seq_no" : "428"}}, {"type" : "Feature", "geometry" : {"type" : "Point", "coordinates" : [121.478919536564, 25.075216714793]}, "properties" : {"name" : "麥味登三重木澄找餐", "address" : "新北市三重區永福街179號", "city" : "新北市", "district" : "三重區", "tel" : "02-22870179", "env_actions" : [], "source_dataset" : "ntpe_e90d14f8", "seq_no" : "433"}}, {"type" : "Feature", "geometry" : {"type" : "Point", "coordinates" : [121.498301933286, 25.059891620213]}, "properties" : {"name" : "麥味登三重正義", "address" : "新北市三重區正義南路79號", "city" : "新北市", "district" : "三重區", "tel" : "02-89762827", "env_actions" : [], "source_dataset" : "ntpe_e90d14f8", "seq_no" : "434"}}, {"type" : "Feature", "geometry" : {"type" : "Point", "coordinates" : [121.484468188828, 25.074118014925]}, "properties" : {"name" : "麥味登三重車路頭", "address" : "新北市三重區車路頭街87號", "city" : "新北市", "district" : "三重區", "tel" : "02-22860136", "env_actions" : [], "source_dataset" : "ntpe_e90d14f8", "seq_no" : "435"}}, {"type" : "Feature", "geometry" : {"type" : "Point", "coordinates" : [121.478267005402, 25.068941980167]}, "properties" : {"name" : "麥味登三重佳德", "address" : "新北市三重區三民街305號", "city" : "新北市", "district" : "三重區", "tel" : "02-89825825", "env_actions" : [], "source_dataset" : "ntpe_e90d14f8", "seq_no" : "436"}}, {"type" : "Feature", "geometry" : {"type" : "Point", "coordinates" : [121.48141130874, 25.067253906777]}, "properties" : {"name" : "麥味登三重忠孝", "address" : "新北市三重區忠孝路三段25號", "city" : "新北市", "district" : "三重區", "tel" : "02-89850138", "env_actions" : [], "source_dataset" : "ntpe_e90d14f8", "seq_no" : "437"}}, {"type" : "Feature", "geometry" : {"type" : "Point", "coordinates" : [121.493907972003, 25.057042988509]}, "properties" : {"name" : "麥味登三重忠孝橋", "address" : "新北市三重區中正南路131號", "city" : "新北市", "district" : "三重區", "tel" : "02-29749888", "env_actions" : [], "source_dataset" : "ntpe_e90d14f8", "seq_no" : "438"}}, {"type" : "Feature", "geometry" : {"type" : "Point", "coordinates" : [121.481984966193, 25.071576999068]}, "properties" : {"name" : "麥味登三重善解", "address" : "新北市三重區力行路一段176號", "city" : "新北市", "district" : "三重區", "tel" : "02-29850176", "env_actions" : [], "source_dataset" : "ntpe_e90d14f8", "seq_no" : "443"}}, {"type" : "Feature", "geometry" : {"type" : "Point", "coordinates" : [121.371045029429, 24.927208020784]}, "properties" : {"name" : "麥味登三峽大同", "address" : "新北市三峽區大同路196-2號", "city" : "新北市", "district" : "三峽區", "tel" : "02-86741909", "env_actions" : [], "source_dataset" : "ntpe_e90d14f8", "seq_no" : "446"}}, {"type" : "Feature", "geometry" : {"type" : "Point", "coordinates" : [121.375877028972, 24.945441007123]}, "properties" : {"name" : "麥味登三峽北大", "address" : "新北市三峽區大德路190號", "city" : "新北市", "district" : "三峽區", "tel" : "02-26724567", "env_actions" : [], "source_dataset" : "ntpe_e90d14f8", "seq_no" : "447"}}, {"type" : "Feature", "geometry" : {"type" : "Point", "coordinates" : [121.362699000799, 24.937378999282]}, "properties" : {"name" : "麥味登三峽恩主公", "address" : "新北市三峽區中山路234號", "city" : "新北市", "district" : "三峽區", "tel" : "02-86723234", "env_actions" : [], "source_dataset" : "ntpe_e90d14f8", "seq_no" : "448"}}, {"type" : "Feature", "geometry" : {"type" : "Point", "coordinates" : [121.44677803919, 24.983430013519]}, "properties" : {"name" : "麥味登土城海山", "address" : "新北市土城區明德路二段199號", "city" : "新北市", "district" : "土城區", "tel" : "02-82621058", "env_actions" : [], "source_dataset" : "ntpe_e90d14f8", "seq_no" : "454"}}, {"type" : "Feature", "geometry" : {"type" : "Point", "coordinates" : [121.462868674945, 24.978468332691]}, "properties" : {"name" : "麥味登土城清高", "address" : "新北市土城區明德路一段73號", "city" : "新北市", "district" : "土城區", "tel" : "02-22602220", "env_actions" : [], "source_dataset" : "ntpe_e90d14f8", "seq_no" : "455"}}, {"type" : "Feature", "geometry" : {"type" : "Point", "coordinates" : [121.453243168748, 24.986490204458]}, "properties" : {"name" : "麥味登土城學成", "address" : "新北市土城區學成路9號", "city" : "新北市", "district" : "土城區", "tel" : "02-82732522", "env_actions" : [], "source_dataset" : "ntpe_e90d14f8", "seq_no" : "457"}}, {"type" : "Feature", "geometry" : {"type" : "Point", "coordinates" : [121.524706017936, 24.99247798463]}, "properties" : {"name" : "麥味登中和秀朗", "address" : "新北市中和區秀朗路３段128巷2號", "city" : "新北市", "district" : "中和區", "tel" : "02-29435788", "env_actions" : [], "source_dataset" : "ntpe_e90d14f8", "seq_no" : "460"}}, {"type" : "Feature", "geometry" : {"type" : "Point", "coordinates" : [121.50915197167, 24.990468507163]}, "properties" : {"name" : "麥味登中和和平", "address" : "新北市中和區和平街15-1號", "city" : "新北市", "district" : "中和區", "tel" : "02-86680428", "env_actions" : [], "source_dataset" : "ntpe_e90d14f8", "seq_no" : "461"}}, {"type" : "Feature", "geometry" : {"type" : "Point", "coordinates" : [121.506580990509, 24.984825013664]}, "properties" : {"name" : "麥味登中和英雄", "address" : "新北市中和區興南路二段79號", "city" : "新北市", "district" : "中和區", "tel" : "02-89434686", "env_actions" : [], "source_dataset" : "ntpe_e90d14f8", "seq_no" : "463"}}, {"type" : "Feature", "geometry" : {"type" : "Point", "coordinates" : [121.508199116917, 24.99923979165]}, "properties" : {"name" : "麥味登中和景安", "address" : "新北市中和區景安路13號", "city" : "新北市", "district" : "中和區", "tel" : "02-89432800", "env_actions" : [], "source_dataset" : "ntpe_e90d14f8", "seq_no" : "465"}}, {"type" : "Feature", "geometry" : {"type" : "Point", "coordinates" : [121.501938002883, 25.00688199187]}, "properties" : {"name" : "麥味登中和陽光", "address" : "新北市中和區中山路二段2巷45弄12號", "city" : "新北市", "district" : "中和區", "tel" : "02-82453053", "env_actions" : [], "source_dataset" : "ntpe_e90d14f8", "seq_no" : "468"}}, {"type" : "Feature", "geometry" : {"type" : "Point", "coordinates" : [121.471250011339, 25.004621979317]}, "properties" : {"name" : "麥味登中和德光", "address" : "新北市中和區德光路14號", "city" : "新北市", "district" : "中和區", "tel" : "02-29620233", "env_actions" : [], "source_dataset" : "ntpe_e90d14f8", "seq_no" : "473"}}, {"type" : "Feature", "geometry" : {"type" : "Point", "coordinates" : [121.433093492609, 25.073309999459]}, "properties" : {"name" : "麥味登五股自強", "address" : "新北市五股區自強路72號", "city" : "新北市", "district" : "五股區", "tel" : "02-22935789", "env_actions" : [], "source_dataset" : "ntpe_e90d14f8", "seq_no" : "476"}}, {"type" : "Feature", "geometry" : {"type" : "Point", "coordinates" : [121.432266031128, 25.090484016151]}, "properties" : {"name" : "麥味登五股福臨", "address" : "新北市五股區五福路93號", "city" : "新北市", "district" : "五股區", "tel" : "02-22916863", "env_actions" : [], "source_dataset" : "ntpe_e90d14f8", "seq_no" : "478"}}, {"type" : "Feature", "geometry" : {"type" : "Point", "coordinates" : [121.506659026028, 25.013168000157]}, "properties" : {"name" : "麥味登永和仁愛公園", "address" : "新北市永和區永平路320號", "city" : "新北市", "district" : "永和區", "tel" : "02-89213076", "env_actions" : [], "source_dataset" : "ntpe_e90d14f8", "seq_no" : "483"}}, {"type" : "Feature", "geometry" : {"type" : "Point", "coordinates" : [121.508750981423, 25.00519999536]}, "properties" : {"name" : "麥味登永和保平", "address" : "新北市永和區保平路266號", "city" : "新北市", "district" : "永和區", "tel" : "02-29225899", "env_actions" : [], "source_dataset" : "ntpe_e90d14f8", "seq_no" : "484"}}, {"type" : "Feature", "geometry" : {"type" : "Point", "coordinates" : [121.517816009707, 25.004468003756]}, "properties" : {"name" : "麥味登永和選手", "address" : "新北市永和區永貞路152號", "city" : "新北市", "district" : "永和區", "tel" : "02-29229929", "env_actions" : [], "source_dataset" : "ntpe_e90d14f8", "seq_no" : "487"}}, {"type" : "Feature", "geometry" : {"type" : "Point", "coordinates" : [121.659409991307, 25.063869000908]}, "properties" : {"name" : "麥味登汐止仁愛", "address" : "新北市汐止區仁愛路23號", "city" : "新北市", "district" : "汐止區", "tel" : "02-26492558", "env_actions" : [], "source_dataset" : "ntpe_e90d14f8", "seq_no" : "489"}}, {"type" : "Feature", "geometry" : {"type" : "Point", "coordinates" : [121.664283984184, 25.065114006896]}, "properties" : {"name" : "麥味登汐止皇家", "address" : "新北市汐止區仁愛路166號", "city" : "新北市", "district" : "汐止區", "tel" : "02-26433078", "env_actions" : [], "source_dataset" : "ntpe_e90d14f8", "seq_no" : "494"}}, {"type" : "Feature", "geometry" : {"type" : "Point", "coordinates" : [121.635442022996, 25.065333989945]}, "properties" : {"name" : "麥味登汐止福氣", "address" : "新北市汐止區福德一路201巷6號", "city" : "新北市", "district" : "汐止區", "tel" : "02-26925177", "env_actions" : [], "source_dataset" : "ntpe_e90d14f8", "seq_no" : "496"}}, {"type" : "Feature", "geometry" : {"type" : "Point", "coordinates" : [121.378781023146, 25.083813990971]}, "properties" : {"name" : "麥味登林口中山", "address" : "新北市林口區中山路526號-1", "city" : "新北市", "district" : "林口區", "tel" : "02-26020858", "env_actions" : [], "source_dataset" : "ntpe_e90d14f8", "seq_no" : "499"}}, {"type" : "Feature", "geometry" : {"type" : "Point", "coordinates" : [121.387813026732, 25.076980015764]}, "properties" : {"name" : "麥味登林口仁愛", "address" : "新北市林口區仁愛路一段384號", "city" : "新北市", "district" : "林口區", "tel" : "02-26011390", "env_actions" : [], "source_dataset" : "ntpe_e90d14f8", "seq_no" : "500"}}, {"type" : "Feature", "geometry" : {"type" : "Point", "coordinates" : [121.364366999531, 25.07396001605]}, "properties" : {"name" : "麥味登林口民族", "address" : "新北市林口區民族路22號", "city" : "新北市", "district" : "林口區", "tel" : "0986811956", "env_actions" : [], "source_dataset" : "ntpe_e90d14f8", "seq_no" : "504"}}, {"type" : "Feature", "geometry" : {"type" : "Point", "coordinates" : [121.379803363876, 25.080033291634]}, "properties" : {"name" : "麥味登林口民視", "address" : "新北市林口區信義路154號", "city" : "新北市", "district" : "林口區", "tel" : "02-26019062", "env_actions" : [], "source_dataset" : "ntpe_e90d14f8", "seq_no" : "505"}}, {"type" : "Feature", "geometry" : {"type" : "Point", "coordinates" : [121.362203965598, 25.07097601661]}, "properties" : {"name" : "麥味登林口貳貳五", "address" : "新北市林口區文化三路一段225巷13號", "city" : "新北市", "district" : "林口區", "tel" : "02-26099585", "env_actions" : [], "source_dataset" : "ntpe_e90d14f8", "seq_no" : "509"}}, {"type" : "Feature", "geometry" : {"type" : "Point", "coordinates" : [121.478791963998, 25.013888005639]}, "properties" : {"name" : "麥味登板橋三民", "address" : "新北市板橋區三民路二段202-13號", "city" : "新北市", "district" : "板橋區", "tel" : "02-29630916", "env_actions" : [], "source_dataset" : "ntpe_e90d14f8", "seq_no" : "513"}}, {"type" : "Feature", "geometry" : {"type" : "Point", "coordinates" : [121.472123992384, 25.012626990216]}, "properties" : {"name" : "麥味登板橋大崙", "address" : "新北市板橋區長安街331巷89號", "city" : "新北市", "district" : "板橋區", "tel" : "02-29581685", "env_actions" : [], "source_dataset" : "ntpe_e90d14f8", "seq_no" : "514"}}, {"type" : "Feature", "geometry" : {"type" : "Point", "coordinates" : [121.475775065588, 25.02060471802]}, "properties" : {"name" : "麥味登板橋永豐", "address" : "新北市板橋區永豐街171號", "city" : "新北市", "district" : "板橋區", "tel" : "02-29512885", "env_actions" : [], "source_dataset" : "ntpe_e90d14f8", "seq_no" : "517"}}, {"type" : "Feature", "geometry" : {"type" : "Point", "coordinates" : [121.468712976886, 25.028218000675]}, "properties" : {"name" : "麥味登板橋松江", "address" : "新北市板橋區松江街86號", "city" : "新北市", "district" : "板橋區", "tel" : "02-22507050", "env_actions" : [], "source_dataset" : "ntpe_e90d14f8", "seq_no" : "521"}}, {"type" : "Feature", "geometry" : {"type" : "Point", "coordinates" : [121.432834994715, 24.990760993674]}, "properties" : {"name" : "麥味登板橋金門", "address" : "新北市板橋區金門街147號", "city" : "新北市", "district" : "板橋區", "tel" : "02-86871568", "env_actions" : [], "source_dataset" : "ntpe_e90d14f8", "seq_no" : "523"}}, {"type" : "Feature", "geometry" : {"type" : "Point", "coordinates" : [121.47409373963, 25.022574004262]}, "properties" : {"name" : "麥味登板橋莒光", "address" : "新北市板橋區莒光路188號", "city" : "新北市", "district" : "板橋區", "tel" : "02-22566826", "env_actions" : [], "source_dataset" : "ntpe_e90d14f8", "seq_no" : "531"}}, {"type" : "Feature", "geometry" : {"type" : "Point", "coordinates" : [121.455962006681, 25.002455005889]}, "properties" : {"name" : "麥味登板橋貴興", "address" : "新北市板橋區貴興路109號", "city" : "新北市", "district" : "板橋區", "tel" : "02-29649695", "env_actions" : [], "source_dataset" : "ntpe_e90d14f8", "seq_no" : "533"}}, {"type" : "Feature", "geometry" : {"type" : "Point", "coordinates" : [121.457013684072, 25.024245481484]}, "properties" : {"name" : "麥味登板橋龍泉", "address" : "新北市板橋區龍泉街120號", "city" : "新北市", "district" : "板橋區", "tel" : "02-22542268", "env_actions" : [], "source_dataset" : "ntpe_e90d14f8", "seq_no" : "536"}}, {"type" : "Feature", "geometry" : {"type" : "Point", "coordinates" : [121.472620033413, 25.026129984775]}, "properties" : {"name" : "麥味登板橋藝文", "address" : "新北市板橋區莊敬路99號", "city" : "新北市", "district" : "板橋區", "tel" : "02-82570520", "env_actions" : [], "source_dataset" : "ntpe_e90d14f8", "seq_no" : "538"}}, {"type" : "Feature", "geometry" : {"type" : "Point", "coordinates" : [121.452099960974, 25.011687001685]}, "properties" : {"name" : "麥味登板橋體育館2", "address" : "新北市板橋區南雅西路二段143號", "city" : "新北市", "district" : "板橋區", "tel" : "02-22727977", "env_actions" : [], "source_dataset" : "ntpe_e90d14f8", "seq_no" : "540"}}, {"type" : "Feature", "geometry" : {"type" : "Point", "coordinates" : [121.433146969151, 25.057960010626]}, "properties" : {"name" : "麥味登泰山全興", "address" : "新北市泰山區福興二街30號", "city" : "新北市", "district" : "泰山區", "tel" : "02-29000283", "env_actions" : [], "source_dataset" : "ntpe_e90d14f8", "seq_no" : "542"}}, {"type" : "Feature", "geometry" : {"type" : "Point", "coordinates" : [121.44036605015, 25.045720868552]}, "properties" : {"name" : "麥味登泰山信華", "address" : "新北市泰山區信華三街171號", "city" : "新北市", "district" : "泰山區", "tel" : "02-29009091", "env_actions" : [], "source_dataset" : "ntpe_e90d14f8", "seq_no" : "543"}}, {"type" : "Feature", "geometry" : {"type" : "Point", "coordinates" : [121.449795021419, 25.179178004702]}, "properties" : {"name" : "麥味登淡水北新", "address" : "新北市淡水區北新路153號", "city" : "新北市", "district" : "淡水區", "tel" : "02-26235211", "env_actions" : [], "source_dataset" : "ntpe_e90d14f8", "seq_no" : "547"}}, {"type" : "Feature", "geometry" : {"type" : "Point", "coordinates" : [121.437191991805, 25.178994985846]}, "properties" : {"name" : "麥味登淡水真理", "address" : "新北市淡水區新民街180巷2號", "city" : "新北市", "district" : "淡水區", "tel" : "02-26205135", "env_actions" : [], "source_dataset" : "ntpe_e90d14f8", "seq_no" : "551"}}, {"type" : "Feature", "geometry" : {"type" : "Point", "coordinates" : [121.448556008492, 25.177260015708]}, "properties" : {"name" : "麥味登淡水淡江", "address" : "新北市淡水區北新路182巷37號", "city" : "新北市", "district" : "淡水區", "tel" : "02-26250018", "env_actions" : [], "source_dataset" : "ntpe_e90d14f8", "seq_no" : "553"}}, {"type" : "Feature", "geometry" : {"type" : "Point", "coordinates" : [121.537839035288, 24.981814988415]}, "properties" : {"name" : "麥味登新店建國", "address" : "新北市新店區建國路236號", "city" : "新北市", "district" : "新店區", "tel" : "02-29118958", "env_actions" : [], "source_dataset" : "ntpe_e90d14f8", "seq_no" : "563"}}, {"type" : "Feature", "geometry" : {"type" : "Point", "coordinates" : [121.53960401264, 24.986920992372]}, "properties" : {"name" : "麥味登新店順聯", "address" : "新北市新店區復興路16號", "city" : "新北市", "district" : "新店區", "tel" : "02-29141418", "env_actions" : [], "source_dataset" : "ntpe_e90d14f8", "seq_no" : "564"}}, {"type" : "Feature", "geometry" : {"type" : "Point", "coordinates" : [121.455378123305, 25.05453679946]}, "properties" : {"name" : "麥味登新莊中原", "address" : "新北市新莊區中原路138號", "city" : "新北市", "district" : "新莊區", "tel" : "02-85212006", "env_actions" : [], "source_dataset" : "ntpe_e90d14f8", "seq_no" : "569"}}, {"type" : "Feature", "geometry" : {"type" : "Point", "coordinates" : [121.455676016144, 25.045556009303]}, "properties" : {"name" : "麥味登新莊自立", "address" : "新北市新莊區自立街115號", "city" : "新北市", "district" : "新莊區", "tel" : "02-29980115", "env_actions" : [], "source_dataset" : "ntpe_e90d14f8", "seq_no" : "576"}}, {"type" : "Feature", "geometry" : {"type" : "Point", "coordinates" : [121.428025961587, 25.018455011313]}, "properties" : {"name" : "麥味登新莊西盛", "address" : "新北市新莊區西盛街196號", "city" : "新北市", "district" : "新莊區", "tel" : "02-22010970", "env_actions" : [], "source_dataset" : "ntpe_e90d14f8", "seq_no" : "577"}}, {"type" : "Feature", "geometry" : {"type" : "Point", "coordinates" : [121.457036985763, 25.052451004764]}, "properties" : {"name" : "麥味登新莊昌明", "address" : "新北市新莊區昌明街22號", "city" : "新北市", "district" : "新莊區", "tel" : "02-29905398", "env_actions" : [], "source_dataset" : "ntpe_e90d14f8", "seq_no" : "579"}}, {"type" : "Feature", "geometry" : {"type" : "Point", "coordinates" : [121.444265982809, 25.050330006075]}, "properties" : {"name" : "麥味登新莊歐洲村", "address" : "新北市新莊區立信三街7巷1號", "city" : "新北市", "district" : "新莊區", "tel" : "02-29966927", "env_actions" : [], "source_dataset" : "ntpe_e90d14f8", "seq_no" : "586"}}, {"type" : "Feature", "geometry" : {"type" : "Point", "coordinates" : [121.805174221194, 25.108236006977]}, "properties" : {"name" : "麥味登瑞芳明燈", "address" : "新北市瑞芳區明燈路三段81號", "city" : "新北市", "district" : "瑞芳區", "tel" : "02-24976263", "env_actions" : [], "source_dataset" : "ntpe_e90d14f8", "seq_no" : "589"}}, {"type" : "Feature", "geometry" : {"type" : "Point", "coordinates" : [121.419967013141, 24.987571008963]}, "properties" : {"name" : "麥味登樹林日新", "address" : "新北市樹林區日新街185號", "city" : "新北市", "district" : "樹林區", "tel" : "02-26862525", "env_actions" : [], "source_dataset" : "ntpe_e90d14f8", "seq_no" : "591"}}, {"type" : "Feature", "geometry" : {"type" : "Point", "coordinates" : [121.429701001118, 24.994176996403]}, "properties" : {"name" : "麥味登樹林秀泰", "address" : "新北市板橋區大觀路三段160巷46號", "city" : "新北市", "district" : "板橋區", "tel" : "02-26860822", "env_actions" : [], "source_dataset" : "ntpe_e90d14f8", "seq_no" : "593"}}, {"type" : "Feature", "geometry" : {"type" : "Point", "coordinates" : [121.422389969892, 24.993660419711]}, "properties" : {"name" : "麥味登樹林復興", "address" : "新北市樹林區復興路37號", "city" : "新北市", "district" : "樹林區", "tel" : "02-26851566", "env_actions" : [], "source_dataset" : "ntpe_e90d14f8", "seq_no" : "596"}}, {"type" : "Feature", "geometry" : {"type" : "Point", "coordinates" : [121.494424967791, 24.992233987428]}, "properties" : {"name" : "麥味登雙和圓通", "address" : "新北市中和區圓通路242號", "city" : "新北市", "district" : "中和區", "tel" : "02-22421165", "env_actions" : [], "source_dataset" : "ntpe_e90d14f8", "seq_no" : "598"}}, {"type" : "Feature", "geometry" : {"type" : "Point", "coordinates" : [121.463757008996, 25.08399499817]}, "properties" : {"name" : "麥味登蘆洲長興", "address" : "新北市蘆洲區長興路50巷3號", "city" : "新北市", "district" : "蘆洲區", "tel" : "02-22829933", "env_actions" : [], "source_dataset" : "ntpe_e90d14f8", "seq_no" : "601"}}, {"type" : "Feature", "geometry" : {"type" : "Point", "coordinates" : [121.478959015328, 25.08940199627]}, "properties" : {"name" : "麥味登蘆洲復興", "address" : "新北市蘆洲區復興路181號", "city" : "新北市", "district" : "蘆洲區", "tel" : "02-82827200", "env_actions" : [], "source_dataset" : "ntpe_e90d14f8", "seq_no" : "603"}}, {"type" : "Feature", "geometry" : {"type" : "Point", "coordinates" : [121.346852761389, 24.948759193043]}, "properties" : {"name" : "麥味登鶯歌天囍", "address" : "新北市鶯歌區尖山路136號", "city" : "新北市", "district" : "鶯歌區", "tel" : "02-86776850", "env_actions" : [], "source_dataset" : "ntpe_e90d14f8", "seq_no" : "605"}}, {"type" : "Feature", "geometry" : {"type" : "Point", "coordinates" : [121.548526967665, 24.951355990465]}, "properties" : {"name" : "喔嗨呦早餐屋", "address" : "新北市新店區北宜路2段36號", "city" : "新北市", "district" : "新店區", "tel" : "02-22178530", "env_actions" : [], "source_dataset" : "ntpe_e90d14f8", "seq_no" : "610"}}, {"type" : "Feature", "geometry" : {"type" : "Point", "coordinates" : [121.507847998993, 24.986163016868]}, "properties" : {"name" : "喬MAMA", "address" : "新北市中和區興南路二段6號", "city" : "新北市", "district" : "中和區", "tel" : "02-29400048", "env_actions" : [], "source_dataset" : "ntpe_e90d14f8", "seq_no" : "611"}}, {"type" : "Feature", "geometry" : {"type" : "Point", "coordinates" : [121.950561013981, 25.01986199758]}, "properties" : {"name" : "富士海鮮餐廳", "address" : "新北市貢寮區東興街8號", "city" : "新北市", "district" : "貢寮區", "tel" : "02-24991001", "env_actions" : [], "source_dataset" : "ntpe_e90d14f8", "seq_no" : "612"}}, {"type" : "Feature", "geometry" : {"type" : "Point", "coordinates" : [121.428869013409, 25.021008013292]}, "properties" : {"name" : "紫緹麵食館", "address" : "新北市新莊區民安東路37號", "city" : "新北市", "district" : "新莊區", "tel" : "02-22029635", "env_actions" : [], "source_dataset" : "ntpe_e90d14f8", "seq_no" : "620"}}, {"type" : "Feature", "geometry" : {"type" : "Point", "coordinates" : [121.475688899623, 25.006077203437]}, "properties" : {"name" : "華漾 DIM SUM 中和環球", "address" : "新北市中和區中山路三段122號4樓", "city" : "新北市", "district" : "中和區", "tel" : "02-22252088", "env_actions" : [], "source_dataset" : "ntpe_e90d14f8", "seq_no" : "621"}}, {"type" : "Feature", "geometry" : {"type" : "Point", "coordinates" : [121.475688899623, 25.006077203437]}, "properties" : {"name" : "開飯川食堂 中和環球店", "address" : "新北市中和區中山路三段122號4樓", "city" : "新北市", "district" : "中和區", "tel" : "02-22238218", "env_actions" : [], "source_dataset" : "ntpe_e90d14f8", "seq_no" : "623"}}, {"type" : "Feature", "geometry" : {"type" : "Point", "coordinates" : [121.854004003971, 25.114863996913]}, "properties" : {"name" : "雲山水小築民宿", "address" : "新北市瑞芳區金瓜石石山里山尖路72-1號", "city" : "新北市", "district" : "瑞芳區", "tel" : "02-24962201", "env_actions" : [], "source_dataset" : "ntpe_e90d14f8", "seq_no" : "625"}}, {"type" : "Feature", "geometry" : {"type" : "Point", "coordinates" : [121.551768215635, 24.848585332064]}, "properties" : {"name" : "雲仙樂園中餐廳", "address" : "新北市烏來區瀑布路1-1", "city" : "新北市", "district" : "烏來區", "tel" : "02-26616510", "env_actions" : [], "source_dataset" : "ntpe_e90d14f8", "seq_no" : "627"}}, {"type" : "Feature", "geometry" : {"type" : "Point", "coordinates" : [121.449384532813, 25.060115122343]}, "properties" : {"name" : "黑毛屋 新莊宏匯店", "address" : "新北市新莊區新北市新莊區新北大道四段 3 號 7 樓", "city" : "新北市", "district" : "新莊區", "tel" : "02-85222611", "env_actions" : [], "source_dataset" : "ntpe_e90d14f8", "seq_no" : "630"}}, {"type" : "Feature", "geometry" : {"type" : "Point", "coordinates" : [121.374814036011, 24.943973000601]}, "properties" : {"name" : "黑沃咖啡-三峽大學店", "address" : "新北市三峽區新北市三峽區大學路120號", "city" : "新北市", "district" : "三峽區", "tel" : "04-22624040", "env_actions" : [], "source_dataset" : "ntpe_e90d14f8", "seq_no" : "632"}}, {"type" : "Feature", "geometry" : {"type" : "Point", "coordinates" : [121.457074033775, 25.007945990659]}, "properties" : {"name" : "黑沃咖啡-板橋南門店", "address" : "新北市板橋區新北市板橋區南門街73號", "city" : "新北市", "district" : "板橋區", "tel" : "04-22624040", "env_actions" : [], "source_dataset" : "ntpe_e90d14f8", "seq_no" : "636"}}, {"type" : "Feature", "geometry" : {"type" : "Point", "coordinates" : [121.444204962554, 25.184176007837]}, "properties" : {"name" : "黑沃咖啡-淡水新市店", "address" : "新北市淡水區新北市淡水區中山北路二段163號", "city" : "新北市", "district" : "淡水區", "tel" : "04-22624040", "env_actions" : [], "source_dataset" : "ntpe_e90d14f8", "seq_no" : "637"}}, {"type" : "Feature", "geometry" : {"type" : "Point", "coordinates" : [121.442630002947, 24.999633992556]}, "properties" : {"name" : "嗑厚班早午餐", "address" : "新北市板橋區龍興街11號", "city" : "新北市", "district" : "板橋區", "tel" : "02-89699525", "env_actions" : [], "source_dataset" : "ntpe_e90d14f8", "seq_no" : "641"}}, {"type" : "Feature", "geometry" : {"type" : "Point", "coordinates" : [121.689774525207, 25.205053107443]}, "properties" : {"name" : "意芳飯店", "address" : "新北市萬里區港東路155號", "city" : "新北市", "district" : "萬里區", "tel" : "0932500750", "env_actions" : [], "source_dataset" : "ntpe_e90d14f8", "seq_no" : "643"}}, {"type" : "Feature", "geometry" : {"type" : "Point", "coordinates" : [121.61373297759, 25.001285017934]}, "properties" : {"name" : "源春小吃店", "address" : "新北市深坑區深坑街119號", "city" : "新北市", "district" : "深坑區", "tel" : "02-26647116", "env_actions" : [], "source_dataset" : "ntpe_e90d14f8", "seq_no" : "649"}}, {"type" : "Feature", "geometry" : {"type" : "Point", "coordinates" : [121.446943497959, 25.192725507167]}, "properties" : {"name" : "義利不窯-碳烤牛排-窯烤披薩-義式料理", "address" : "新北市淡水區淡金路二段608之2號", "city" : "新北市", "district" : "淡水區", "tel" : "02-26206699", "env_actions" : [], "source_dataset" : "ntpe_e90d14f8", "seq_no" : "651"}}, {"type" : "Feature", "geometry" : {"type" : "Point", "coordinates" : [121.466619009835, 25.013677997055]}, "properties" : {"name" : "鼎泰豐板橋店", "address" : "新北市板橋區新站路28號B1", "city" : "新北市", "district" : "板橋區", "tel" : "02-22267890#5105", "env_actions" : [], "source_dataset" : "ntpe_e90d14f8", "seq_no" : "658"}}, {"type" : "Feature", "geometry" : {"type" : "Point", "coordinates" : [121.600444978848, 25.004168015441]}, "properties" : {"name" : "福園中餐廳", "address" : "新北市深坑區北深路三段236號", "city" : "新北市", "district" : "深坑區", "tel" : "02-26620088#122", "env_actions" : [], "source_dataset" : "ntpe_e90d14f8", "seq_no" : "662"}}, {"type" : "Feature", "geometry" : {"type" : "Point", "coordinates" : [121.466619009835, 25.013677997055]}, "properties" : {"name" : "餃勁腦汁(板橋大遠百)", "address" : "新北市板橋區新站路28號B1", "city" : "新北市", "district" : "板橋區", "tel" : "02-77522516", "env_actions" : [], "source_dataset" : "ntpe_e90d14f8", "seq_no" : "663"}}, {"type" : "Feature", "geometry" : {"type" : "Point", "coordinates" : [121.614969978861, 25.001779005398]}, "properties" : {"name" : "劉的臭豆腐", "address" : "新北市深坑區深坑街46號", "city" : "新北市", "district" : "深坑區", "tel" : "02-26621140", "env_actions" : [], "source_dataset" : "ntpe_e90d14f8", "seq_no" : "666"}}, {"type" : "Feature", "geometry" : {"type" : "Point", "coordinates" : [121.390992031149, 25.076592017466]}, "properties" : {"name" : "慕谷慕魚蔬食原住民人文餐廳", "address" : "新北市林口區仁愛路一段338號", "city" : "新北市", "district" : "林口區", "tel" : "0912537590", "env_actions" : [], "source_dataset" : "ntpe_e90d14f8", "seq_no" : "667"}}, {"type" : "Feature", "geometry" : {"type" : "Point", "coordinates" : [121.446622973982, 25.039572000988]}, "properties" : {"name" : "樂檸漢堡（新北新莊棒球場門市）", "address" : "新北市新莊區新泰路232號", "city" : "新北市", "district" : "新莊區", "tel" : "02-29946215", "env_actions" : [], "source_dataset" : "ntpe_e90d14f8", "seq_no" : "670"}}, {"type" : "Feature", "geometry" : {"type" : "Point", "coordinates" : [121.510310015413, 25.001366992947]}, "properties" : {"name" : "樂?牛排(中和店)", "address" : "新北市中和區中和路350巷1號", "city" : "新北市", "district" : "中和區", "tel" : "02-29220089", "env_actions" : [], "source_dataset" : "ntpe_e90d14f8", "seq_no" : "671"}}, {"type" : "Feature", "geometry" : {"type" : "Point", "coordinates" : [121.614921531461, 25.001768192743]}, "properties" : {"name" : "歐里人文空間", "address" : "新北市深坑區深坑街48號", "city" : "新北市", "district" : "深坑區", "tel" : "02-26644525", "env_actions" : [], "source_dataset" : "ntpe_e90d14f8", "seq_no" : "672"}}, {"type" : "Feature", "geometry" : {"type" : "Point", "coordinates" : [121.427497985506, 24.990230000108]}, "properties" : {"name" : "豬豬的拉麵屋", "address" : "新北市板橋區溪北路41號1樓", "city" : "新北市", "district" : "板橋區", "tel" : "0937528511", "env_actions" : [], "source_dataset" : "ntpe_e90d14f8", "seq_no" : "674"}}, {"type" : "Feature", "geometry" : {"type" : "Point", "coordinates" : [121.515256008839, 25.001343020704]}, "properties" : {"name" : "勳牛肉麵(永和店)", "address" : "新北市永和區安樂路194巷3號", "city" : "新北市", "district" : "永和區", "tel" : "02-29290588", "env_actions" : [], "source_dataset" : "ntpe_e90d14f8", "seq_no" : "675"}}, {"type" : "Feature", "geometry" : {"type" : "Point", "coordinates" : [121.466619009835, 25.013677997055]}, "properties" : {"name" : "橙易食堂-板橋大遠百", "address" : "新北市板橋區新站路28號B1", "city" : "新北市", "district" : "板橋區", "tel" : "0983379801", "env_actions" : [], "source_dataset" : "ntpe_e90d14f8", "seq_no" : "676"}}, {"type" : "Feature", "geometry" : {"type" : "Point", "coordinates" : [121.475688899623, 25.006077203437]}, "properties" : {"name" : "燒肉LIKE 中和環球店", "address" : "新北市中和區中山路三段122號B2樓", "city" : "新北市", "district" : "中和區", "tel" : "02-22281497", "env_actions" : [], "source_dataset" : "ntpe_e90d14f8", "seq_no" : "677"}}, {"type" : "Feature", "geometry" : {"type" : "Point", "coordinates" : [121.366152009632, 25.069180990136]}, "properties" : {"name" : "燒肉Smile 林口文化店", "address" : "新北市林口區文化二路一段76號2樓", "city" : "新北市", "district" : "林口區", "tel" : "02-26087728", "env_actions" : [], "source_dataset" : "ntpe_e90d14f8", "seq_no" : "678"}}, {"type" : "Feature", "geometry" : {"type" : "Point", "coordinates" : [121.496863598701, 25.06178429586]}, "properties" : {"name" : "燒肉Smile 新北三重店", "address" : "新北市三重區重新路二段100號1樓", "city" : "新北市", "district" : "三重區", "tel" : "02-89721118", "env_actions" : [], "source_dataset" : "ntpe_e90d14f8", "seq_no" : "679"}}, {"type" : "Feature", "geometry" : {"type" : "Point", "coordinates" : [121.428337936023, 24.995446687096]}, "properties" : {"name" : "燒肉Smile 樹林秀泰店", "address" : "新北市樹林區樹新路40-6號7樓", "city" : "新北市", "district" : "樹林區", "tel" : "02-26878522", "env_actions" : [], "source_dataset" : "ntpe_e90d14f8", "seq_no" : "680"}}, {"type" : "Feature", "geometry" : {"type" : "Point", "coordinates" : [121.460810015658, 25.007148997396]}, "properties" : {"name" : "燒肉哦爺-日韓燒肉吃到飽(板橋府中店)", "address" : "新北市板橋區館前東路48號2.3樓", "city" : "新北市", "district" : "板橋區", "tel" : "02-89538153", "env_actions" : [], "source_dataset" : "ntpe_e90d14f8", "seq_no" : "681"}}, {"type" : "Feature", "geometry" : {"type" : "Point", "coordinates" : [121.372547317935, 24.946789697254]}, "properties" : {"name" : "築間幸福鍋物 三峽大學店", "address" : "新北市三峽區大學路198號", "city" : "新北市", "district" : "三峽區", "tel" : "02-26722226", "env_actions" : [], "source_dataset" : "ntpe_e90d14f8", "seq_no" : "682"}}, {"type" : "Feature", "geometry" : {"type" : "Point", "coordinates" : [121.445151614698, 24.979227411085]}, "properties" : {"name" : "築間幸福鍋物 土城中央店", "address" : "新北市土城區中央路二段21巷128號1樓", "city" : "新北市", "district" : "土城區", "tel" : "02-22601555", "env_actions" : [], "source_dataset" : "ntpe_e90d14f8", "seq_no" : "683"}}, {"type" : "Feature", "geometry" : {"type" : "Point", "coordinates" : [121.45332170718, 24.982458006117]}, "properties" : {"name" : "築間幸福鍋物 土城裕民店", "address" : "新北市土城區新北市土城區學士路23號", "city" : "新北市", "district" : "土城區", "tel" : "02-22645577", "env_actions" : [], "source_dataset" : "ntpe_e90d14f8", "seq_no" : "684"}}, {"type" : "Feature", "geometry" : {"type" : "Point", "coordinates" : [121.444923962208, 25.05464500983]}, "properties" : {"name" : "築間幸福鍋物 士林承德店", "address" : "新北市新莊區中平路402號1樓", "city" : "新北市", "district" : "新莊區", "tel" : "02-28828558", "env_actions" : [], "source_dataset" : "ntpe_e90d14f8", "seq_no" : "685"}}, {"type" : "Feature", "geometry" : {"type" : "Point", "coordinates" : [121.365974537771, 25.069127014573]}, "properties" : {"name" : "築間幸福鍋物 林口三井店", "address" : "新北市林口區文化二路一段72號2樓", "city" : "新北市", "district" : "林口區", "tel" : "02-26085533", "env_actions" : [], "source_dataset" : "ntpe_e90d14f8", "seq_no" : "687"}}, {"type" : "Feature", "geometry" : {"type" : "Point", "coordinates" : [121.462169141258, 25.007412398703]}, "properties" : {"name" : "築間幸福鍋物 板橋館前店", "address" : "新北市板橋區館前東路96號", "city" : "新北市", "district" : "板橋區", "tel" : "02-29596199", "env_actions" : [], "source_dataset" : "ntpe_e90d14f8", "seq_no" : "688"}}, {"type" : "Feature", "geometry" : {"type" : "Point", "coordinates" : [121.471907990739, 25.030390003245]}, "properties" : {"name" : "築間幸福鍋物 板橋雙十店", "address" : "新北市板橋區雙十路三段8號", "city" : "新北市", "district" : "板橋區", "tel" : "02-82595577", "env_actions" : [], "source_dataset" : "ntpe_e90d14f8", "seq_no" : "689"}}, {"type" : "Feature", "geometry" : {"type" : "Point", "coordinates" : [121.429569489057, 25.186830388935]}, "properties" : {"name" : "築間幸福鍋物 淡水新市店", "address" : "新北市淡水區新市一路一段8號1樓", "city" : "新北市", "district" : "淡水區", "tel" : "02-26229933", "env_actions" : [], "source_dataset" : "ntpe_e90d14f8", "seq_no" : "690"}}, {"type" : "Feature", "geometry" : {"type" : "Point", "coordinates" : [121.497046994743, 25.061745990562]}, "properties" : {"name" : "築間幸福鍋物 新北三重店", "address" : "新北市三重區重新路二段92號", "city" : "新北市", "district" : "三重區", "tel" : "02-29785222", "env_actions" : [], "source_dataset" : "ntpe_e90d14f8", "seq_no" : "691"}}, {"type" : "Feature", "geometry" : {"type" : "Point", "coordinates" : [121.660397128044, 25.064971388814]}, "properties" : {"name" : "築間幸福鍋物 新北汐止店", "address" : "新北市汐止區新台五路二段12號", "city" : "新北市", "district" : "汐止區", "tel" : "02-26487779", "env_actions" : [], "source_dataset" : "ntpe_e90d14f8", "seq_no" : "693"}}, {"type" : "Feature", "geometry" : {"type" : "Point", "coordinates" : [121.458923568411, 25.038110992105]}, "properties" : {"name" : "築間幸福鍋物 新莊中正店", "address" : "新北市新莊區中正路72號2樓", "city" : "新北市", "district" : "新莊區", "tel" : "02-22767522", "env_actions" : [], "source_dataset" : "ntpe_e90d14f8", "seq_no" : "694"}}, {"type" : "Feature", "geometry" : {"type" : "Point", "coordinates" : [121.444923962208, 25.05464500983]}, "properties" : {"name" : "築間幸福鍋物 新莊中悅廣場店", "address" : "新北市新莊區中平路402號1樓", "city" : "新北市", "district" : "新莊區", "tel" : "02-89956561", "env_actions" : [], "source_dataset" : "ntpe_e90d14f8", "seq_no" : "695"}}, {"type" : "Feature", "geometry" : {"type" : "Point", "coordinates" : [121.444852967488, 25.034655008947]}, "properties" : {"name" : "築間幸福鍋物 新莊福海店", "address" : "新北市新莊區中正路340巷1號2樓", "city" : "新北市", "district" : "新莊區", "tel" : "02-29931555", "env_actions" : [], "source_dataset" : "ntpe_e90d14f8", "seq_no" : "696"}}, {"type" : "Feature", "geometry" : {"type" : "Point", "coordinates" : [121.428337936023, 24.995446687096]}, "properties" : {"name" : "築間幸福鍋物 樹林秀泰店", "address" : "新北市樹林區樹新路40-6號號5樓", "city" : "新北市", "district" : "樹林區", "tel" : "02-26860667", "env_actions" : [], "source_dataset" : "ntpe_e90d14f8", "seq_no" : "697"}}, {"type" : "Feature", "geometry" : {"type" : "Point", "coordinates" : [121.50851402502, 24.999508012552]}, "properties" : {"name" : "築間幸福鍋物 雙和中和店", "address" : "新北市中和區中和路262號1樓", "city" : "新北市", "district" : "中和區", "tel" : "02-29262255", "env_actions" : [], "source_dataset" : "ntpe_e90d14f8", "seq_no" : "698"}}, {"type" : "Feature", "geometry" : {"type" : "Point", "coordinates" : [121.468102019964, 25.089909981512]}, "properties" : {"name" : "築間幸福鍋物 蘆洲三民店", "address" : "新北市蘆洲區三民路248號", "city" : "新北市", "district" : "蘆洲區", "tel" : "02-22887337", "env_actions" : [], "source_dataset" : "ntpe_e90d14f8", "seq_no" : "699"}}, {"type" : "Feature", "geometry" : {"type" : "Point", "coordinates" : [121.475688899623, 25.006077203437]}, "properties" : {"name" : "築間酸菜魚 中和環球店", "address" : "新北市中和區中山路三段122號4樓", "city" : "新北市", "district" : "中和區", "tel" : "02-22221555", "env_actions" : [], "source_dataset" : "ntpe_e90d14f8", "seq_no" : "700"}}, {"type" : "Feature", "geometry" : {"type" : "Point", "coordinates" : [121.475688899623, 25.006077203437]}, "properties" : {"name" : "貓樂貓咖啡-環球中和", "address" : "新北市中和區中山路三段122號", "city" : "新北市", "district" : "中和區", "tel" : "02-22217108", "env_actions" : [], "source_dataset" : "ntpe_e90d14f8", "seq_no" : "702"}}, {"type" : "Feature", "geometry" : {"type" : "Point", "coordinates" : [121.689901175764, 25.204826209324]}, "properties" : {"name" : "錦園魚夫海鮮", "address" : "新北市萬里區野柳村港東路159號", "city" : "新北市", "district" : "萬里區", "tel" : "02-24924950", "env_actions" : [], "source_dataset" : "ntpe_e90d14f8", "seq_no" : "703"}}, {"type" : "Feature", "geometry" : {"type" : "Point", "coordinates" : [121.457453985446, 25.026073993661]}, "properties" : {"name" : "鴨香飽 當歸豬腳當歸鴨(板橋店)", "address" : "新北市板橋區新海路385巷28弄12號", "city" : "新北市", "district" : "板橋區", "tel" : "02-82570080", "env_actions" : [], "source_dataset" : "ntpe_e90d14f8", "seq_no" : "704"}}, {"type" : "Feature", "geometry" : {"type" : "Point", "coordinates" : [121.463495996531, 25.010639012331]}, "properties" : {"name" : "鍋賣局(板橋新板店)", "address" : "新北市板橋區中山路一段130號", "city" : "新北市", "district" : "板橋區", "tel" : "-", "env_actions" : [], "source_dataset" : "ntpe_e90d14f8", "seq_no" : "705"}}, {"type" : "Feature", "geometry" : {"type" : "Point", "coordinates" : [121.466619009835, 25.013677997055]}, "properties" : {"name" : "韓鶴亭(板橋大遠百)", "address" : "新北市板橋區新站路28號B1", "city" : "新北市", "district" : "板橋區", "tel" : "02-86933002", "env_actions" : [], "source_dataset" : "ntpe_e90d14f8", "seq_no" : "708"}}, {"type" : "Feature", "geometry" : {"type" : "Point", "coordinates" : [121.461502360861, 24.983043901149]}, "properties" : {"name" : "鴻心堡早午餐", "address" : "新北市土城區清水路256號", "city" : "新北市", "district" : "土城區", "tel" : "02-22655106", "env_actions" : [], "source_dataset" : "ntpe_e90d14f8", "seq_no" : "710"}}, {"type" : "Feature", "geometry" : {"type" : "Point", "coordinates" : [121.414613994497, 24.960690999851]}, "properties" : {"name" : "鴻海精密民生廠員工餐廳", "address" : "新北市土城區土城工業區民生街4號", "city" : "新北市", "district" : "土城區", "tel" : "02-22683466#501011040", "env_actions" : [], "source_dataset" : "ntpe_e90d14f8", "seq_no" : "711"}}, {"type" : "Feature", "geometry" : {"type" : "Point", "coordinates" : [121.421795022405, 24.966136009882]}, "properties" : {"name" : "鴻海精密虎躍廠員工餐廳", "address" : "新北市土城區自由街2號", "city" : "新北市", "district" : "土城區", "tel" : "02-22683466#501011040", "env_actions" : [], "source_dataset" : "ntpe_e90d14f8", "seq_no" : "712"}}, {"type" : "Feature", "geometry" : {"type" : "Point", "coordinates" : [121.475688899623, 25.006077203437]}, "properties" : {"name" : "點點心 中和環球店", "address" : "新北市中和區中山路三段122號B2樓", "city" : "新北市", "district" : "中和區", "tel" : "02-22226628", "env_actions" : [], "source_dataset" : "ntpe_e90d14f8", "seq_no" : "714"}}, {"type" : "Feature", "geometry" : {"type" : "Point", "coordinates" : [121.499534995062, 25.00014700694]}, "properties" : {"name" : "璐璐早餐店", "address" : "新北市中和區泰和街23號", "city" : "新北市", "district" : "中和區", "tel" : "02-22460928", "env_actions" : [], "source_dataset" : "ntpe_e90d14f8", "seq_no" : "715"}}, {"type" : "Feature", "geometry" : {"type" : "Point", "coordinates" : [121.690167217371, 25.204128499704]}, "properties" : {"name" : "薆悅酒店野柳渡假館-FISHERMAN’S KITCHEN漁人廚房", "address" : "新北市萬里區野柳里港東路162之2號2樓", "city" : "新北市", "district" : "萬里區", "tel" : "02-77035700", "env_actions" : [], "source_dataset" : "ntpe_e90d14f8", "seq_no" : "716"}}, {"type" : "Feature", "geometry" : {"type" : "Point", "coordinates" : [121.486341963283, 25.056703018517]}, "properties" : {"name" : "藏壽司 三重捷運路店", "address" : "新北市三重區重明里18鄰捷運路1號", "city" : "新北市", "district" : "三重區", "tel" : "02-29886680", "env_actions" : [], "source_dataset" : "ntpe_e90d14f8", "seq_no" : "717"}}, {"type" : "Feature", "geometry" : {"type" : "Point", "coordinates" : [121.490602987581, 25.089119987138]}, "properties" : {"name" : "藏壽司 三重集賢路店", "address" : "新北市三重區集賢路99號", "city" : "新北市", "district" : "三重區", "tel" : "02-82877177", "env_actions" : [], "source_dataset" : "ntpe_e90d14f8", "seq_no" : "718"}}, {"type" : "Feature", "geometry" : {"type" : "Point", "coordinates" : [121.378306104512, 24.944205305047]}, "properties" : {"name" : "藏壽司 三峽學成店", "address" : "新北市三峽區學成路398號4樓", "city" : "新北市", "district" : "三峽區", "tel" : "02-26717262", "env_actions" : [], "source_dataset" : "ntpe_e90d14f8", "seq_no" : "719"}}, {"type" : "Feature", "geometry" : {"type" : "Point", "coordinates" : [121.453339979729, 24.980434991876]}, "properties" : {"name" : "藏壽司 土城金城路店", "address" : "新北市土城區金城路二段80號", "city" : "新北市", "district" : "土城區", "tel" : "02-22607775", "env_actions" : [], "source_dataset" : "ntpe_e90d14f8", "seq_no" : "720"}}, {"type" : "Feature", "geometry" : {"type" : "Point", "coordinates" : [121.488175001688, 25.005189015067]}, "properties" : {"name" : "藏壽司 中和橋和店", "address" : "新北市中和區橋和路5號", "city" : "新北市", "district" : "中和區", "tel" : "02-82266313", "env_actions" : [], "source_dataset" : "ntpe_e90d14f8", "seq_no" : "721"}}, {"type" : "Feature", "geometry" : {"type" : "Point", "coordinates" : [121.507646078946, 25.007836481094]}, "properties" : {"name" : "藏壽司 永和比漾店", "address" : "新北市永和區中山路一段238號4樓", "city" : "新北市", "district" : "永和區", "tel" : "02-22311881", "env_actions" : [], "source_dataset" : "ntpe_e90d14f8", "seq_no" : "722"}}, {"type" : "Feature", "geometry" : {"type" : "Point", "coordinates" : [121.363309113178, 25.071046373452]}, "properties" : {"name" : "藏壽司 林口三井Outlet店", "address" : "新北市林口區文化三路一段356號B1", "city" : "新北市", "district" : "林口區", "tel" : "02-26069852", "env_actions" : [], "source_dataset" : "ntpe_e90d14f8", "seq_no" : "723"}}, {"type" : "Feature", "geometry" : {"type" : "Point", "coordinates" : [121.464423035022, 25.011040002578]}, "properties" : {"name" : "藏壽司 板橋中山遠百店", "address" : "新北市板橋區中山路一段152號5樓", "city" : "新北市", "district" : "板橋區", "tel" : "02-29582868", "env_actions" : [], "source_dataset" : "ntpe_e90d14f8", "seq_no" : "724"}}, {"type" : "Feature", "geometry" : {"type" : "Point", "coordinates" : [121.457537972116, 24.998862983193]}, "properties" : {"name" : "藏壽司 板橋遠科店", "address" : "新北市板橋區遠東路62之3號", "city" : "新北市", "district" : "板橋區", "tel" : "02-29640432", "env_actions" : [], "source_dataset" : "ntpe_e90d14f8", "seq_no" : "725"}}, {"type" : "Feature", "geometry" : {"type" : "Point", "coordinates" : [121.442545010449, 25.170417993874]}, "properties" : {"name" : "藏壽司 淡水站前店", "address" : "新北市淡水區中山路8號5樓", "city" : "新北市", "district" : "淡水區", "tel" : "02-26263577", "env_actions" : [], "source_dataset" : "ntpe_e90d14f8", "seq_no" : "726"}}, {"type" : "Feature", "geometry" : {"type" : "Point", "coordinates" : [121.546363430818, 24.97774930437]}, "properties" : {"name" : "藏壽司 新店威秀裕隆店", "address" : "新北市新店區中興路三段70號6樓", "city" : "新北市", "district" : "新店區", "tel" : "02-89147904", "env_actions" : [], "source_dataset" : "ntpe_e90d14f8", "seq_no" : "727"}}, {"type" : "Feature", "geometry" : {"type" : "Point", "coordinates" : [121.449451028113, 25.059944007108]}, "properties" : {"name" : "藏壽司 新莊宏匯店", "address" : "新北市新莊區新北大道四段3號7樓", "city" : "新北市", "district" : "新莊區", "tel" : "02-85213102", "env_actions" : [], "source_dataset" : "ntpe_e90d14f8", "seq_no" : "728"}}, {"type" : "Feature", "geometry" : {"type" : "Point", "coordinates" : [121.460343981842, 25.048911997606]}, "properties" : {"name" : "藏壽司 新莊思源路店", "address" : "新北市新莊區思源路168號", "city" : "新北市", "district" : "新莊區", "tel" : "02-29901755", "env_actions" : [], "source_dataset" : "ntpe_e90d14f8", "seq_no" : "729"}}, {"type" : "Feature", "geometry" : {"type" : "Point", "coordinates" : [121.493774699743, 24.993095814713]}, "properties" : {"name" : "雙和醫院員工餐廳", "address" : "新北市中和區中正路291號", "city" : "新北市", "district" : "中和區", "tel" : "02-22490088#8837", "env_actions" : [], "source_dataset" : "ntpe_e90d14f8", "seq_no" : "731"}}, {"type" : "Feature", "geometry" : {"type" : "Point", "coordinates" : [121.408769174026, 25.016299222878]}, "properties" : {"name" : "雙翼食品", "address" : "新北市樹林區忠愛街三號4樓", "city" : "新北市", "district" : "樹林區", "tel" : "02-26895506", "env_actions" : [], "source_dataset" : "ntpe_e90d14f8", "seq_no" : "733"}}, {"type" : "Feature", "geometry" : {"type" : "Point", "coordinates" : [121.452036007052, 25.050434486498]}, "properties" : {"name" : "雙醬咖哩(新莊中港店)", "address" : "新北市新莊區中港路503號1樓", "city" : "新北市", "district" : "新莊區", "tel" : "02-2770051", "env_actions" : [], "source_dataset" : "ntpe_e90d14f8", "seq_no" : "734"}}, {"type" : "Feature", "geometry" : {"type" : "Point", "coordinates" : [121.613524016744, 25.001359994058]}, "properties" : {"name" : "寶桂的店", "address" : "新北市深坑區深坑街 114號", "city" : "新北市", "district" : "深坑區", "tel" : "02-26645399", "env_actions" : [], "source_dataset" : "ntpe_e90d14f8", "seq_no" : "736"}}, {"type" : "Feature", "geometry" : {"type" : "Point", "coordinates" : [121.466619009835, 25.013677997055]}, "properties" : {"name" : "繼光香香雞-板橋大遠百", "address" : "新北市板橋區新站路28號B1", "city" : "新北市", "district" : "板橋區", "tel" : "02-23611999#894", "env_actions" : [], "source_dataset" : "ntpe_e90d14f8", "seq_no" : "738"}}, {"type" : "Feature", "geometry" : {"type" : "Point", "coordinates" : [121.865716540192, 25.038350212871]}, "properties" : {"name" : "蘇義興餐廳", "address" : "新北市雙溪區中華路77號", "city" : "新北市", "district" : "雙溪區", "tel" : "02-24931027", "env_actions" : [], "source_dataset" : "ntpe_e90d14f8", "seq_no" : "739"}}, {"type" : "Feature", "geometry" : {"type" : "Point", "coordinates" : [121.461599004204, 25.010736996779]}, "properties" : {"name" : "麵食主義 Kirin pasta新板店", "address" : "新北市板橋區縣民大道1段310號", "city" : "新北市", "district" : "板橋區", "tel" : "02-29643968", "env_actions" : [], "source_dataset" : "ntpe_e90d14f8", "seq_no" : "740"}}, {"type" : "Feature", "geometry" : {"type" : "Point", "coordinates" : [121.466619009835, 25.013677997055]}, "properties" : {"name" : "蘭姐大排檔", "address" : "新北市板橋區新站路28號B1", "city" : "新北市", "district" : "板橋區", "tel" : "02-26931539", "env_actions" : [], "source_dataset" : "ntpe_e90d14f8", "seq_no" : "742"}}, {"type" : "Feature", "geometry" : {"type" : "Point", "coordinates" : [121.445529973808, 25.03638000462]}, "properties" : {"name" : "饗爍早午餐", "address" : "新北市新莊區建中街125號1樓", "city" : "新北市", "district" : "新莊區", "tel" : "02-29909839", "env_actions" : [], "source_dataset" : "ntpe_e90d14f8", "seq_no" : "744"}}, {"type" : "Feature", "geometry" : {"type" : "Point", "coordinates" : [121.442794036792, 25.170633995519]}, "properties" : {"name" : "魔法咖哩", "address" : "新北市淡水區中山路8號8樓", "city" : "新北市", "district" : "淡水區", "tel" : "02-26206123", "env_actions" : [], "source_dataset" : "ntpe_e90d14f8", "seq_no" : "745"}}, {"type" : "Feature", "geometry" : {"type" : "Point", "coordinates" : [121.514228974243, 25.000214984175]}, "properties" : {"name" : "蘿蔔蹲 Farmers Tasty", "address" : "新北市永和區安樂路136號", "city" : "新北市", "district" : "永和區", "tel" : "02-29427711", "env_actions" : [], "source_dataset" : "ntpe_e90d14f8", "seq_no" : "746"}}, {"type" : "Feature", "geometry" : {"type" : "Point", "coordinates" : [121.474222988577, 25.082165983078]}, "properties" : {"name" : "鑫丼", "address" : "新北市蘆洲區中山二路42號", "city" : "新北市", "district" : "蘆洲區", "tel" : "0983102512", "env_actions" : [], "source_dataset" : "ntpe_e90d14f8", "seq_no" : "747"}}, {"type" : "Feature", "geometry" : {"type" : "Point", "coordinates" : [121.375609394803, 24.943681813285]}, "properties" : {"name" : "?鳥食趣義大利洋食 X 烤泡芙專賣", "address" : "新北市三峽區大觀路7號", "city" : "新北市", "district" : "三峽區", "tel" : "02-86710208", "env_actions" : [], "source_dataset" : "ntpe_e90d14f8", "seq_no" : "748"}}]}
