{"type" : "FeatureCollection", "name" : "FoodBank", "features" : [{"type" : "Feature", "geometry" : {"type" : "Point", "coordinates" : [121.459118128502, 25.009640015201]}, "properties" : {"name" : "板橋區公所", "address" : "新北市板橋區府中路３０號", "city" : "新北市", "district" : "板橋區", "district_code" : "65000010", "postal_code" : "220235", "tel" : "(02)29686911", "org_type" : null, "source_dataset" : "ntpe_1c1d0066", "seq_no" : "2"}}, {"type" : "Feature", "geometry" : {"type" : "Point", "coordinates" : [121.465593986896, 25.012078981387]}, "properties" : {"name" : "新北市政府社會局社會救助科", "address" : "新北市板橋區中山路一段１６１號二樓", "city" : "新北市", "district" : "板橋區", "district_code" : "65000010", "postal_code" : "220242", "tel" : "(02)29603456", "org_type" : null, "source_dataset" : "ntpe_1c1d0066", "seq_no" : "3"}}, {"type" : "Feature", "geometry" : {"type" : "Point", "coordinates" : [121.455811970614, 24.997200013603]}, "properties" : {"name" : "天元慈善功德會", "address" : "新北市板橋區四川路二段１６巷５號十樓", "city" : "新北市", "district" : "板橋區", "district_code" : "65000010", "postal_code" : "220620", "tel" : "(02)89668566", "org_type" : null, "source_dataset" : "ntpe_1c1d0066", "seq_no" : "4"}}, {"type" : "Feature", "geometry" : {"type" : "Point", "coordinates" : [121.443018001245, 24.974944007106]}, "properties" : {"name" : "土城社會福利服務中心", "address" : "新北市土城區中正路１８號五樓", "city" : "新北市", "district" : "土城區", "district_code" : "65000130", "postal_code" : "236035", "tel" : "(02)22656069", "org_type" : null, "source_dataset" : "ntpe_1c1d0066", "seq_no" : "5"}}, {"type" : "Feature", "geometry" : {"type" : "Point", "coordinates" : [121.44287299432, 24.972533204114]}, "properties" : {"name" : "土城區公所", "address" : "新北市土城區金城路一段１０１號", "city" : "新北市", "district" : "土城區", "district_code" : "65000130", "postal_code" : "236205", "tel" : "(02)22732000", "org_type" : null, "source_dataset" : "ntpe_1c1d0066", "seq_no" : "6"}}, {"type" : "Feature", "geometry" : {"type" : "Point", "coordinates" : [121.414331775817, 24.956201107686]}, "properties" : {"name" : "社團法人新北巿家長志工教育成長協會", "address" : "新北市土城區中央路四段２０５號", "city" : "新北市", "district" : "土城區", "district_code" : "65000130", "postal_code" : "236040", "tel" : "(02)22686800", "org_type" : null, "source_dataset" : "ntpe_1c1d0066", "seq_no" : "7"}}, {"type" : "Feature", "geometry" : {"type" : "Point", "coordinates" : [121.458302988418, 24.984475991216]}, "properties" : {"name" : "財團法人臺灣更生保護會新北分會", "address" : "新北市土城區金城路二段２４９號", "city" : "新北市", "district" : "土城區", "district_code" : "65000130", "postal_code" : "236202", "tel" : "(02)22608369", "org_type" : null, "source_dataset" : "ntpe_1c1d0066", "seq_no" : "8"}}, {"type" : "Feature", "geometry" : {"type" : "Point", "coordinates" : [121.453553131527, 24.986121107352]}, "properties" : {"name" : "中華民國紅心字會", "address" : "新北市土城區學府路一段１４５號二樓", "city" : "新北市", "district" : "土城區", "district_code" : "65000130", "postal_code" : "236021", "tel" : "(02)22655909", "org_type" : null, "source_dataset" : "ntpe_1c1d0066", "seq_no" : "9"}}, {"type" : "Feature", "geometry" : {"type" : "Point", "coordinates" : [121.442432022394, 24.97048801974]}, "properties" : {"name" : "臺灣新北地方檢察署觀護人室", "address" : "新北市土城區金城路一段５６號", "city" : "新北市", "district" : "土城區", "district_code" : "65000130", "postal_code" : "236017", "tel" : "(02)22622076", "org_type" : null, "source_dataset" : "ntpe_1c1d0066", "seq_no" : "10"}}, {"type" : "Feature", "geometry" : {"type" : "Point", "coordinates" : [121.36886430968, 24.934237587701]}, "properties" : {"name" : "三峽區公所", "address" : "新北市三峽區中山路１７號", "city" : "新北市", "district" : "三峽區", "district_code" : "65000090", "postal_code" : "237204", "tel" : "(02)26711017", "org_type" : null, "source_dataset" : "ntpe_1c1d0066", "seq_no" : "11"}}, {"type" : "Feature", "geometry" : {"type" : "Point", "coordinates" : [121.541610975536, 24.967636999193]}, "properties" : {"name" : "新店區公所", "address" : "新北市新店區北新路一段８６號八樓", "city" : "新北市", "district" : "新店區", "district_code" : "65000060", "postal_code" : "231003", "tel" : "(02)29112281", "org_type" : null, "source_dataset" : "ntpe_1c1d0066", "seq_no" : "13"}}, {"type" : "Feature", "geometry" : {"type" : "Point", "coordinates" : [121.533336193083, 24.955873291453]}, "properties" : {"name" : "新北市都會東區原住民族家庭服務中心", "address" : "新北市新店區永業路２０號一樓", "city" : "新北市", "district" : "新店區", "district_code" : "65000060", "postal_code" : "231047", "tel" : "(02)22121034", "org_type" : null, "source_dataset" : "ntpe_1c1d0066", "seq_no" : "14"}}, {"type" : "Feature", "geometry" : {"type" : "Point", "coordinates" : [121.615955020122, 25.002437990626]}, "properties" : {"name" : "深坑區公所", "address" : "新北市深坑區深坑街１０號", "city" : "新北市", "district" : "深坑區", "district_code" : "65000180", "postal_code" : "222003", "tel" : "(02)26623116", "org_type" : null, "source_dataset" : "ntpe_1c1d0066", "seq_no" : "15"}}, {"type" : "Feature", "geometry" : {"type" : "Point", "coordinates" : [121.657929998663, 24.991503001652]}, "properties" : {"name" : "石碇區公所", "address" : "新北市石碇區碇坪路一段３７號", "city" : "新北市", "district" : "石碇區", "district_code" : "65000190", "postal_code" : "223002", "tel" : "(02)26631080", "org_type" : null, "source_dataset" : "ntpe_1c1d0066", "seq_no" : "16"}}, {"type" : "Feature", "geometry" : {"type" : "Point", "coordinates" : [121.548005026555, 24.871715002168]}, "properties" : {"name" : "烏來區公所", "address" : "新北市烏來區忠治里新烏路五段１１１號", "city" : "新北市", "district" : "烏來區", "district_code" : "65000290", "postal_code" : "233201", "tel" : "(02)26616442", "org_type" : null, "source_dataset" : "ntpe_1c1d0066", "seq_no" : "18"}}, {"type" : "Feature", "geometry" : {"type" : "Point", "coordinates" : [121.547249984717, 24.863789996534]}, "properties" : {"name" : "新北市烏來原住民族家庭服務中心", "address" : "新北市烏來區環山路８２巷９８號三樓", "city" : "新北市", "district" : "烏來區", "district_code" : "65000290", "postal_code" : "233001", "tel" : "(02)26616082", "org_type" : null, "source_dataset" : "ntpe_1c1d0066", "seq_no" : "19"}}, {"type" : "Feature", "geometry" : {"type" : "Point", "coordinates" : [121.49059787462, 25.077856092284]}, "properties" : {"name" : "三重社會福利服務中心", "address" : "新北市三重區溪尾街７３號三樓", "city" : "新北市", "district" : "三重區", "district_code" : "65000020", "postal_code" : "241061", "tel" : "(02)29826255", "org_type" : null, "source_dataset" : "ntpe_1c1d0066", "seq_no" : "20"}}, {"type" : "Feature", "geometry" : {"type" : "Point", "coordinates" : [121.488400139608, 25.061199113289]}, "properties" : {"name" : "三重區公所", "address" : "新北市三重區新北大道一段１１號", "city" : "新北市", "district" : "三重區", "district_code" : "65000020", "postal_code" : "241208", "tel" : "(02)29862345", "org_type" : null, "source_dataset" : "ntpe_1c1d0066", "seq_no" : "21"}}, {"type" : "Feature", "geometry" : {"type" : "Point", "coordinates" : [121.488795011066, 25.057650005937]}, "properties" : {"name" : "法扶基金會新北分會", "address" : "新北市三重區重新路四段１２號五樓", "city" : "新北市", "district" : "三重區", "district_code" : "65000020", "postal_code" : "241524", "tel" : "(02)29737778", "org_type" : null, "source_dataset" : "ntpe_1c1d0066", "seq_no" : "22"}}, {"type" : "Feature", "geometry" : {"type" : "Point", "coordinates" : [121.467743023051, 25.045542011524]}, "properties" : {"name" : "新北市都會西區原住民族家庭服務中心", "address" : "新北市三重區重新路五段６０９巷４號八樓", "city" : "新北市", "district" : "三重區", "district_code" : "65000020", "postal_code" : "241402", "tel" : "(02)29997258", "org_type" : null, "source_dataset" : "ntpe_1c1d0066", "seq_no" : "23"}}, {"type" : "Feature", "geometry" : {"type" : "Point", "coordinates" : [121.443937496023, 25.18706889599]}, "properties" : {"name" : "北海岸社會福利服務中心", "address" : "新北市淡水區中山北路二段３７５號八樓", "city" : "新北市", "district" : "淡水區", "district_code" : "65000100", "postal_code" : "251036", "tel" : "(02)26221615", "org_type" : null, "source_dataset" : "ntpe_1c1d0066", "seq_no" : "24"}}, {"type" : "Feature", "geometry" : {"type" : "Point", "coordinates" : [121.443937496023, 25.18706889599]}, "properties" : {"name" : "淡水區公所", "address" : "新北市淡水區中山北路二段３７５號四樓", "city" : "新北市", "district" : "淡水區", "district_code" : "65000100", "postal_code" : "251036", "tel" : "(02)26221020", "org_type" : null, "source_dataset" : "ntpe_1c1d0066", "seq_no" : "25"}}, {"type" : "Feature", "geometry" : {"type" : "Point", "coordinates" : [121.460530982102, 25.13672098291]}, "properties" : {"name" : "社團法人中宣社會福利發展協會", "address" : "新北市淡水區民族路１０號七樓", "city" : "新北市", "district" : "淡水區", "district_code" : "65000100", "postal_code" : "251027", "tel" : "(02)88095451", "org_type" : null, "source_dataset" : "ntpe_1c1d0066", "seq_no" : "26"}}, {"type" : "Feature", "geometry" : {"type" : "Point", "coordinates" : [121.50111506763, 25.257839819071]}, "properties" : {"name" : "三芝區公所", "address" : "新北市三芝區中山路一段３２號", "city" : "新北市", "district" : "三芝區", "district_code" : "65000210", "postal_code" : "252204", "tel" : "(02)26362111", "org_type" : null, "source_dataset" : "ntpe_1c1d0066", "seq_no" : "27"}}, {"type" : "Feature", "geometry" : {"type" : "Point", "coordinates" : [121.567861000806, 25.291211696012]}, "properties" : {"name" : "石門區公所", "address" : "新北市石門區尖鹿里中山路６６號", "city" : "新北市", "district" : "石門區", "district_code" : "65000220", "postal_code" : "253001", "tel" : "(02)26381721", "org_type" : null, "source_dataset" : "ntpe_1c1d0066", "seq_no" : "28"}}, {"type" : "Feature", "geometry" : {"type" : "Point", "coordinates" : [121.636607023718, 25.222323013107]}, "properties" : {"name" : "金山區公所", "address" : "新北市金山區金美里中正路１１號", "city" : "新北市", "district" : "金山區", "district_code" : "65000270", "postal_code" : "208206", "tel" : "(02)24985965", "org_type" : null, "source_dataset" : "ntpe_1c1d0066", "seq_no" : "29"}}, {"type" : "Feature", "geometry" : {"type" : "Point", "coordinates" : [121.689187205252, 25.178247990635]}, "properties" : {"name" : "萬里區公所", "address" : "新北市萬里區瑪鋉路１２３號", "city" : "新北市", "district" : "萬里區", "district_code" : "65000280", "postal_code" : "207201", "tel" : "(02)24922064", "org_type" : null, "source_dataset" : "ntpe_1c1d0066", "seq_no" : "30"}}, {"type" : "Feature", "geometry" : {"type" : "Point", "coordinates" : [121.427803002963, 25.029390000286]}, "properties" : {"name" : "新莊社會福利服務中心", "address" : "新北市新莊區福營路２７７號四樓", "city" : "新北市", "district" : "新莊區", "district_code" : "65000050", "postal_code" : "242054", "tel" : "(02)29067980", "org_type" : null, "source_dataset" : "ntpe_1c1d0066", "seq_no" : "31"}}, {"type" : "Feature", "geometry" : {"type" : "Point", "coordinates" : [121.4551570087, 25.041825014652]}, "properties" : {"name" : "新北市樂慧身心障礙者家庭資源中心", "address" : "新北市新莊區中港路１７２號二樓", "city" : "新北市", "district" : "新莊區", "district_code" : "65000050", "postal_code" : "242016", "tel" : "(02)29971951", "org_type" : null, "source_dataset" : "ntpe_1c1d0066", "seq_no" : "33"}}, {"type" : "Feature", "geometry" : {"type" : "Point", "coordinates" : [121.431448963206, 25.059330996619]}, "properties" : {"name" : "泰山區公所", "address" : "新北市泰山區明志路一段３２２號", "city" : "新北市", "district" : "泰山區", "district_code" : "65000160", "postal_code" : "243084", "tel" : "(02)29099551", "org_type" : null, "source_dataset" : "ntpe_1c1d0066", "seq_no" : "34"}}, {"type" : "Feature", "geometry" : {"type" : "Point", "coordinates" : [121.431448963206, 25.059330996619]}, "properties" : {"name" : "泰五林社會福利服務中心", "address" : "新北市泰山區明志路一段３２２號一樓", "city" : "新北市", "district" : "泰山區", "district_code" : "65000160", "postal_code" : "243084", "tel" : "(02)85318061", "org_type" : null, "source_dataset" : "ntpe_1c1d0066", "seq_no" : "35"}}, {"type" : "Feature", "geometry" : {"type" : "Point", "coordinates" : [121.388524063578, 25.0767405867]}, "properties" : {"name" : "林口區公所", "address" : "新北市林口區仁愛路一段３７８號", "city" : "新北市", "district" : "林口區", "district_code" : "65000170", "postal_code" : "244014", "tel" : "(02)26033111", "org_type" : null, "source_dataset" : "ntpe_1c1d0066", "seq_no" : "36"}}, {"type" : "Feature", "geometry" : {"type" : "Point", "coordinates" : [121.506688027413, 24.989749004594]}, "properties" : {"name" : "中和社會福利服務中心", "address" : "新北市中和區南山路２３６號九樓", "city" : "新北市", "district" : "中和區", "district_code" : "65000030", "postal_code" : "235048", "tel" : "(02)86688826", "org_type" : null, "source_dataset" : "ntpe_1c1d0066", "seq_no" : "37"}}, {"type" : "Feature", "geometry" : {"type" : "Point", "coordinates" : [121.50022423896, 24.998103205579]}, "properties" : {"name" : "中和區公所", "address" : "新北市中和區景平路６３４之２號", "city" : "新北市", "district" : "中和區", "district_code" : "65000030", "postal_code" : "235210", "tel" : "(02)22482688", "org_type" : null, "source_dataset" : "ntpe_1c1d0066", "seq_no" : "38"}}, {"type" : "Feature", "geometry" : {"type" : "Point", "coordinates" : [121.505293693544, 24.995099005531]}, "properties" : {"name" : "中和就業服務站", "address" : "新北市中和區景安路１１８號", "city" : "新北市", "district" : "中和區", "district_code" : "65000030", "postal_code" : "235070", "tel" : "(02)22465066", "org_type" : null, "source_dataset" : "ntpe_1c1d0066", "seq_no" : "39"}}, {"type" : "Feature", "geometry" : {"type" : "Point", "coordinates" : [121.520483634211, 25.009177711331]}, "properties" : {"name" : "永和區公所", "address" : "新北市永和區竹林路２００號", "city" : "新北市", "district" : "永和區", "district_code" : "65000040", "postal_code" : "234201", "tel" : "(02)29282828", "org_type" : null, "source_dataset" : "ntpe_1c1d0066", "seq_no" : "40"}}, {"type" : "Feature", "geometry" : {"type" : "Point", "coordinates" : [121.65897689837, 25.063828600135]}, "properties" : {"name" : "七星社會福利服務中心", "address" : "新北市汐止區新台五路一段２６８號七樓", "city" : "新北市", "district" : "汐止區", "district_code" : "65000110", "postal_code" : "221221", "tel" : "(02)26470855", "org_type" : null, "source_dataset" : "ntpe_1c1d0066", "seq_no" : "41"}}, {"type" : "Feature", "geometry" : {"type" : "Point", "coordinates" : [121.65897689837, 25.063828600135]}, "properties" : {"name" : "汐止區公所", "address" : "新北市汐止區新台五路一段２６８號一樓", "city" : "新北市", "district" : "汐止區", "district_code" : "65000110", "postal_code" : "221221", "tel" : "(02)26411111", "org_type" : null, "source_dataset" : "ntpe_1c1d0066", "seq_no" : "42"}}, {"type" : "Feature", "geometry" : {"type" : "Point", "coordinates" : [121.646815008319, 25.088495996356]}, "properties" : {"name" : "新北市及時傳愛慈善協會", "address" : "新北市汐止區汐萬路二段２３０號", "city" : "新北市", "district" : "汐止區", "district_code" : "65000110", "postal_code" : "221033", "tel" : null, "org_type" : null, "source_dataset" : "ntpe_1c1d0066", "seq_no" : "43"}}, {"type" : "Feature", "geometry" : {"type" : "Point", "coordinates" : [121.809859118336, 25.108889585877]}, "properties" : {"name" : "瑞芳區公所", "address" : "新北市瑞芳區逢甲路８２號", "city" : "新北市", "district" : "瑞芳區", "district_code" : "65000120", "postal_code" : "224202", "tel" : "(02)24972250", "org_type" : null, "source_dataset" : "ntpe_1c1d0066", "seq_no" : "44"}}, {"type" : "Feature", "geometry" : {"type" : "Point", "coordinates" : [121.806597300715, 25.109546098443]}, "properties" : {"name" : "瑞芳社會福利服務中心", "address" : "新北市瑞芳區瑞芳街２３號四樓", "city" : "新北市", "district" : "瑞芳區", "district_code" : "65000120", "postal_code" : "224001", "tel" : "(02)24966116", "org_type" : null, "source_dataset" : "ntpe_1c1d0066", "seq_no" : "45"}}, {"type" : "Feature", "geometry" : {"type" : "Point", "coordinates" : [121.865745960672, 25.033651988503]}, "properties" : {"name" : "雙溪區公所", "address" : "新北市雙溪區東榮街２５號", "city" : "新北市", "district" : "雙溪區", "district_code" : "65000250", "postal_code" : "227201", "tel" : "(02)24931111", "org_type" : null, "source_dataset" : "ntpe_1c1d0066", "seq_no" : "46"}}, {"type" : "Feature", "geometry" : {"type" : "Point", "coordinates" : [121.905092039101, 25.020483012786]}, "properties" : {"name" : "貢寮區公所", "address" : "新北市貢寮區長泰路２０之１號", "city" : "新北市", "district" : "貢寮區", "district_code" : "65000260", "postal_code" : "228003", "tel" : "(02)24941601", "org_type" : null, "source_dataset" : "ntpe_1c1d0066", "seq_no" : "47"}}, {"type" : "Feature", "geometry" : {"type" : "Point", "coordinates" : [121.738223015209, 25.026749994153]}, "properties" : {"name" : "平溪區公所", "address" : "新北市平溪區平溪里平溪街４５號", "city" : "新北市", "district" : "平溪區", "district_code" : "65000240", "postal_code" : "226001", "tel" : "(02)24951510", "org_type" : null, "source_dataset" : "ntpe_1c1d0066", "seq_no" : "48"}}, {"type" : "Feature", "geometry" : {"type" : "Point", "coordinates" : [121.481602332313, 25.084811898454]}, "properties" : {"name" : "蘆洲社會福利服務中心", "address" : "新北市蘆洲區集賢路２４５號六樓", "city" : "新北市", "district" : "蘆洲區", "district_code" : "65000140", "postal_code" : "247018", "tel" : "(02)22891300", "org_type" : null, "source_dataset" : "ntpe_1c1d0066", "seq_no" : "49"}}, {"type" : "Feature", "geometry" : {"type" : "Point", "coordinates" : [121.473906990827, 25.084788010029]}, "properties" : {"name" : "蘆洲區公所", "address" : "新北市蘆洲區三民路９５號", "city" : "新北市", "district" : "蘆洲區", "district_code" : "65000140", "postal_code" : "247010", "tel" : "(02)22811484", "org_type" : null, "source_dataset" : "ntpe_1c1d0066", "seq_no" : "50"}}, {"type" : "Feature", "geometry" : {"type" : "Point", "coordinates" : [121.438046694471, 25.083087196147]}, "properties" : {"name" : "五股區公所", "address" : "新北市五股區中興路四段５０號一樓", "city" : "新北市", "district" : "五股區", "district_code" : "65000150", "postal_code" : "248501", "tel" : "(02)22916051", "org_type" : null, "source_dataset" : "ntpe_1c1d0066", "seq_no" : "51"}}, {"type" : "Feature", "geometry" : {"type" : "Point", "coordinates" : [121.409928290708, 25.157001976346]}, "properties" : {"name" : "八里區公所", "address" : "新北市八里區中山路二段３５６巷１６號", "city" : "新北市", "district" : "八里區", "district_code" : "65000230", "postal_code" : "249004", "tel" : "(02)26102621", "org_type" : null, "source_dataset" : "ntpe_1c1d0066", "seq_no" : "52"}}, {"type" : "Feature", "geometry" : {"type" : "Point", "coordinates" : [121.422677972085, 24.995081990489]}, "properties" : {"name" : "樹鶯社會福利服務中心", "address" : "新北市樹林區保安街一段７號三樓", "city" : "新北市", "district" : "樹林區", "district_code" : "65000070", "postal_code" : "238001", "tel" : "(02)26750315", "org_type" : null, "source_dataset" : "ntpe_1c1d0066", "seq_no" : "53"}}, {"type" : "Feature", "geometry" : {"type" : "Point", "coordinates" : [121.424518973299, 24.989947990975]}, "properties" : {"name" : "樹林區公所", "address" : "新北市樹林區鎮前街９３號", "city" : "新北市", "district" : "樹林區", "district_code" : "65000070", "postal_code" : "238005", "tel" : "(02)26812106", "org_type" : null, "source_dataset" : "ntpe_1c1d0066", "seq_no" : "54"}}, {"type" : "Feature", "geometry" : {"type" : "Point", "coordinates" : [121.354367975776, 24.955862981712]}, "properties" : {"name" : "鶯歌區公所", "address" : "新北市鶯歌區仁愛路５５號", "city" : "新北市", "district" : "鶯歌區", "district_code" : "65000080", "postal_code" : "239217", "tel" : "(02)26780202", "org_type" : null, "source_dataset" : "ntpe_1c1d0066", "seq_no" : "55"}}, {"type" : "Feature", "geometry" : {"type" : "Point", "coordinates" : [121.50845166366, 25.008109898776]}, "properties" : {"name" : "永和社會福利服務中心", "address" : "新北市永和區永和區中山路一段213號3樓之1", "city" : "新北市", "district" : "永和區", "district_code" : "65000010", "postal_code" : "234017\t", "tel" : "(02)80211001", "org_type" : null, "source_dataset" : "ntpe_1c1d0066", "seq_no" : "57"}}]}
