{
  "type": "FeatureCollection",
  "name": "taipei_newtaipei_hospitals_food_poisoning_beds",
  "crs": {
    "type": "name",
    "properties": {
      "name": "EPSG:4326"
    }
  },
  "features": [
    {
      "type": "Feature",
      "geometry": {
        "type": "Point",
        "coordinates": [
          121.6284,
          25.2194
        ]
      },
      "properties": {
        "縣市": "新北市",
        "行政區": "金山區",
        "醫院名稱": "國立臺灣大學醫學院附設醫院金山分院",
        "地址": "新北市金山區五湖里玉爐路7號",
        "電話": "02-24989898",
        "補齊醫事機構代碼": "431270012",
        "食物中毒_急診觀察床": 5,
        "食物中毒_急性一般病床": 48,
        "食物中毒_核心病床數": 53,
        "食物中毒_加護病床": null,
        "食物中毒_隔離病床": null,
        "食物中毒_相關病床總數": 53
      }
    },
    {
      "type": "Feature",
      "geometry": {
        "type": "Point",
        "coordinates": [
          121.4523,
          24.9973
        ]
      },
      "properties": {
        "縣市": "新北市",
        "行政區": "板橋區",
        "醫院名稱": "醫療財團法人徐元智先生醫藥基金會亞東紀念醫院",
        "地址": "新北市板橋區南雅南路二段21號及高爾富路300號",
        "電話": "02-89667000",
        "補齊醫事機構代碼": "1131010011",
        "食物中毒_急診觀察床": null,
        "食物中毒_急性一般病床": 740,
        "食物中毒_核心病床數": 740,
        "食物中毒_加護病床": null,
        "食物中毒_隔離病床": null,
        "食物中毒_相關病床總數": 740
      }
    },
    {
      "type": "Feature",
      "geometry": {
        "type": "Point",
        "coordinates": [
          121.4603,
          25.002
        ]
      },
      "properties": {
        "縣市": "新北市",
        "行政區": "板橋區",
        "醫院名稱": "板橋中興醫院",
        "地址": "新北市板橋區忠孝路十五號",
        "電話": "02-29531919",
        "補齊醫事機構代碼": "1531010279",
        "食物中毒_急診觀察床": null,
        "食物中毒_急性一般病床": 71,
        "食物中毒_核心病床數": 71,
        "食物中毒_加護病床": null,
        "食物中毒_隔離病床": null,
        "食物中毒_相關病床總數": 71
      }
    },
    {
      "type": "Feature",
      "geometry": {
        "type": "Point",
        "coordinates": [
          121.4601,
          25.002
        ]
      },
      "properties": {
        "縣市": "新北市",
        "行政區": "板橋區",
        "醫院名稱": "板橋國泰醫院",
        "地址": "新北市板橋區忠孝路五、七、九、十一號一至三樓。",
        "電話": "02-29583333",
        "補齊醫事機構代碼": "1531011310",
        "食物中毒_急診觀察床": null,
        "食物中毒_急性一般病床": 18,
        "食物中毒_核心病床數": 18,
        "食物中毒_加護病床": null,
        "食物中毒_隔離病床": null,
        "食物中毒_相關病床總數": 18
      }
    },
    {
      "type": "Feature",
      "geometry": {
        "type": "Point",
        "coordinates": [
          121.4564,
          25.0169
        ]
      },
      "properties": {
        "縣市": "新北市",
        "行政區": "板橋區",
        "醫院名稱": "板新醫院",
        "地址": "新北市板橋區中正路１８９號",
        "電話": "02-29609955",
        "補齊醫事機構代碼": "1531010082",
        "食物中毒_急診觀察床": 0,
        "食物中毒_急性一般病床": 20,
        "食物中毒_核心病床數": 20,
        "食物中毒_加護病床": null,
        "食物中毒_隔離病床": null,
        "食物中毒_相關病床總數": 20
      }
    },
    {
      "type": "Feature",
      "geometry": {
        "type": "Point",
        "coordinates": [
          121.4646,
          25.0185
        ]
      },
      "properties": {
        "縣市": "新北市",
        "行政區": "板橋區",
        "醫院名稱": "中英醫療社團法人板英醫院",
        "地址": "新北市板橋區文化路1段267、269、271號1-4樓",
        "電話": "02-82513923",
        "補齊醫事機構代碼": "931010025",
        "食物中毒_急診觀察床": null,
        "食物中毒_急性一般病床": 20,
        "食物中毒_核心病床數": 20,
        "食物中毒_加護病床": null,
        "食物中毒_隔離病床": null,
        "食物中毒_相關病床總數": 20
      }
    },
    {
      "type": "Feature",
      "geometry": {
        "type": "Point",
        "coordinates": [
          121.4662,
          25.0198
        ]
      },
      "properties": {
        "縣市": "新北市",
        "行政區": "板橋區",
        "醫院名稱": "中英醫療社團法人中英醫院",
        "地址": "新北市板橋區文化路一段192之1號1樓、194號1至4樓、196號1至4樓、198號1至4樓、200號1至4樓、202號1至4樓、204號1至4樓",
        "電話": "02-22563584",
        "補齊醫事機構代碼": "931010016",
        "食物中毒_急診觀察床": null,
        "食物中毒_急性一般病床": 38,
        "食物中毒_核心病床數": 38,
        "食物中毒_加護病床": 9,
        "食物中毒_隔離病床": null,
        "食物中毒_相關病床總數": 47
      }
    },
    {
      "type": "Feature",
      "geometry": {
        "type": "Point",
        "coordinates": [
          121.4565,
          25.007
        ]
      },
      "properties": {
        "縣市": "新北市",
        "行政區": "板橋區",
        "醫院名稱": "蕭中正醫院",
        "地址": "新北市板橋區南雅南路一段15號之1、17號、19號(1、2、3、4樓)",
        "電話": "02-29687095",
        "補齊醫事機構代碼": "1531010108",
        "食物中毒_急診觀察床": 1,
        "食物中毒_急性一般病床": 20,
        "食物中毒_核心病床數": 21,
        "食物中毒_加護病床": 2,
        "食物中毒_隔離病床": null,
        "食物中毒_相關病床總數": 23
      }
    },
    {
      "type": "Feature",
      "geometry": {
        "type": "Point",
        "coordinates": [
          121.6611,
          25.0729
        ]
      },
      "properties": {
        "縣市": "新北市",
        "行政區": "汐止區",
        "醫院名稱": "國泰醫療財團法人汐止國泰綜合醫院",
        "地址": "新北市汐止區建成路59巷2號地下4樓至地上12樓",
        "電話": "02-26482121",
        "補齊醫事機構代碼": "1131110516",
        "食物中毒_急診觀察床": null,
        "食物中毒_急性一般病床": null,
        "食物中毒_核心病床數": null,
        "食物中毒_加護病床": null,
        "食物中毒_隔離病床": null,
        "食物中毒_相關病床總數": null
      }
    },
    {
      "type": "Feature",
      "geometry": {
        "type": "Point",
        "coordinates": [
          121.8026,
          25.1083
        ]
      },
      "properties": {
        "縣市": "新北市",
        "行政區": "瑞芳區",
        "醫院名稱": "瑞芳礦工醫院",
        "地址": "新北市瑞芳區一坑路71之2號",
        "電話": "02-24974101",
        "補齊醫事機構代碼": "1531120038",
        "食物中毒_急診觀察床": null,
        "食物中毒_急性一般病床": 20,
        "食物中毒_核心病床數": 20,
        "食物中毒_加護病床": null,
        "食物中毒_隔離病床": null,
        "食物中毒_相關病床總數": 20
      }
    },
    {
      "type": "Feature",
      "geometry": {
        "type": "Point",
        "coordinates": [
          121.5356,
          24.9841
        ]
      },
      "properties": {
        "縣市": "新北市",
        "行政區": "新店區",
        "醫院名稱": "佛教慈濟醫療財團法人台北慈濟醫院",
        "地址": "新北市新店區建國路277號地上1、3、4樓及289號地下1至3樓至地上1至15樓",
        "電話": "02-66289779",
        "補齊醫事機構代碼": "1131050515",
        "食物中毒_急診觀察床": 40,
        "食物中毒_急性一般病床": null,
        "食物中毒_核心病床數": 40,
        "食物中毒_加護病床": null,
        "食物中毒_隔離病床": null,
        "食物中毒_相關病床總數": 40
      }
    },
    {
      "type": "Feature",
      "geometry": {
        "type": "Point",
        "coordinates": [
          121.488,
          24.9386
        ]
      },
      "properties": {
        "縣市": "新北市",
        "行政區": "新店區",
        "醫院名稱": "宏慈療養院",
        "地址": "新北市新店區安泰路１５７號",
        "電話": "02-22151177",
        "補齊醫事機構代碼": "1531050086",
        "食物中毒_急診觀察床": null,
        "食物中毒_急性一般病床": null,
        "食物中毒_核心病床數": null,
        "食物中毒_加護病床": null,
        "食物中毒_隔離病床": null,
        "食物中毒_相關病床總數": null
      }
    },
    {
      "type": "Feature",
      "geometry": {
        "type": "Point",
        "coordinates": [
          121.4997,
          24.9555
        ]
      },
      "properties": {
        "縣市": "新北市",
        "行政區": "新店區",
        "醫院名稱": "新北仁康醫院",
        "地址": "新北市新店區安康路2段323號地上1至2樓",
        "電話": "02-22152345",
        "補齊醫事機構代碼": "1531051127",
        "食物中毒_急診觀察床": null,
        "食物中毒_急性一般病床": 44,
        "食物中毒_核心病床數": 44,
        "食物中毒_加護病床": null,
        "食物中毒_隔離病床": null,
        "食物中毒_相關病床總數": 44
      }
    },
    {
      "type": "Feature",
      "geometry": {
        "type": "Point",
        "coordinates": [
          121.5377,
          24.9828
        ]
      },
      "properties": {
        "縣市": "新北市",
        "行政區": "新店區",
        "醫院名稱": "同仁醫院",
        "地址": "新北市新店區民權路８９號",
        "電話": "02-29170201",
        "補齊醫事機構代碼": "1531050077",
        "食物中毒_急診觀察床": null,
        "食物中毒_急性一般病床": 20,
        "食物中毒_核心病床數": 20,
        "食物中毒_加護病床": null,
        "食物中毒_隔離病床": null,
        "食物中毒_相關病床總數": 20
      }
    },
    {
      "type": "Feature",
      "geometry": {
        "type": "Point",
        "coordinates": [
          121.514,
          24.9589
        ]
      },
      "properties": {
        "縣市": "新北市",
        "行政區": "新店區",
        "醫院名稱": "怡濟慈園醫療社團法人宏濟神經精神科醫院",
        "地址": "新北市新店區安忠路57巷5號",
        "電話": "02-22118899",
        "補齊醫事機構代碼": "931050010",
        "食物中毒_急診觀察床": null,
        "食物中毒_急性一般病床": null,
        "食物中毒_核心病床數": null,
        "食物中毒_加護病床": null,
        "食物中毒_隔離病床": null,
        "食物中毒_相關病床總數": null
      }
    },
    {
      "type": "Feature",
      "geometry": {
        "type": "Point",
        "coordinates": [
          121.5356,
          24.9761
        ]
      },
      "properties": {
        "縣市": "新北市",
        "行政區": "新店區",
        "醫院名稱": "天主教耕莘醫療財團法人耕莘醫院",
        "地址": "新北市新店區中正路362號",
        "電話": "02-22193391",
        "補齊醫事機構代碼": "1231050017",
        "食物中毒_急診觀察床": null,
        "食物中毒_急性一般病床": null,
        "食物中毒_核心病床數": null,
        "食物中毒_加護病床": null,
        "食物中毒_隔離病床": null,
        "食物中毒_相關病床總數": null
      }
    },
    {
      "type": "Feature",
      "geometry": {
        "type": "Point",
        "coordinates": [
          121.5179,
          25.0119
        ]
      },
      "properties": {
        "縣市": "新北市",
        "行政區": "永和區",
        "醫院名稱": "天主教耕莘醫療財團法人永和耕莘醫院",
        "地址": "新北市永和區中興街80號地下1樓至地上6樓及國光路123號地下3樓至地上11樓",
        "電話": "02-29286060",
        "補齊醫事機構代碼": "1231030015",
        "食物中毒_急診觀察床": 10,
        "食物中毒_急性一般病床": null,
        "食物中毒_核心病床數": 10,
        "食物中毒_加護病床": null,
        "食物中毒_隔離病床": null,
        "食物中毒_相關病床總數": 10
      }
    },
    {
      "type": "Feature",
      "geometry": {
        "type": "Point",
        "coordinates": [
          121.512,
          25.004
        ]
      },
      "properties": {
        "縣市": "新北市",
        "行政區": "永和區",
        "醫院名稱": "永和復康醫院",
        "地址": "新北市永和區中和路575、577、579號1至4樓",
        "電話": "02-29240925",
        "補齊醫事機構代碼": "1531031278",
        "食物中毒_急診觀察床": null,
        "食物中毒_急性一般病床": 20,
        "食物中毒_核心病床數": 20,
        "食物中毒_加護病床": null,
        "食物中毒_隔離病床": null,
        "食物中毒_相關病床總數": 20
      }
    },
    {
      "type": "Feature",
      "geometry": {
        "type": "Point",
        "coordinates": [
          121.4941,
          24.9937
        ]
      },
      "properties": {
        "縣市": "新北市",
        "行政區": "中和區",
        "醫院名稱": "衛生福利部雙和醫院(委託臺北醫學大學興建經營)",
        "地址": "新北市中和區中正路291號醫療大樓地下2層至地上12層",
        "電話": "02-22490088",
        "補齊醫事機構代碼": "1331040513",
        "食物中毒_急診觀察床": null,
        "食物中毒_急性一般病床": null,
        "食物中毒_核心病床數": null,
        "食物中毒_加護病床": null,
        "食物中毒_隔離病床": null,
        "食物中毒_相關病床總數": null
      }
    },
    {
      "type": "Feature",
      "geometry": {
        "type": "Point",
        "coordinates": [
          121.460731,
          25.039587
        ]
      },
      "properties": {
        "縣市": "新北市",
        "行政區": "新莊區",
        "醫院名稱": "祥顥醫院",
        "地址": "新北市新莊區思源路2號1、4、5、6樓",
        "電話": "02-29468795",
        "補齊醫事機構代碼": "1531061258",
        "食物中毒_急診觀察床": null,
        "食物中毒_急性一般病床": null,
        "食物中毒_核心病床數": null,
        "食物中毒_加護病床": null,
        "食物中毒_隔離病床": null,
        "食物中毒_相關病床總數": null
      }
    },
    {
      "type": "Feature",
      "geometry": {
        "type": "Point",
        "coordinates": [
          121.4985,
          25.0019
        ]
      },
      "properties": {
        "縣市": "新北市",
        "行政區": "中和區",
        "醫院名稱": "怡和醫院",
        "地址": "新北市中和區連城路49號1至4樓",
        "電話": "02-22450009",
        "補齊醫事機構代碼": "1531041390",
        "食物中毒_急診觀察床": null,
        "食物中毒_急性一般病床": 34,
        "食物中毒_核心病床數": 34,
        "食物中毒_加護病床": null,
        "食物中毒_隔離病床": null,
        "食物中毒_相關病床總數": 34
      }
    },
    {
      "type": "Feature",
      "geometry": {
        "type": "Point",
        "coordinates": [
          121.4809,
          25.0054
        ]
      },
      "properties": {
        "縣市": "新北市",
        "行政區": "中和區",
        "醫院名稱": "蕙生醫院",
        "地址": "新北市中和區中山路二段551號地下一樓至地上一至六樓",
        "電話": "02-32346688",
        "補齊醫事機構代碼": "1531041363",
        "食物中毒_急診觀察床": 1,
        "食物中毒_急性一般病床": 20,
        "食物中毒_核心病床數": 21,
        "食物中毒_加護病床": null,
        "食物中毒_隔離病床": null,
        "食物中毒_相關病床總數": 21
      }
    },
    {
      "type": "Feature",
      "geometry": {
        "type": "Point",
        "coordinates": [
          121.5021,
          25.0032
        ]
      },
      "properties": {
        "縣市": "新北市",
        "行政區": "中和區",
        "醫院名稱": "中祥醫院",
        "地址": "新北市中和區中山路二段138號〈二至四樓〉?140及142號〈一至四樓〉",
        "電話": "02-22405055",
        "補齊醫事機構代碼": "1531040259",
        "食物中毒_急診觀察床": null,
        "食物中毒_急性一般病床": 20,
        "食物中毒_核心病床數": 20,
        "食物中毒_加護病床": null,
        "食物中毒_隔離病床": null,
        "食物中毒_相關病床總數": 20
      }
    },
    {
      "type": "Feature",
      "geometry": {
        "type": "Point",
        "coordinates": [
          121.455,
          24.9822
        ]
      },
      "properties": {
        "縣市": "新北市",
        "行政區": "土城區",
        "醫院名稱": "廣川醫院",
        "地址": "新北市土城區裕民路２７４．２７６．２７８號",
        "電話": "02-22617000",
        "補齊醫事機構代碼": "1531130052",
        "食物中毒_急診觀察床": 1,
        "食物中毒_急性一般病床": 38,
        "食物中毒_核心病床數": 39,
        "食物中毒_加護病床": null,
        "食物中毒_隔離病床": null,
        "食物中毒_相關病床總數": 39
      }
    },
    {
      "type": "Feature",
      "geometry": {
        "type": "Point",
        "coordinates": [
          121.4487,
          24.9911
        ]
      },
      "properties": {
        "縣市": "新北市",
        "行政區": "土城區",
        "醫院名稱": "恩樺醫院",
        "地址": "新北市土城區中央路一段7-18號地下1樓、1樓、2樓、4至10樓",
        "電話": "02-22639955",
        "補齊醫事機構代碼": "1531131157",
        "食物中毒_急診觀察床": null,
        "食物中毒_急性一般病床": 125,
        "食物中毒_核心病床數": 125,
        "食物中毒_加護病床": null,
        "食物中毒_隔離病床": null,
        "食物中毒_相關病床總數": 125
      }
    },
    {
      "type": "Feature",
      "geometry": {
        "type": "Point",
        "coordinates": [
          121.4474,
          24.9895
        ]
      },
      "properties": {
        "縣市": "新北市",
        "行政區": "土城區",
        "醫院名稱": "仁安醫院",
        "地址": "新北市土城區中央路1段六二．六四號1-５樓中華路一段一號2-5樓三號1-5樓",
        "電話": "02-22627088",
        "補齊醫事機構代碼": "1531130105",
        "食物中毒_急診觀察床": null,
        "食物中毒_急性一般病床": null,
        "食物中毒_核心病床數": null,
        "食物中毒_加護病床": null,
        "食物中毒_隔離病床": null,
        "食物中毒_相關病床總數": null
      }
    },
    {
      "type": "Feature",
      "geometry": {
        "type": "Point",
        "coordinates": [
          121.44866193019139,
          24.97630228359826
        ]
      },
      "properties": {
        "縣市": "新北市",
        "行政區": "土城區",
        "醫院名稱": "新北市立土城醫院(委託長庚醫療財團法人興建經營)",
        "地址": "新北市土城區金城路二段6號",
        "電話": "02-22630588",
        "補齊醫事機構代碼": "1131130018",
        "食物中毒_急診觀察床": null,
        "食物中毒_急性一般病床": null,
        "食物中毒_核心病床數": null,
        "食物中毒_加護病床": null,
        "食物中毒_隔離病床": null,
        "食物中毒_相關病床總數": null
      }
    },
    {
      "type": "Feature",
      "geometry": {
        "type": "Point",
        "coordinates": [
          121.4403,
          24.9728
        ]
      },
      "properties": {
        "縣市": "新北市",
        "行政區": "土城區",
        "醫院名稱": "元復醫院",
        "地址": "新北市土城區中央路2段318．320．322．324號1至4樓",
        "電話": "02-22661886",
        "補齊醫事機構代碼": "1531131139",
        "食物中毒_急診觀察床": null,
        "食物中毒_急性一般病床": 20,
        "食物中毒_核心病床數": 20,
        "食物中毒_加護病床": null,
        "食物中毒_隔離病床": null,
        "食物中毒_相關病床總數": 20
      }
    },
    {
      "type": "Feature",
      "geometry": {
        "type": "Point",
        "coordinates": [
          121.3782,
          24.9307
        ]
      },
      "properties": {
        "縣市": "新北市",
        "行政區": "三峽區",
        "醫院名稱": "永聖醫療社團法人文化醫院",
        "地址": "新北市三峽區介壽路1段199號",
        "電話": "02-26732885",
        "補齊醫事機構代碼": "931090014",
        "食物中毒_急診觀察床": null,
        "食物中毒_急性一般病床": 30,
        "食物中毒_核心病床數": 30,
        "食物中毒_加護病床": null,
        "食物中毒_隔離病床": null,
        "食物中毒_相關病床總數": 30
      }
    },
    {
      "type": "Feature",
      "geometry": {
        "type": "Point",
        "coordinates": [
          121.3802,
          24.929
        ]
      },
      "properties": {
        "縣市": "新北市",
        "行政區": "三峽區",
        "醫院名稱": "清福醫院",
        "地址": "新北市三峽區介壽路一段286號2樓",
        "電話": "02-26739288",
        "補齊醫事機構代碼": "1531091130",
        "食物中毒_急診觀察床": null,
        "食物中毒_急性一般病床": 20,
        "食物中毒_核心病床數": 20,
        "食物中毒_加護病床": null,
        "食物中毒_隔離病床": null,
        "食物中毒_相關病床總數": 20
      }
    },
    {
      "type": "Feature",
      "geometry": {
        "type": "Point",
        "coordinates": [
          121.5097013,
          25.1398048
        ]
      },
      "properties": {
        "縣市": "臺北市",
        "行政區": "北投區",
        "醫院名稱": "三軍總醫院北投分院附設民眾診療服務處",
        "地址": "臺北市北投區新民路60號、中和街250號1至4樓、永興路二段2號1至2樓",
        "電話": "(02)28959808",
        "補齊醫事機構代碼": "0501160014",
        "食物中毒_急診觀察床": 6,
        "食物中毒_急性一般病床": 0,
        "食物中毒_核心病床數": 6,
        "食物中毒_加護病床": 0,
        "食物中毒_隔離病床": 0,
        "食物中毒_相關病床總數": 6
      }
    },
    {
      "type": "Feature",
      "geometry": {
        "type": "Point",
        "coordinates": [
          121.5577045,
          25.05394015
        ]
      },
      "properties": {
        "縣市": "臺北市",
        "行政區": "松山區",
        "醫院名稱": "三軍總醫院松山分院附設民眾診療服務處",
        "地址": "臺北市松山區健康路１３１號",
        "電話": "(02)27462151",
        "補齊醫事機構代碼": "0501010019",
        "食物中毒_急診觀察床": 14,
        "食物中毒_急性一般病床": 216,
        "食物中毒_核心病床數": 230,
        "食物中毒_加護病床": 20,
        "食物中毒_隔離病床": 6,
        "食物中毒_相關病床總數": 256
      }
    },
    {
      "type": "Feature",
      "geometry": {
        "type": "Point",
        "coordinates": [
          121.5919821,
          25.07180042
        ]
      },
      "properties": {
        "縣市": "臺北市",
        "行政區": "內湖區",
        "醫院名稱": "三軍總醫院附設民眾診療服務處",
        "地址": "臺北市內湖區成功路二段325號；臺北市中正區汀州路3段40號",
        "電話": "(02)87923311",
        "補齊醫事機構代碼": "0501110514",
        "食物中毒_急診觀察床": 61,
        "食物中毒_急性一般病床": 1250,
        "食物中毒_核心病床數": 1311,
        "食物中毒_加護病床": 137,
        "食物中毒_隔離病床": 18,
        "食物中毒_相關病床總數": 1466
      }
    },
    {
      "type": "Feature",
      "geometry": {
        "type": "Point",
        "coordinates": [
          121.5497106,
          25.03655173
        ]
      },
      "properties": {
        "縣市": "臺北市",
        "行政區": "大安區",
        "醫院名稱": "中山醫療社團法人中山醫院",
        "地址": "臺北市大安區仁愛路四段112巷11號、臺北市仁愛路四 段112巷12號1-4樓",
        "電話": "(02)27081166",
        "補齊醫事機構代碼": "0901020013",
        "食物中毒_急診觀察床": 6,
        "食物中毒_急性一般病床": 134,
        "食物中毒_核心病床數": 140,
        "食物中毒_加護病床": 6,
        "食物中毒_隔離病床": 0,
        "食物中毒_相關病床總數": 146
      }
    },
    {
      "type": "Feature",
      "geometry": {
        "type": "Point",
        "coordinates": [
          121.5473297,
          25.04186487
        ]
      },
      "properties": {
        "縣市": "臺北市",
        "行政區": "大安區",
        "醫院名稱": "中心診所醫療財團法人中心綜合醫院",
        "地址": "臺北市大安區忠孝東路四段７７號",
        "電話": "(02)27510221",
        "補齊醫事機構代碼": "1101020027",
        "食物中毒_急診觀察床": 8,
        "食物中毒_急性一般病床": 109,
        "食物中毒_核心病床數": 117,
        "食物中毒_加護病床": 6,
        "食物中毒_隔離病床": 0,
        "食物中毒_相關病床總數": 123
      }
    },
    {
      "type": "Feature",
      "geometry": {
        "type": "Point",
        "coordinates": [
          121.5905997,
          25.08212491
        ]
      },
      "properties": {
        "縣市": "臺北市",
        "行政區": "內湖區",
        "醫院名稱": "中國醫藥大學附設醫院臺北分院",
        "地址": "臺北市內湖區內湖路二段360號、362號",
        "電話": "(02)27919696",
        "補齊醫事機構代碼": "1301110511",
        "食物中毒_急診觀察床": 0,
        "食物中毒_急性一般病床": 99,
        "食物中毒_核心病床數": 99,
        "食物中毒_加護病床": 0,
        "食物中毒_隔離病床": 0,
        "食物中毒_相關病床總數": 99
      }
    },
    {
      "type": "Feature",
      "geometry": {
        "type": "Point",
        "coordinates": [
          121.522558,
          25.05888423
        ]
      },
      "properties": {
        "縣市": "臺北市",
        "行政區": "中山區",
        "醫院名稱": "台灣基督長老教會馬偕醫療財團法人馬偕兒童醫院",
        "地址": "臺北市中山區中山北路2段92號",
        "電話": "(02)25433535",
        "補齊醫事機構代碼": "1101100020",
        "食物中毒_急診觀察床": 0,
        "食物中毒_急性一般病床": 88,
        "食物中毒_核心病床數": 88,
        "食物中毒_加護病床": 35,
        "食物中毒_隔離病床": 10,
        "食物中毒_相關病床總數": 133
      }
    },
    {
      "type": "Feature",
      "geometry": {
        "type": "Point",
        "coordinates": [
          121.522558,
          25.05888423
        ]
      },
      "properties": {
        "縣市": "臺北市",
        "行政區": "中山區",
        "醫院名稱": "台灣基督長老教會馬偕醫療財團法人馬偕紀念醫院",
        "地址": "臺北市中山區中山北路二段９２號",
        "電話": "(02)25433535",
        "補齊醫事機構代碼": "1101100011",
        "食物中毒_急診觀察床": 39,
        "食物中毒_急性一般病床": 634,
        "食物中毒_核心病床數": 673,
        "食物中毒_加護病床": 65,
        "食物中毒_隔離病床": 2,
        "食物中毒_相關病床總數": 740
      }
    },
    {
      "type": "Feature",
      "geometry": {
        "type": "Point",
        "coordinates": [
          121.5098259,
          25.02405006
        ]
      },
      "properties": {
        "縣市": "臺北市",
        "行政區": "萬華區",
        "醫院名稱": "同仁院醫療財團法人萬華醫院",
        "地址": "臺北市萬華區中華路二段６０６巷６號",
        "電話": "(02)23059292",
        "補齊醫事機構代碼": "1401190039",
        "食物中毒_急診觀察床": 0,
        "食物中毒_急性一般病床": 0,
        "食物中毒_核心病床數": 0,
        "食物中毒_加護病床": 0,
        "食物中毒_隔離病床": 0,
        "食物中毒_相關病床總數": 0
      }
    },
    {
      "type": "Feature",
      "geometry": {
        "type": "Point",
        "coordinates": [
          121.4945402,
          25.0277877
        ]
      },
      "properties": {
        "縣市": "臺北市",
        "行政區": "萬華區",
        "醫院名稱": "西園醫療社團法人西園醫院",
        "地址": "臺北市萬華區西園路二段266、268、270、272、276號、185、187、189號",
        "電話": "(02)23329888",
        "補齊醫事機構代碼": "0901190010",
        "食物中毒_急診觀察床": 9,
        "食物中毒_急性一般病床": 115,
        "食物中毒_核心病床數": 124,
        "食物中毒_加護病床": 8,
        "食物中毒_隔離病床": 0,
        "食物中毒_相關病床總數": 132
      }
    },
    {
      "type": "Feature",
      "geometry": {
        "type": "Point",
        "coordinates": [
          121.5470295,
          25.03849645
        ]
      },
      "properties": {
        "縣市": "臺北市",
        "行政區": "大安區",
        "醫院名稱": "宏恩醫療財團法人宏恩綜合醫院",
        "地址": "臺北市大安區仁愛路四段71巷1號、仁 愛路四段61號、仁愛路四段91巷16號",
        "電話": "(02)27713161",
        "補齊醫事機構代碼": "1101020036",
        "食物中毒_急診觀察床": 0,
        "食物中毒_急性一般病床": 99,
        "食物中毒_核心病床數": 99,
        "食物中毒_加護病床": 0,
        "食物中毒_隔離病床": 0,
        "食物中毒_相關病床總數": 99
      }
    },
    {
      "type": "Feature",
      "geometry": {
        "type": "Point",
        "coordinates": [
          121.5568623,
          25.04311217
        ]
      },
      "properties": {
        "縣市": "臺北市",
        "行政區": "大安區",
        "醫院名稱": "秀傳醫院",
        "地址": "臺北市大安區光復南路116巷1、3、5號1至4樓及地下1樓",
        "電話": "(02)27717172",
        "補齊醫事機構代碼": "1501021219",
        "食物中毒_急診觀察床": 0,
        "食物中毒_急性一般病床": 23,
        "食物中毒_核心病床數": 23,
        "食物中毒_加護病床": 0,
        "食物中毒_隔離病床": 0,
        "食物中毒_相關病床總數": 23
      }
    },
    {
      "type": "Feature",
      "geometry": {
        "type": "Point",
        "coordinates": [
          121.5339434,
          25.05027331
        ]
      },
      "properties": {
        "縣市": "臺北市",
        "行政區": "中山區",
        "醫院名稱": "協和婦女醫院",
        "地址": "臺北市中山區松江路85巷5號1，2，3，4樓、93巷6號1，2，4樓",
        "電話": "(02)25072222",
        "補齊醫事機構代碼": "1501100037",
        "食物中毒_急診觀察床": 0,
        "食物中毒_急性一般病床": 20,
        "食物中毒_核心病床數": 20,
        "食物中毒_加護病床": 0,
        "食物中毒_隔離病床": 0,
        "食物中毒_相關病床總數": 20
      }
    },
    {
      "type": "Feature",
      "geometry": {
        "type": "Point",
        "coordinates": [
          121.5485556,
          25.05023183
        ]
      },
      "properties": {
        "縣市": "臺北市",
        "行政區": "松山區",
        "醫院名稱": "長庚醫療財團法人台北長庚紀念醫院",
        "地址": "臺北市松山區敦化北路199號、197號、臺北市松山區敦化北路199巷6號、 臺北市松山區民生東路三段130巷9號2、3、B1、B2樓、臺北市松山區南京東路3段337號5、6、9、10樓。",
        "電話": "(02)27135211",
        "補齊醫事機構代碼": "1101010512",
        "食物中毒_急診觀察床": 0,
        "食物中毒_急性一般病床": 0,
        "食物中毒_核心病床數": 0,
        "食物中毒_加護病床": 0,
        "食物中毒_隔離病床": 0,
        "食物中毒_相關病床總數": 0
      }
    },
    {
      "type": "Feature",
      "geometry": {
        "type": "Point",
        "coordinates": [
          121.5224005,
          25.11754255
        ]
      },
      "properties": {
        "縣市": "臺北市",
        "行政區": "北投區",
        "醫院名稱": "振興醫療財團法人振興醫院",
        "地址": "臺北市北投區振興街４５號",
        "電話": "(02)28264400",
        "補齊醫事機構代碼": "1101160017",
        "食物中毒_急診觀察床": 17,
        "食物中毒_急性一般病床": 777,
        "食物中毒_核心病床數": 794,
        "食物中毒_加護病床": 78,
        "食物中毒_隔離病床": 4,
        "食物中毒_相關病床總數": 876
      }
    },
    {
      "type": "Feature",
      "geometry": {
        "type": "Point",
        "coordinates": [
          121.5042335,
          25.03642709
        ]
      },
      "properties": {
        "縣市": "臺北市",
        "行政區": "萬華區",
        "醫院名稱": "財團法人台灣省私立台北仁濟院附設仁濟醫院",
        "地址": "臺北市萬華區廣州街２００，２４３號",
        "電話": "(02)23021131",
        "補齊醫事機構代碼": "1401190011",
        "食物中毒_急診觀察床": 0,
        "食物中毒_急性一般病床": 20,
        "食物中毒_核心病床數": 20,
        "食物中毒_加護病床": 0,
        "食物中毒_隔離病床": 0,
        "食物中毒_相關病床總數": 20
      }
    },
    {
      "type": "Feature",
      "geometry": {
        "type": "Point",
        "coordinates": [
          121.5183428,
          25.03553921
        ]
      },
      "properties": {
        "縣市": "臺北市",
        "行政區": "中正區",
        "醫院名稱": "國立台灣大學醫學院附設醫院",
        "地址": "臺北市中正區中山南路７、８號；常德街１號",
        "電話": "(02)23123456",
        "補齊醫事機構代碼": "0401180014",
        "食物中毒_急診觀察床": 120,
        "食物中毒_急性一般病床": 1679,
        "食物中毒_核心病床數": 1799,
        "食物中毒_加護病床": 165,
        "食物中毒_隔離病床": 140,
        "食物中毒_相關病床總數": 2104
      }
    },
    {
      "type": "Feature",
      "geometry": {
        "type": "Point",
        "coordinates": [
          121.5025511,
          25.04222858
        ]
      },
      "properties": {
        "縣市": "臺北市",
        "行政區": "萬華區",
        "醫院名稱": "國立臺灣大學醫學院附設醫院北護分院",
        "地址": "臺北市萬華區康定路３７號、臺北市萬華區內江街87號、臺北市萬華區內江街87號、臺北市萬華區內江街89號 (文教大樓1樓及供應樓1至2樓)",
        "電話": "(02)23717101",
        "補齊醫事機構代碼": "0401190010",
        "食物中毒_急診觀察床": 0,
        "食物中毒_急性一般病床": 31,
        "食物中毒_核心病床數": 31,
        "食物中毒_加護病床": 0,
        "食物中毒_隔離病床": 0,
        "食物中毒_相關病床總數": 31
      }
    },
    {
      "type": "Feature",
      "geometry": {
        "type": "Point",
        "coordinates": [
          121.5187506,
          25.04434314
        ]
      },
      "properties": {
        "縣市": "臺北市",
        "行政區": "中正區",
        "醫院名稱": "國立臺灣大學醫學院附設醫院兒童醫院",
        "地址": "臺北市中正區中山南路8號",
        "電話": "(02)23123456",
        "補齊醫事機構代碼": "0401180023",
        "食物中毒_急診觀察床": 0,
        "食物中毒_急性一般病床": 133,
        "食物中毒_核心病床數": 133,
        "食物中毒_加護病床": 65,
        "食物中毒_隔離病床": 6,
        "食物中毒_相關病床總數": 204
      }
    },
    {
      "type": "Feature",
      "geometry": {
        "type": "Point",
        "coordinates": [
          121.5439164,
          25.01449586
        ]
      },
      "properties": {
        "縣市": "臺北市",
        "行政區": "大安區",
        "醫院名稱": "國立臺灣大學醫學院附設醫院癌醫中心分院",
        "地址": "臺北市大安區基隆路 3段155巷57號",
        "電話": "(02)23220322",
        "補齊醫事機構代碼": "0401020013",
        "食物中毒_急診觀察床": 4,
        "食物中毒_急性一般病床": 432,
        "食物中毒_核心病床數": 436,
        "食物中毒_加護病床": 28,
        "食物中毒_隔離病床": 16,
        "食物中毒_相關病床總數": 480
      }
    },
    {
      "type": "Feature",
      "geometry": {
        "type": "Point",
        "coordinates": [
          121.5528014,
          25.03717848
        ]
      },
      "properties": {
        "縣市": "臺北市",
        "行政區": "大安區",
        "醫院名稱": "國泰醫療財團法人國泰綜合醫院",
        "地址": "臺北市大安區仁愛路四段266巷6號，280號",
        "電話": "(02)27082121",
        "補齊醫事機構代碼": "1101020018",
        "食物中毒_急診觀察床": 41,
        "食物中毒_急性一般病床": 391,
        "食物中毒_核心病床數": 432,
        "食物中毒_加護病床": 33,
        "食物中毒_隔離病床": 1,
        "食物中毒_相關病床總數": 466
      }
    },
    {
      "type": "Feature",
      "geometry": {
        "type": "Point",
        "coordinates": [
          121.5682821,
          25.04940059
        ]
      },
      "properties": {
        "縣市": "臺北市",
        "行政區": "松山區",
        "醫院名稱": "培靈醫院",
        "地址": "臺北市松山區八德路四段355號",
        "電話": "(02)27606116",
        "補齊醫事機構代碼": "1501010029",
        "食物中毒_急診觀察床": 0,
        "食物中毒_急性一般病床": 0,
        "食物中毒_核心病床數": 0,
        "食物中毒_加護病床": 0,
        "食物中毒_隔離病床": 0,
        "食物中毒_相關病床總數": 0
      }
    },
    {
      "type": "Feature",
      "geometry": {
        "type": "Point",
        "coordinates": [
          121.5444842,
          25.04758836
        ]
      },
      "properties": {
        "縣市": "臺北市",
        "行政區": "松山區",
        "醫院名稱": "基督復臨安息日會醫療財團法人臺安醫院",
        "地址": "臺北市松山區八德路二段424,426號",
        "電話": "(02)27718151",
        "補齊醫事機構代碼": "1101010021",
        "食物中毒_急診觀察床": 12,
        "食物中毒_急性一般病床": 256,
        "食物中毒_核心病床數": 268,
        "食物中毒_加護病床": 21,
        "食物中毒_隔離病床": 6,
        "食物中毒_相關病床總數": 295
      }
    },
    {
      "type": "Feature",
      "geometry": {
        "type": "Point",
        "coordinates": [
          121.6087792,
          25.07595162
        ]
      },
      "properties": {
        "縣市": "臺北市",
        "行政區": "內湖區",
        "醫院名稱": "康寧醫療財團法人康寧醫院",
        "地址": "臺北市內湖區成功路五段４２０巷２６號",
        "電話": "(02)26345500",
        "補齊醫事機構代碼": "1101110026",
        "食物中毒_急診觀察床": 2,
        "食物中毒_急性一般病床": 145,
        "食物中毒_核心病床數": 147,
        "食物中毒_加護病床": 6,
        "食物中毒_隔離病床": 0,
        "食物中毒_相關病床總數": 153
      }
    },
    {
      "type": "Feature",
      "geometry": {
        "type": "Point",
        "coordinates": [
          121.557695,
          25.04990354
        ]
      },
      "properties": {
        "縣市": "臺北市",
        "行政區": "松山區",
        "醫院名稱": "博仁綜合醫院",
        "地址": "臺北市松山區光復北路66號、68號地下一層、68號、68號2至7樓、68號2樓之1至7樓之1、68號2樓之2至7樓之2",
        "電話": "(02)25786677",
        "補齊醫事機構代碼": "1501010010",
        "食物中毒_急診觀察床": 4,
        "食物中毒_急性一般病床": 134,
        "食物中毒_核心病床數": 138,
        "食物中毒_加護病床": 8,
        "食物中毒_隔離病床": 0,
        "食物中毒_相關病床總數": 146
      }
    },
    {
      "type": "Feature",
      "geometry": {
        "type": "Point",
        "coordinates": [
          121.5405334,
          24.99001925
        ]
      },
      "properties": {
        "縣市": "臺北市",
        "行政區": "文山區",
        "醫院名稱": "景美醫院",
        "地址": "臺北市文山區羅斯福路六段280號、文山區育英街2巷18號、文山區羅斯福路六段276巷1號1樓、文山區萬慶街18號1樓。",
        "電話": "(02)29331010",
        "補齊醫事機構代碼": "1501201020",
        "食物中毒_急診觀察床": 1,
        "食物中毒_急性一般病床": 39,
        "食物中毒_核心病床數": 40,
        "食物中毒_加護病床": 0,
        "食物中毒_隔離病床": 0,
        "食物中毒_相關病床總數": 40
      }
    },
    {
      "type": "Feature",
      "geometry": {
        "type": "Point",
        "coordinates": [
          121.5186982,
          25.02874869
        ]
      },
      "properties": {
        "縣市": "臺北市",
        "行政區": "中正區",
        "醫院名稱": "郵政醫院（委託中英醫療社團法人經營）",
        "地址": "臺北市中正區福州街14號",
        "電話": "(02)23956755",
        "補齊醫事機構代碼": "0901180023",
        "食物中毒_急診觀察床": 0,
        "食物中毒_急性一般病床": 40,
        "食物中毒_核心病床數": 40,
        "食物中毒_加護病床": 0,
        "食物中毒_隔離病床": 0,
        "食物中毒_相關病床總數": 40
      }
    },
    {
      "type": "Feature",
      "geometry": {
        "type": "Point",
        "coordinates": [
          121.5202887,
          25.0962409
        ]
      },
      "properties": {
        "縣市": "臺北市",
        "行政區": "士林區",
        "醫院名稱": "新光醫療財團法人新光吳火獅紀念醫院",
        "地址": "臺北市士林區文昌路95號及士商路51號、51號2樓、51號3樓、51號4樓、51號5樓、51號6樓、51號7樓、53號、55號、57號、臺北市士林區基河路252號1樓",
        "電話": "(02)28332211",
        "補齊醫事機構代碼": "1101150011",
        "食物中毒_急診觀察床": 36,
        "食物中毒_急性一般病床": 518,
        "食物中毒_核心病床數": 554,
        "食物中毒_加護病床": 62,
        "食物中毒_隔離病床": 2,
        "食物中毒_相關病床總數": 618
      }
    },
    {
      "type": "Feature",
      "geometry": {
        "type": "Point",
        "coordinates": [
          121.5037059,
          25.13758475
        ]
      },
      "properties": {
        "縣市": "臺北市",
        "行政區": "北投區",
        "醫院名稱": "臺北市北投健康管理醫院",
        "地址": "臺北市北投區中和街2號",
        "電話": "(02)28988686",
        "補齊醫事機構代碼": "1501160065",
        "食物中毒_急診觀察床": 0,
        "食物中毒_急性一般病床": 20,
        "食物中毒_核心病床數": 20,
        "食物中毒_加護病床": 0,
        "食物中毒_隔離病床": 0,
        "食物中毒_相關病床總數": 20
      }
    },
    {
      "type": "Feature",
      "geometry": {
        "type": "Point",
        "coordinates": [
          121.5583303,
          25.00030628
        ]
      },
      "properties": {
        "縣市": "臺北市",
        "行政區": "文山區",
        "醫院名稱": "臺北市立萬芳醫院-委託臺北醫學大學辦理",
        "地址": "臺北市文山區興隆路三段111號",
        "電話": "(02)29307930",
        "補齊醫事機構代碼": "1301200010",
        "食物中毒_急診觀察床": 33,
        "食物中毒_急性一般病床": 500,
        "食物中毒_核心病床數": 533,
        "食物中毒_加護病床": 50,
        "食物中毒_隔離病床": 11,
        "食物中毒_相關病床總數": 594
      }
    },
    {
      "type": "Feature",
      "geometry": {
        "type": "Point",
        "coordinates": [
          121.5088874,
          25.05069244
        ]
      },
      "properties": {
        "縣市": "臺北市",
        "行政區": "大同區",
        "醫院名稱": "臺北市立聯合醫院",
        "地址": "臺北市大同區鄭州路145號",
        "電話": "(02)25523234",
        "補齊醫事機構代碼": "0101090517",
        "食物中毒_急診觀察床": 85,
        "食物中毒_急性一般病床": 1620,
        "食物中毒_核心病床數": 1705,
        "食物中毒_加護病床": 128,
        "食物中毒_隔離病床": 47,
        "食物中毒_相關病床總數": 1880
      }
    },
    {
      "type": "Feature",
      "geometry": {
        "type": "Point",
        "coordinates": [
          121.4663577,
          25.12018758
        ]
      },
      "properties": {
        "縣市": "臺北市",
        "行政區": "北投區",
        "醫院名稱": "臺北市立關渡醫院─委託臺北榮民總醫院經營",
        "地址": "臺北市北投區知行路二二五巷十二號",
        "電話": "(02)28587000",
        "補齊醫事機構代碼": "0701160518",
        "食物中毒_急診觀察床": 3,
        "食物中毒_急性一般病床": 45,
        "食物中毒_核心病床數": 48,
        "食物中毒_加護病床": 3,
        "食物中毒_隔離病床": 0,
        "食物中毒_相關病床總數": 51
      }
    },
    {
      "type": "Feature",
      "geometry": {
        "type": "Point",
        "coordinates": [
          121.5191658,
          25.11918228
        ]
      },
      "properties": {
        "縣市": "臺北市",
        "行政區": "北投區",
        "醫院名稱": "臺北榮民總醫院",
        "地址": "臺北市北投區石牌路二段201號、322號",
        "電話": "(02)28712121",
        "補齊醫事機構代碼": "0601160016",
        "食物中毒_急診觀察床": 57,
        "食物中毒_急性一般病床": 2404,
        "食物中毒_核心病床數": 2461,
        "食物中毒_加護病床": 183,
        "食物中毒_隔離病床": 133,
        "食物中毒_相關病床總數": 2777
      }
    },
    {
      "type": "Feature",
      "geometry": {
        "type": "Point",
        "coordinates": [
          121.5636377,
          25.02663801
        ]
      },
      "properties": {
        "縣市": "臺北市",
        "行政區": "信義區",
        "醫院名稱": "臺北醫學大學附設醫院",
        "地址": "臺北市信義區吳興街２５2號、250號",
        "電話": "(02)27372181",
        "補齊醫事機構代碼": "1301170017",
        "食物中毒_急診觀察床": 27,
        "食物中毒_急性一般病床": 500,
        "食物中毒_核心病床數": 527,
        "食物中毒_加護病床": 56,
        "食物中毒_隔離病床": 8,
        "食物中毒_相關病床總數": 591
      }
    },
    {
      "type": "Feature",
      "geometry": {
        "type": "Point",
        "coordinates": [
          121.5751861,
          25.08056184
        ]
      },
      "properties": {
        "縣市": "臺北市",
        "行政區": "內湖區",
        "醫院名稱": "德威國際牙醫口腔醫院",
        "地址": "臺北市內湖區內湖路一段659號1樓",
        "電話": "(02)27990123",
        "補齊醫事機構代碼": "1701110019",
        "食物中毒_急診觀察床": 0,
        "食物中毒_急性一般病床": 10,
        "食物中毒_核心病床數": 10,
        "食物中毒_加護病床": 0,
        "食物中毒_隔離病床": 0,
        "食物中毒_相關病床總數": 10
      }
    },
    {
      "type": "Feature",
      "geometry": {
        "type": "Point",
        "coordinates": [
          121.4720113,
          25.12834055
        ]
      },
      "properties": {
        "縣市": "臺北市",
        "行政區": "北投區",
        "醫院名稱": "醫療財團法人辜公亮基金會和信治癌中心醫院",
        "地址": "臺北市北投區立德路１２５號",
        "電話": "(02)28970011",
        "補齊醫事機構代碼": "1101160026",
        "食物中毒_急診觀察床": 6,
        "食物中毒_急性一般病床": 252,
        "食物中毒_核心病床數": 258,
        "食物中毒_加護病床": 16,
        "食物中毒_隔離病床": 4,
        "食物中毒_相關病床總數": 278
      }
    }
  ]
}