{"type" : "FeatureCollection", "name" : "FoodBank", "features" : [{"type" : "Feature", "geometry" : {"type" : "Point", "coordinates" : [121.539331600787, 25.061655633646]}, "properties" : {"name" : "中山社會福利服務中心", "address" : "臺北市中山區合江街137號3樓", "city" : "臺北市", "district" : "中山區", "district_code" : "63000040", "postal_code" : null, "tel" : null, "org_type" : "實物銀行", "source_dataset" : "tpe_00003431", "seq_no" : "1"}}, {"type" : "Feature", "geometry" : {"type" : "Point", "coordinates" : [121.515142014956, 25.066020174448]}, "properties" : {"name" : "大同社會福利服務中心", "address" : "臺北市大同區昌吉街57號6樓", "city" : "臺北市", "district" : "大同區", "district_code" : "63000060", "postal_code" : null, "tel" : null, "org_type" : "實物銀行", "source_dataset" : "tpe_00003431", "seq_no" : "2"}}, {"type" : "Feature", "geometry" : {"type" : "Point", "coordinates" : [121.507664938228, 25.032885589187]}, "properties" : {"name" : "中正社會福利服務中心", "address" : "臺北市中正區延平南路207號6樓", "city" : "臺北市", "district" : "中正區", "district_code" : "63000050", "postal_code" : null, "tel" : null, "org_type" : "實物銀行", "source_dataset" : "tpe_00003431", "seq_no" : "3"}}, {"type" : "Feature", "geometry" : {"type" : "Point", "coordinates" : [121.545906784733, 25.026569154592]}, "properties" : {"name" : "大安社會福利服務中心", "address" : "臺北市大安區四維路198巷30弄5號2樓之9", "city" : "臺北市", "district" : "大安區", "district_code" : "63000030", "postal_code" : null, "tel" : null, "org_type" : "實物銀行", "source_dataset" : "tpe_00003431", "seq_no" : "5"}}, {"type" : "Feature", "geometry" : {"type" : "Point", "coordinates" : [121.551407324873, 25.001570044552]}, "properties" : {"name" : "文山社會福利服務中心", "address" : "臺北市文山區興隆路二段160號6樓", "city" : "臺北市", "district" : "文山區", "district_code" : "63000080", "postal_code" : null, "tel" : null, "org_type" : "實物銀行", "source_dataset" : "tpe_00003431", "seq_no" : "6"}}, {"type" : "Feature", "geometry" : {"type" : "Point", "coordinates" : [121.562907631305, 25.059287829818]}, "properties" : {"name" : "松山社會福利服務中心", "address" : "臺北市松山區民生東路五段163-1號9樓", "city" : "臺北市", "district" : "松山區", "district_code" : "63000010", "postal_code" : null, "tel" : null, "org_type" : "實物銀行", "source_dataset" : "tpe_00003431", "seq_no" : "7"}}, {"type" : "Feature", "geometry" : {"type" : "Point", "coordinates" : [121.582885478429, 25.038616212569]}, "properties" : {"name" : "信義社會福利服務中心", "address" : "臺北市信義區大道路116號5樓之2", "city" : "臺北市", "district" : "信義區", "district_code" : "63000020", "postal_code" : null, "tel" : null, "org_type" : "實物銀行", "source_dataset" : "tpe_00003431", "seq_no" : "8"}}, {"type" : "Feature", "geometry" : {"type" : "Point", "coordinates" : [121.596126873789, 25.08113567954]}, "properties" : {"name" : "內湖社會福利服務中心", "address" : "臺北市內湖區星雲街161巷3號4樓", "city" : "臺北市", "district" : "內湖區", "district_code" : "63000100", "postal_code" : null, "tel" : null, "org_type" : "實物銀行", "source_dataset" : "tpe_00003431", "seq_no" : "9"}}, {"type" : "Feature", "geometry" : {"type" : "Point", "coordinates" : [121.607935215164, 25.053763359344]}, "properties" : {"name" : "南港社會福利服務中心", "address" : "臺北市南港區市民大道八段367號3樓", "city" : "臺北市", "district" : "南港區", "district_code" : "63000090", "postal_code" : null, "tel" : null, "org_type" : "實物銀行", "source_dataset" : "tpe_00003431", "seq_no" : "10"}}, {"type" : "Feature", "geometry" : {"type" : "Point", "coordinates" : [121.522305524686, 25.088883324102]}, "properties" : {"name" : "士林社會福利服務中心", "address" : "臺北市士林區基河路140號1樓", "city" : "臺北市", "district" : "士林區", "district_code" : "63000110", "postal_code" : null, "tel" : null, "org_type" : "實物銀行", "source_dataset" : "tpe_00003431", "seq_no" : "11"}}, {"type" : "Feature", "geometry" : {"type" : "Point", "coordinates" : [121.502735373332, 25.132673445685]}, "properties" : {"name" : "北投社會福利服務中心", "address" : "臺北市北投區新市街30號5樓", "city" : "臺北市", "district" : "北投區", "district_code" : "63000120", "postal_code" : null, "tel" : null, "org_type" : "實物銀行", "source_dataset" : "tpe_00003431", "seq_no" : "12"}}, {"type" : "Feature", "geometry" : {"type" : "Point", "coordinates" : [121.498646429506, 24.995725217739]}, "properties" : {"name" : "圓通居", "address" : "新北市中和區圓通路143號", "city" : "臺北市", "district" : "中和區", "district_code" : "65000030", "postal_code" : null, "tel" : null, "org_type" : "實物銀行", "source_dataset" : "tpe_00003431", "seq_no" : "13"}}, {"type" : "Feature", "geometry" : {"type" : "Point", "coordinates" : [121.567828311384, 25.080588299353]}, "properties" : {"name" : "財團法人中華民國兒童福利聯盟文教基金會(支持服務資源布建方案A區)", "address" : "臺北市內湖區瑞光路583巷21號7樓", "city" : "臺北市", "district" : "內湖區", "district_code" : "63000100", "postal_code" : null, "tel" : null, "org_type" : "實物銀行", "source_dataset" : "tpe_00003431", "seq_no" : "14"}}, {"type" : "Feature", "geometry" : {"type" : "Point", "coordinates" : [121.495291488941, 25.038020552619]}, "properties" : {"name" : "財團法人台北市立心慈善基金會(支持服務資源布建方案B區)", "address" : "臺北市萬華區桂林路242巷4號4樓之2", "city" : "臺北市", "district" : "萬華區", "district_code" : "63000070", "postal_code" : null, "tel" : null, "org_type" : "實物銀行", "source_dataset" : "tpe_00003431", "seq_no" : "15"}}, {"type" : "Feature", "geometry" : {"type" : "Point", "coordinates" : [121.522766289352, 25.084842775874]}, "properties" : {"name" : "社團法人臺北市晨展社會服務協會(支持服務資源布建方案C區)", "address" : "臺北市士林區前港街11號5樓505室", "city" : "臺北市", "district" : "士林區", "district_code" : "63000110", "postal_code" : null, "tel" : null, "org_type" : "實物銀行", "source_dataset" : "tpe_00003431", "seq_no" : "16"}}, {"type" : "Feature", "geometry" : {"type" : "Point", "coordinates" : [121.507664938228, 25.032885589187]}, "properties" : {"name" : "財團法人台灣世界展望會(支持服務資源布建方案D區)", "address" : "臺北市中正區延平南路207號6樓", "city" : "臺北市", "district" : "中正區", "district_code" : "63000050", "postal_code" : null, "tel" : null, "org_type" : "實物銀行", "source_dataset" : "tpe_00003431", "seq_no" : "17"}}, {"type" : "Feature", "geometry" : {"type" : "Point", "coordinates" : [121.522884284974, 25.146664470535]}, "properties" : {"name" : "大同之家", "address" : "臺北市北投區東昇路12巷", "city" : "臺北市", "district" : "北投區", "district_code" : "63000120", "postal_code" : null, "tel" : null, "org_type" : "實物銀行", "source_dataset" : "tpe_00003431", "seq_no" : "19"}}, {"type" : "Feature", "geometry" : {"type" : "Point", "coordinates" : [121.490987800756, 25.027579467291]}, "properties" : {"name" : "福民平宅", "address" : "臺北市萬華區西園路二段320巷57號", "city" : "臺北市", "district" : "萬華區", "district_code" : "63000070", "postal_code" : null, "tel" : null, "org_type" : "實物銀行", "source_dataset" : "tpe_00003431", "seq_no" : "20"}}, {"type" : "Feature", "geometry" : {"type" : "Point", "coordinates" : [121.545906784733, 25.026569154592]}, "properties" : {"name" : "婦女中途之家", "address" : "臺北市大安區四維路198巷30弄5號2樓之9", "city" : "臺北市", "district" : "大安區", "district_code" : "63000030", "postal_code" : null, "tel" : null, "org_type" : "實物銀行", "source_dataset" : "tpe_00003431", "seq_no" : "21"}}, {"type" : "Feature", "geometry" : {"type" : "Point", "coordinates" : [121.50886547822, 25.038779575861]}, "properties" : {"name" : "臺北市家庭暴力暨性侵害防治中心", "address" : "臺北市中正區延平南路123號", "city" : "臺北市", "district" : "中正區", "district_code" : "63000050", "postal_code" : null, "tel" : null, "org_type" : "實物銀行", "source_dataset" : "tpe_00003431", "seq_no" : "22"}}, {"type" : "Feature", "geometry" : {"type" : "Point", "coordinates" : [121.482439935898, 25.105862629184]}, "properties" : {"name" : "台北市富安國小", "address" : "臺北市士林區延平北路八段135號", "city" : "臺北市", "district" : "士林區", "district_code" : "63000110", "postal_code" : null, "tel" : null, "org_type" : "實物銀行", "source_dataset" : "tpe_00003431", "seq_no" : "23"}}]}
