{
"type": "FeatureCollection",
"crs": { "type": "name", "properties": { "name": "urn:ogc:def:crs:OGC:1.3:CRS84" } },
"features": [
{ "type": "Feature", "properties": { "hotel_name": "香香雙博士大旅社", "biz_area": "新北市永和中興街韓國商圈", "min_price": 880.0, "price_color": "#1a9850" }, "geometry": { "type": "LineString", "coordinates": [ [ 121.519031, 25.013517 ], [ 121.517796685059167, 25.016301808176237 ] ] } },
{ "type": "Feature", "properties": { "hotel_name": "香奈爾汽車旅館", "biz_area": "新北市蘆洲區商圈", "min_price": 2580.0, "price_color": "#91cf60" }, "geometry": { "type": "LineString", "coordinates": [ [ 121.463024, 25.0864029 ], [ 121.476455795996515, 25.081758690671379 ] ] } },
{ "type": "Feature", "properties": { "hotel_name": "柯達大飯店(永和店)", "biz_area": "新北市永和中興街韓國商圈", "min_price": 1200.0, "price_color": "#1a9850" }, "geometry": { "type": "LineString", "coordinates": [ [ 121.513578, 25.007732 ], [ 121.515844758168413, 25.009619444961629 ] ] } },
{ "type": "Feature", "properties": { "hotel_name": "綠映旅舍", "biz_area": "新北市三重碧華布街商圈", "min_price": 2600.0, "price_color": "#91cf60" }, "geometry": { "type": "LineString", "coordinates": [ [ 121.4971153, 25.064316 ], [ 121.492014777378799, 25.075822963650321 ] ] } },
{ "type": "Feature", "properties": { "hotel_name": "宮賓大旅社", "biz_area": "新北市板橋區府中商圈", "min_price": 450.0, "price_color": "#1a9850" }, "geometry": { "type": "LineString", "coordinates": [ [ 121.457363, 25.006801 ], [ 121.456678759904932, 25.005764116586146 ] ] } },
{ "type": "Feature", "properties": { "hotel_name": "金龍湖旅館", "biz_area": "新北市深坑商圈", "min_price": 2500.0, "price_color": "#91cf60" }, "geometry": { "type": "LineString", "coordinates": [ [ 121.630955, 25.071439 ], [ 121.61761676481143, 24.993936472335196 ] ] } },
{ "type": "Feature", "properties": { "hotel_name": "馨記旅館", "biz_area": "新北市蘆洲區商圈", "min_price": 1480.0, "price_color": "#1a9850" }, "geometry": { "type": "LineString", "coordinates": [ [ 121.466075, 25.079361 ], [ 121.476285645372926, 25.080038582331415 ] ] } },
{ "type": "Feature", "properties": { "hotel_name": "享來大旅社", "biz_area": "新北市淡水區商圈", "min_price": 1200.0, "price_color": "#1a9850" }, "geometry": { "type": "LineString", "coordinates": [ [ 121.441707, 25.170461 ], [ 121.443751775589121, 25.169925694433132 ] ] } },
{ "type": "Feature", "properties": { "hotel_name": "盟園旅社", "biz_area": "新北市板橋區府中商圈", "min_price": 700.0, "price_color": "#1a9850" }, "geometry": { "type": "LineString", "coordinates": [ [ 121.457297, 25.0068729 ], [ 121.456599728685575, 25.005816269343462 ] ] } },
{ "type": "Feature", "properties": { "hotel_name": "喬太商務旅館", "biz_area": "新北市板橋區新板商圈", "min_price": 1100.0, "price_color": "#1a9850" }, "geometry": { "type": "LineString", "coordinates": [ [ 121.47965, 25.019176 ], [ 121.470088372355193, 25.014067265153727 ] ] } },
{ "type": "Feature", "properties": { "hotel_name": "青青汽車旅館", "biz_area": "新北市三峽民權老街商圈", "min_price": 2680.0, "price_color": "#91cf60" }, "geometry": { "type": "LineString", "coordinates": [ [ 121.378745, 24.931984 ], [ 121.37515322885605, 24.932920778560401 ] ] } },
{ "type": "Feature", "properties": { "hotel_name": "菁鳥旅館", "biz_area": "新北市板橋區府中商圈", "min_price": 2500.0, "price_color": "#91cf60" }, "geometry": { "type": "LineString", "coordinates": [ [ 121.4553962, 25.0048938 ], [ 121.45631622463776, 25.006033543599635 ] ] } },
{ "type": "Feature", "properties": { "hotel_name": "三重旅社", "biz_area": "新北市三重碧華布街商圈", "min_price": 600.0, "price_color": "#1a9850" }, "geometry": { "type": "LineString", "coordinates": [ [ 121.49513, 25.070647 ], [ 121.492285200085945, 25.075942829948414 ] ] } },
{ "type": "Feature", "properties": { "hotel_name": "悅榕汽車旅館", "biz_area": "新北市板橋區府中商圈", "min_price": 580.0, "price_color": "#1a9850" }, "geometry": { "type": "LineString", "coordinates": [ [ 121.457836, 25.00625 ], [ 121.457453290503139, 25.005335260888899 ] ] } },
{ "type": "Feature", "properties": { "hotel_name": "印象賓館", "biz_area": "新北市板橋區府中商圈", "min_price": 1000.0, "price_color": "#1a9850" }, "geometry": { "type": "LineString", "coordinates": [ [ 121.426365, 24.993166 ], [ 121.455065180172753, 25.007615126868256 ] ] } },
{ "type": "Feature", "properties": { "hotel_name": "昇園賓館", "biz_area": "新北市板橋區府中商圈", "min_price": 1000.0, "price_color": "#1a9850" }, "geometry": { "type": "LineString", "coordinates": [ [ 121.426365, 24.993166 ], [ 121.455065180172753, 25.007615126868256 ] ] } },
{ "type": "Feature", "properties": { "hotel_name": "佳賓旅社", "biz_area": "新北市板橋區府中商圈", "min_price": 800.0, "price_color": "#1a9850" }, "geometry": { "type": "LineString", "coordinates": [ [ 121.426859, 24.992846 ], [ 121.455065180172753, 25.007615126868256 ] ] } },
{ "type": "Feature", "properties": { "hotel_name": "龍海大飯店", "biz_area": "新北市板橋區府中商圈", "min_price": 1000.0, "price_color": "#1a9850" }, "geometry": { "type": "LineString", "coordinates": [ [ 121.427613, 24.993063 ], [ 121.455065180172753, 25.007615126868256 ] ] } },
{ "type": "Feature", "properties": { "hotel_name": "香寧旅店", "biz_area": "新北市八里區左岸觀光商圈", "min_price": 1480.0, "price_color": "#1a9850" }, "geometry": { "type": "LineString", "coordinates": [ [ 121.460202, 25.137578 ], [ 121.434391690083032, 25.158103951008481 ] ] } },
{ "type": "Feature", "properties": { "hotel_name": "新五福旅社", "biz_area": "新北市淡水區商圈", "min_price": 1200.0, "price_color": "#1a9850" }, "geometry": { "type": "LineString", "coordinates": [ [ 121.442042, 25.170223 ], [ 121.443650783560997, 25.169613420048659 ] ] } },
{ "type": "Feature", "properties": { "hotel_name": "蘭竹大飯店", "biz_area": "新北市板橋區新板商圈", "min_price": 1250.0, "price_color": "#1a9850" }, "geometry": { "type": "LineString", "coordinates": [ [ 121.458429, 25.008614 ], [ 121.461197813731147, 25.010107007662718 ] ] } },
{ "type": "Feature", "properties": { "hotel_name": "華倫大旅社", "biz_area": "新北市板橋區府中商圈", "min_price": 1200.0, "price_color": "#1a9850" }, "geometry": { "type": "LineString", "coordinates": [ [ 121.454042, 25.0082139 ], [ 121.454781878555536, 25.008427144972689 ] ] } },
{ "type": "Feature", "properties": { "hotel_name": "美錦樂賓館", "biz_area": "新北市板橋區府中商圈", "min_price": 650.0, "price_color": "#1a9850" }, "geometry": { "type": "LineString", "coordinates": [ [ 121.453421, 25.008369 ], [ 121.454747600752142, 25.008601942300956 ] ] } },
{ "type": "Feature", "properties": { "hotel_name": "愛莉亞汽車旅館", "biz_area": "新北市三峽民權老街商圈", "min_price": 1580.0, "price_color": "#1a9850" }, "geometry": { "type": "LineString", "coordinates": [ [ 121.363821, 24.935946 ], [ 121.365623742155478, 24.935265294270671 ] ] } },
{ "type": "Feature", "properties": { "hotel_name": "龍山旅社", "biz_area": "新北市中和華新街商圈", "min_price": 1000.0, "price_color": "#1a9850" }, "geometry": { "type": "LineString", "coordinates": [ [ 121.538625, 24.959475 ], [ 121.511962886265295, 24.981274666858457 ] ] } },
{ "type": "Feature", "properties": { "hotel_name": "南國旅社", "biz_area": "新北市板橋區府中商圈", "min_price": 500.0, "price_color": "#1a9850" }, "geometry": { "type": "LineString", "coordinates": [ [ 121.454078, 25.008293 ], [ 121.454772705231022, 25.008458972902812 ] ] } },
{ "type": "Feature", "properties": { "hotel_name": "美莊旅社", "biz_area": "新北市板橋區府中商圈", "min_price": 1000.0, "price_color": "#1a9850" }, "geometry": { "type": "LineString", "coordinates": [ [ 121.4561113, 25.0088007 ], [ 121.454754533444884, 25.008562460783942 ] ] } },
{ "type": "Feature", "properties": { "hotel_name": "愛家旅館", "biz_area": "新北市中和華新街商圈", "min_price": 2200.0, "price_color": "#91cf60" }, "geometry": { "type": "LineString", "coordinates": [ [ 121.543257, 24.974164 ], [ 121.512855112879862, 24.982837088939089 ] ] } },
{ "type": "Feature", "properties": { "hotel_name": "黎明旅館", "biz_area": "新北市中和華新街商圈", "min_price": 1800.0, "price_color": "#1a9850" }, "geometry": { "type": "LineString", "coordinates": [ [ 121.541418, 24.981013 ], [ 121.513034080809632, 24.983706882931635 ] ] } },
{ "type": "Feature", "properties": { "hotel_name": "名華大旅社", "biz_area": "新北市三重碧華布街商圈", "min_price": 300.0, "price_color": "#1a9850" }, "geometry": { "type": "LineString", "coordinates": [ [ 121.502479, 25.065202 ], [ 121.493087033910157, 25.076442651172261 ] ] } },
{ "type": "Feature", "properties": { "hotel_name": "慶都大旅社", "biz_area": "新北市三重碧華布街商圈", "min_price": 700.0, "price_color": "#1a9850" }, "geometry": { "type": "LineString", "coordinates": [ [ 121.496643, 25.061991 ], [ 121.491847835096024, 25.075748965598738 ] ] } },
{ "type": "Feature", "properties": { "hotel_name": "名流賓館", "biz_area": "新北市三重碧華布街商圈", "min_price": 800.0, "price_color": "#1a9850" }, "geometry": { "type": "LineString", "coordinates": [ [ 121.497482, 25.062712 ], [ 121.491847835096024, 25.075748965598738 ] ] } },
{ "type": "Feature", "properties": { "hotel_name": "千嘉旅店", "biz_area": "新北市板橋區府中商圈", "min_price": 1400.0, "price_color": "#1a9850" }, "geometry": { "type": "LineString", "coordinates": [ [ 121.456291, 25.007824 ], [ 121.455313477326911, 25.007164313038853 ] ] } },
{ "type": "Feature", "properties": { "hotel_name": "玉山旅店", "biz_area": "新北市鶯歌區陶瓷藝術商圈", "min_price": 2000.0, "price_color": "#91cf60" }, "geometry": { "type": "LineString", "coordinates": [ [ 121.352599, 24.948658 ], [ 121.35321277151877, 24.947772923919572 ] ] } },
{ "type": "Feature", "properties": { "hotel_name": "中信旅店", "biz_area": "新北市永和中興街韓國商圈", "min_price": 1380.0, "price_color": "#1a9850" }, "geometry": { "type": "LineString", "coordinates": [ [ 121.517933, 25.014253 ], [ 121.516871744489706, 25.015787966166865 ] ] } },
{ "type": "Feature", "properties": { "hotel_name": "明園賓館", "biz_area": "新北市板橋區府中商圈", "min_price": 900.0, "price_color": "#1a9850" }, "geometry": { "type": "LineString", "coordinates": [ [ 121.427613, 24.993065 ], [ 121.455065180172753, 25.007615126868256 ] ] } },
{ "type": "Feature", "properties": { "hotel_name": "豪華旅社", "biz_area": "新北市板橋區府中商圈", "min_price": 800.0, "price_color": "#1a9850" }, "geometry": { "type": "LineString", "coordinates": [ [ 121.425571, 24.990515 ], [ 121.455278026664075, 25.007216843752257 ] ] } },
{ "type": "Feature", "properties": { "hotel_name": "凱帝賓館", "biz_area": "新北市中和華新街商圈", "min_price": 1500.0, "price_color": "#1a9850" }, "geometry": { "type": "LineString", "coordinates": [ [ 121.496533, 25.002629 ], [ 121.505303098090494, 24.98782565053947 ] ] } },
{ "type": "Feature", "properties": { "hotel_name": "土城飯店", "biz_area": "新北市板橋區府中商圈", "min_price": 1380.0, "price_color": "#1a9850" }, "geometry": { "type": "LineString", "coordinates": [ [ 121.440843, 24.9734909 ], [ 121.45733467201967, 25.005384888612884 ] ] } },
{ "type": "Feature", "properties": { "hotel_name": "嘉家旅店", "biz_area": "新北市永和中興街韓國商圈", "min_price": 800.0, "price_color": "#1a9850" }, "geometry": { "type": "LineString", "coordinates": [ [ 121.5172134, 25.0073466 ], [ 121.517605616903992, 25.008212722933994 ] ] } },
{ "type": "Feature", "properties": { "hotel_name": "華園旅社", "biz_area": "新北市三重碧華布街商圈", "min_price": 800.0, "price_color": "#1a9850" }, "geometry": { "type": "LineString", "coordinates": [ [ 121.497469, 25.062783 ], [ 121.491847835096024, 25.075748965598738 ] ] } },
{ "type": "Feature", "properties": { "hotel_name": "華春林賓館", "biz_area": "新北市三重碧華布街商圈", "min_price": 700.0, "price_color": "#1a9850" }, "geometry": { "type": "LineString", "coordinates": [ [ 121.490602, 25.059037 ], [ 121.489955378871088, 25.075386076335128 ] ] } },
{ "type": "Feature", "properties": { "hotel_name": "秀山大飯店", "biz_area": "新北市烏來區溫泉社區商圈", "min_price": 2500.0, "price_color": "#91cf60" }, "geometry": { "type": "LineString", "coordinates": [ [ 121.551769, 24.864253 ], [ 121.553427351608903, 24.864361654375742 ] ] } },
{ "type": "Feature", "properties": { "hotel_name": "三和旅舍", "biz_area": "新北市三重碧華布街商圈", "min_price": 1050.0, "price_color": "#1a9850" }, "geometry": { "type": "LineString", "coordinates": [ [ 121.500698, 25.067675 ], [ 121.493209573843885, 25.076546091793357 ] ] } },
{ "type": "Feature", "properties": { "hotel_name": "宏仁旅店", "biz_area": "新北市中和華新街商圈", "min_price": 1980.0, "price_color": "#1a9850" }, "geometry": { "type": "LineString", "coordinates": [ [ 121.512463, 24.990141 ], [ 121.510920278196295, 24.987805544008364 ] ] } },
{ "type": "Feature", "properties": { "hotel_name": "嘉年華汽車旅館", "biz_area": "新北市蘆洲區商圈", "min_price": 2900.0, "price_color": "#91cf60" }, "geometry": { "type": "LineString", "coordinates": [ [ 121.480634, 25.0825719 ], [ 121.48008054093232, 25.084887294924759 ] ] } },
{ "type": "Feature", "properties": { "hotel_name": "怡美賓館", "biz_area": "新北市金山商圈", "min_price": 1400.0, "price_color": "#1a9850" }, "geometry": { "type": "LineString", "coordinates": [ [ 121.640948, 25.2208319 ], [ 121.642637116322618, 25.219483616798506 ] ] } },
{ "type": "Feature", "properties": { "hotel_name": "香格里拉汽車旅館", "biz_area": "新北市中和華新街商圈", "min_price": 2600.0, "price_color": "#91cf60" }, "geometry": { "type": "LineString", "coordinates": [ [ 121.484617, 24.994595 ], [ 121.503503486210974, 24.985781489909819 ] ] } },
{ "type": "Feature", "properties": { "hotel_name": "香格里拉汽車旅館中和館", "biz_area": "新北市中和華新街商圈", "min_price": 2600.0, "price_color": "#91cf60" }, "geometry": { "type": "LineString", "coordinates": [ [ 121.484381, 24.994105 ], [ 121.503503486210974, 24.985781489909819 ] ] } },
{ "type": "Feature", "properties": { "hotel_name": "大東旅社", "biz_area": "新北市雙溪低碳商圈", "min_price": 1200.0, "price_color": "#1a9850" }, "geometry": { "type": "LineString", "coordinates": [ [ 121.9412014, 25.01949324 ], [ 121.863868375938367, 25.037456483548834 ] ] } },
{ "type": "Feature", "properties": { "hotel_name": "北國之春和風汽車旅館", "biz_area": "新北市鶯歌區陶瓷藝術商圈", "min_price": 1680.0, "price_color": "#1a9850" }, "geometry": { "type": "LineString", "coordinates": [ [ 121.333863, 24.963037 ], [ 121.346063964959029, 24.953820012575143 ] ] } },
{ "type": "Feature", "properties": { "hotel_name": "日暉商務旅館", "biz_area": "新北市中和華新街商圈", "min_price": 1980.0, "price_color": "#1a9850" }, "geometry": { "type": "LineString", "coordinates": [ [ 121.5035418, 24.9933862 ], [ 121.505873824837352, 24.98812701261491 ] ] } },
{ "type": "Feature", "properties": { "hotel_name": "正點旅店", "biz_area": "新北市板橋區新板商圈", "min_price": 2980.0, "price_color": "#91cf60" }, "geometry": { "type": "LineString", "coordinates": [ [ 121.460759, 25.013618 ], [ 121.460805681719648, 25.013600323581198 ] ] } },
{ "type": "Feature", "properties": { "hotel_name": "挪威森林森森休閒旅館", "biz_area": "新北市淡水區商圈", "min_price": 1980.0, "price_color": "#1a9850" }, "geometry": { "type": "LineString", "coordinates": [ [ 121.4613146, 25.1548826 ], [ 121.443105919331074, 25.168573728899894 ] ] } },
{ "type": "Feature", "properties": { "hotel_name": "紫虹汽車旅館", "biz_area": "新北市蘆洲區商圈", "min_price": 980.0, "price_color": "#1a9850" }, "geometry": { "type": "LineString", "coordinates": [ [ 121.4649854, 25.0902313 ], [ 121.476845555573959, 25.082623758921919 ] ] } },
{ "type": "Feature", "properties": { "hotel_name": "月圓汽車旅館", "biz_area": "新北市板橋區府中商圈", "min_price": 1380.0, "price_color": "#1a9850" }, "geometry": { "type": "LineString", "coordinates": [ [ 121.417222, 24.9734399 ], [ 121.4558267068319, 25.006486697835076 ] ] } },
{ "type": "Feature", "properties": { "hotel_name": "薇城精緻旅店", "biz_area": "新北市三重碧華布街商圈", "min_price": 1380.0, "price_color": "#1a9850" }, "geometry": { "type": "LineString", "coordinates": [ [ 121.498171, 25.062548 ], [ 121.492242132376518, 25.075923739957968 ] ] } },
{ "type": "Feature", "properties": { "hotel_name": "貝爾頌精緻汽車旅館", "biz_area": "新北市板橋區府中商圈", "min_price": 2900.0, "price_color": "#91cf60" }, "geometry": { "type": "LineString", "coordinates": [ [ 121.4187769, 25.0066047 ], [ 121.454689567238034, 25.008991604208209 ] ] } },
{ "type": "Feature", "properties": { "hotel_name": "有馬溫泉MOTEL", "biz_area": "新北市板橋區府中商圈", "min_price": 2580.0, "price_color": "#91cf60" }, "geometry": { "type": "LineString", "coordinates": [ [ 121.439199, 24.97144 ], [ 121.457279837343862, 25.005414071363564 ] ] } },
{ "type": "Feature", "properties": { "hotel_name": "雪?花園汽車旅館", "biz_area": "新北市板橋區府中商圈", "min_price": 1580.0, "price_color": "#1a9850" }, "geometry": { "type": "LineString", "coordinates": [ [ 121.436956, 24.971006 ], [ 121.456914886756337, 25.005608296310609 ] ] } },
{ "type": "Feature", "properties": { "hotel_name": "金國旅社", "biz_area": "新北市三重碧華布街商圈", "min_price": 900.0, "price_color": "#1a9850" }, "geometry": { "type": "LineString", "coordinates": [ [ 121.497388, 25.062499 ], [ 121.491847835096024, 25.075748965598738 ] ] } },
{ "type": "Feature", "properties": { "hotel_name": "歐朋侖旅店", "biz_area": "新北市淡水區商圈", "min_price": 2500.0, "price_color": "#91cf60" }, "geometry": { "type": "LineString", "coordinates": [ [ 121.442302, 25.170475 ], [ 121.443793368417815, 25.170084571915591 ] ] } },
{ "type": "Feature", "properties": { "hotel_name": "美麗心精品汽車旅館", "biz_area": "新北市新莊廟街商圈", "min_price": 1280.0, "price_color": "#1a9850" }, "geometry": { "type": "LineString", "coordinates": [ [ 121.432931, 25.018673 ], [ 121.447706168974435, 25.031696471970694 ] ] } },
{ "type": "Feature", "properties": { "hotel_name": "SINGLEINN 單人房-台北館", "biz_area": "新北市板橋區新板商圈", "min_price": 2800.0, "price_color": "#91cf60" }, "geometry": { "type": "LineString", "coordinates": [ [ 121.458935, 25.010383 ], [ 121.460814848513806, 25.010924721981432 ] ] } },
{ "type": "Feature", "properties": { "hotel_name": "紅浮浮逸旅館", "biz_area": "新北市永和中興街韓國商圈", "min_price": 1680.0, "price_color": "#1a9850" }, "geometry": { "type": "LineString", "coordinates": [ [ 121.5060771, 25.0063031 ], [ 121.515337107322793, 25.010443929150952 ] ] } },
{ "type": "Feature", "properties": { "hotel_name": "板橋王旅館", "biz_area": "新北市板橋區府中商圈", "min_price": 2500.0, "price_color": "#91cf60" }, "geometry": { "type": "LineString", "coordinates": [ [ 121.457245, 25.008131 ], [ 121.455469651007746, 25.006932895225635 ] ] } },
{ "type": "Feature", "properties": { "hotel_name": "台北輕旅複合式旅店", "biz_area": "新北市板橋區府中商圈", "min_price": 780.0, "price_color": "#1a9850" }, "geometry": { "type": "LineString", "coordinates": [ [ 121.459878, 25.007172 ], [ 121.46000363691094, 25.004894151447456 ] ] } },
{ "type": "Feature", "properties": { "hotel_name": "大埔硫磺溫泉商務旅?", "biz_area": "新北市金山商圈", "min_price": 2980.0, "price_color": "#91cf60" }, "geometry": { "type": "LineString", "coordinates": [ [ 121.64323, 25.21591 ], [ 121.64149019722791, 25.218435045192521 ] ] } },
{ "type": "Feature", "properties": { "hotel_name": "私客創旅", "biz_area": "新北市鶯歌區陶瓷藝術商圈", "min_price": 2560.0, "price_color": "#91cf60" }, "geometry": { "type": "LineString", "coordinates": [ [ 121.347625, 24.9509759 ], [ 121.345343548870005, 24.950573478093553 ] ] } }
]
}
