{
"type": "FeatureCollection",
"crs": { "type": "name", "properties": { "name": "urn:ogc:def:crs:OGC:1.3:CRS84" } },
"features": [
{ "type": "Feature", "properties": { "hotel_name": "旅居文旅西門驛站昆明館", "biz_area": "承德路中古汽車商圈", "min_price": 10000.0, "price_color": "#91cf60" }, "geometry": { "type": "LineString", "coordinates": [ [ 121.50565455, 25.0889083 ], [ 121.514944521496119, 25.092856325951935 ] ] } },
{ "type": "Feature", "properties": { "hotel_name": "承攜行旅台北八德館", "biz_area": "天母商圈", "min_price": 12000.0, "price_color": "#fc8d59" }, "geometry": { "type": "LineString", "coordinates": [ [ 121.5401376, 25.09230555 ], [ 121.5337008, 25.1010561 ] ] } },
{ "type": "Feature", "properties": { "hotel_name": "丹迪旅店-大安森林公園店", "biz_area": "士林觀光夜市商圈", "min_price": 12000.0, "price_color": "#1a9850" }, "geometry": { "type": "LineString", "coordinates": [ [ 121.525388099999986, 25.08470205 ], [ 121.525587, 25.085588 ] ] } },
{ "type": "Feature", "properties": { "hotel_name": "雀客快捷台北車站", "biz_area": "承德路中古汽車商圈", "min_price": 10780.0, "price_color": "#d73027" }, "geometry": { "type": "LineString", "coordinates": [ [ 121.515809600000011, 25.09364455 ], [ 121.515556153710079, 25.093535790788721 ] ] } },
{ "type": "Feature", "properties": { "hotel_name": "艾捷天麗大飯店", "biz_area": "士林捷運站周邊", "min_price": 30000.0, "price_color": "#fee08b" }, "geometry": { "type": "LineString", "coordinates": [ [ 121.536207100000013, 25.09349755 ], [ 121.528408543419999, 25.093907765669158 ] ] } },
{ "type": "Feature", "properties": { "hotel_name": "承攜行旅台北大稻埕", "biz_area": "承德路中古汽車商圈", "min_price": 10780.0, "price_color": "#fee08b" }, "geometry": { "type": "LineString", "coordinates": [ [ 121.50777055, 25.0946583 ], [ 121.513198419886393, 25.096965020874674 ] ] } },
{ "type": "Feature", "properties": { "hotel_name": "台北商旅（大安館）", "biz_area": "士林觀光夜市商圈", "min_price": 9200.0, "price_color": "#1a9850" }, "geometry": { "type": "LineString", "coordinates": [ [ 121.5311596, 25.08715955 ], [ 121.527368, 25.088202 ] ] } },
{ "type": "Feature", "properties": { "hotel_name": "葳皇時尚飯店", "biz_area": "承德路中古汽車商圈", "min_price": 18880.0, "price_color": "#fee08b" }, "geometry": { "type": "LineString", "coordinates": [ [ 121.509104549999989, 25.0972898 ], [ 121.512455242336372, 25.098713767802973 ] ] } },
{ "type": "Feature", "properties": { "hotel_name": "承攜行旅台北台大館", "biz_area": "承德路中古汽車商圈", "min_price": 13800.0, "price_color": "#91cf60" }, "geometry": { "type": "LineString", "coordinates": [ [ 121.5215366, 25.07857605 ], [ 121.521586566215689, 25.078662333123681 ] ] } },
{ "type": "Feature", "properties": { "hotel_name": "璞樂米窩", "biz_area": "大直商圈", "min_price": 25000.0, "price_color": "#91cf60" }, "geometry": { "type": "LineString", "coordinates": [ [ 121.5470581, 25.09108705 ], [ 121.550042126316185, 25.085064220660772 ] ] } },
{ "type": "Feature", "properties": { "hotel_name": "雲沐行旅", "biz_area": "士林觀光夜市商圈", "min_price": 16000.0, "price_color": "#fc8d59" }, "geometry": { "type": "LineString", "coordinates": [ [ 121.5338871, 25.08865905 ], [ 121.527378564879101, 25.088778354789312 ] ] } },
{ "type": "Feature", "properties": { "hotel_name": "嘉賓閣旅館", "biz_area": "新北投溫泉商圈", "min_price": 9800.0, "price_color": "#91cf60" }, "geometry": { "type": "LineString", "coordinates": [ [ 121.505977128958392, 25.135573959984661 ], [ 121.505966257916782, 25.135276919969325 ] ] } },
{ "type": "Feature", "properties": { "hotel_name": "香城大飯店", "biz_area": "士林觀光夜市商圈", "min_price": 15000.0, "price_color": "#1a9850" }, "geometry": { "type": "LineString", "coordinates": [ [ 121.535706599999983, 25.08448455 ], [ 121.527368, 25.088202 ] ] } },
{ "type": "Feature", "properties": { "hotel_name": "喬合大飯店", "biz_area": "士林觀光夜市商圈", "min_price": 10000.0, "price_color": "#1a9850" }, "geometry": { "type": "LineString", "coordinates": [ [ 121.5298561, 25.08919155 ], [ 121.527386968606592, 25.08923681044574 ] ] } },
{ "type": "Feature", "properties": { "hotel_name": "雲富大飯店", "biz_area": "士林捷運站周邊", "min_price": 10000.0, "price_color": "#fee08b" }, "geometry": { "type": "LineString", "coordinates": [ [ 121.5201786, 25.09524655 ], [ 121.524250178569616, 25.096346814365525 ] ] } },
{ "type": "Feature", "properties": { "hotel_name": "馥悅溫泉酒店", "biz_area": "新北投溫泉商圈", "min_price": 11000.0, "price_color": "#fc8d59" }, "geometry": { "type": "LineString", "coordinates": [ [ 121.506484191045388, 25.135991472927266 ], [ 121.506457382090773, 25.135258945854535 ] ] } },
{ "type": "Feature", "properties": { "hotel_name": "宏洲旅社", "biz_area": "承德路中古汽車商圈", "min_price": 12000.0, "price_color": "#fc8d59" }, "geometry": { "type": "LineString", "coordinates": [ [ 121.50724105, 25.0905868 ], [ 121.514583017700502, 25.093706968778985 ] ] } },
{ "type": "Feature", "properties": { "hotel_name": "長榮桂冠酒店 (台北)", "biz_area": "士林觀光夜市商圈", "min_price": 11500.0, "price_color": "#fee08b" }, "geometry": { "type": "LineString", "coordinates": [ [ 121.5246646, 25.09225155 ], [ 121.524821566582631, 25.091311808118586 ] ] } },
{ "type": "Feature", "properties": { "hotel_name": "金弘旅社", "biz_area": "承德路中古汽車商圈", "min_price": 14800.0, "price_color": "#d73027" }, "geometry": { "type": "LineString", "coordinates": [ [ 121.50980205, 25.0945583 ], [ 121.513545189383976, 25.096149048845238 ] ] } },
{ "type": "Feature", "properties": { "hotel_name": "明日大飯店", "biz_area": "承德路中古汽車商圈", "min_price": 12880.0, "price_color": "#91cf60" }, "geometry": { "type": "LineString", "coordinates": [ [ 121.50681805, 25.0889283 ], [ 121.515115311030826, 25.092454446651086 ] ] } },
{ "type": "Feature", "properties": { "hotel_name": "新驛旅店台北車站二館", "biz_area": "承德路中古汽車商圈", "min_price": 9500.0, "price_color": "#fee08b" }, "geometry": { "type": "LineString", "coordinates": [ [ 121.516359599999987, 25.09336455 ], [ 121.515743152574004, 25.093100019255193 ] ] } },
{ "type": "Feature", "properties": { "hotel_name": "台北馥敦飯店", "biz_area": "士林捷運站周邊", "min_price": 10000.0, "price_color": "#91cf60" }, "geometry": { "type": "LineString", "coordinates": [ [ 121.5302846, 25.09737705 ], [ 121.528044387089338, 25.096727356813499 ] ] } },
{ "type": "Feature", "properties": { "hotel_name": "豪贊旅店", "biz_area": "承德路中古汽車商圈", "min_price": 10000.0, "price_color": "#fc8d59" }, "geometry": { "type": "LineString", "coordinates": [ [ 121.506271550000022, 25.0911278 ], [ 121.514239965123849, 25.094514194642635 ] ] } },
{ "type": "Feature", "properties": { "hotel_name": "丹迪旅店-天津店", "biz_area": "承德路中古汽車商圈", "min_price": 10000.0, "price_color": "#d73027" }, "geometry": { "type": "LineString", "coordinates": [ [ 121.5197286, 25.09365255 ], [ 121.518387146124056, 25.090677186080665 ] ] } },
{ "type": "Feature", "properties": { "hotel_name": "大新飯店", "biz_area": "士林捷運站周邊", "min_price": 9800.0, "price_color": "#91cf60" }, "geometry": { "type": "LineString", "coordinates": [ [ 121.5272661, 25.09512005 ], [ 121.528397663702705, 25.095376521426438 ] ] } },
{ "type": "Feature", "properties": { "hotel_name": "密都大飯店", "biz_area": "士林捷運站周邊", "min_price": 10800.0, "price_color": "#fc8d59" }, "geometry": { "type": "LineString", "coordinates": [ [ 121.5272661, 25.09512005 ], [ 121.528397663702705, 25.095376521426438 ] ] } },
{ "type": "Feature", "properties": { "hotel_name": "雅柏精緻旅館", "biz_area": "天母商圈", "min_price": 9200.0, "price_color": "#fc8d59" }, "geometry": { "type": "LineString", "coordinates": [ [ 121.5415356, 25.09359455 ], [ 121.5337008, 25.1010561 ] ] } },
{ "type": "Feature", "properties": { "hotel_name": "悠趣旅店", "biz_area": "士林捷運站周邊", "min_price": 10000.0, "price_color": "#91cf60" }, "geometry": { "type": "LineString", "coordinates": [ [ 121.5305126, 25.09200105 ], [ 121.5283458, 25.0934577 ] ] } },
{ "type": "Feature", "properties": { "hotel_name": "春天酒店", "biz_area": "新北投溫泉商圈", "min_price": 11000.0, "price_color": "#1a9850" }, "geometry": { "type": "LineString", "coordinates": [ [ 121.51382085, 25.1381509 ], [ 121.5139537, 25.1386268 ] ] } },
{ "type": "Feature", "properties": { "hotel_name": "太平洋商旅", "biz_area": "士林觀光夜市商圈", "min_price": 18000.0, "price_color": "#fc8d59" }, "geometry": { "type": "LineString", "coordinates": [ [ 121.5370191, 25.08405005 ], [ 121.527368, 25.088202 ] ] } },
{ "type": "Feature", "properties": { "hotel_name": "天閣酒店(台北林森)", "biz_area": "承德路中古汽車商圈", "min_price": 12000.0, "price_color": "#1a9850" }, "geometry": { "type": "LineString", "coordinates": [ [ 121.5202521, 25.09283205 ], [ 121.519129644617252, 25.090342427876763 ] ] } },
{ "type": "Feature", "properties": { "hotel_name": "喜瑞飯店", "biz_area": "士林觀光夜市商圈", "min_price": 10500.0, "price_color": "#fc8d59" }, "geometry": { "type": "LineString", "coordinates": [ [ 121.522766600000011, 25.09178555 ], [ 121.523697124849178, 25.090736162487616 ] ] } },
{ "type": "Feature", "properties": { "hotel_name": "貴都飯店", "biz_area": "大龍峒商圈", "min_price": 10800.0, "price_color": "#91cf60" }, "geometry": { "type": "LineString", "coordinates": [ [ 121.50478705, 25.0826588 ], [ 121.5139037, 25.072995 ] ] } },
{ "type": "Feature", "properties": { "hotel_name": "天閣酒店台北信義", "biz_area": "大直商圈", "min_price": 15000.0, "price_color": "#fc8d59" }, "geometry": { "type": "LineString", "coordinates": [ [ 121.544501100000019, 25.08839305 ], [ 121.549527, 25.084809 ] ] } },
{ "type": "Feature", "properties": { "hotel_name": "茹曦酒店", "biz_area": "士林捷運站周邊", "min_price": 20790.0, "price_color": "#fee08b" }, "geometry": { "type": "LineString", "coordinates": [ [ 121.5323411, 25.09420205 ], [ 121.528434831531513, 25.094407525528357 ] ] } },
{ "type": "Feature", "properties": { "hotel_name": "金來商旅", "biz_area": "承德路中古汽車商圈", "min_price": 15000.0, "price_color": "#91cf60" }, "geometry": { "type": "LineString", "coordinates": [ [ 121.5221796, 25.08647355 ], [ 121.522249894485938, 25.08650661554481 ] ] } },
{ "type": "Feature", "properties": { "hotel_name": "維多麗亞酒店", "biz_area": "天母商圈", "min_price": 11550.0, "price_color": "#fee08b" }, "geometry": { "type": "LineString", "coordinates": [ [ 121.537449100000018, 25.10996255 ], [ 121.537383275409965, 25.110309169707119 ] ] } },
{ "type": "Feature", "properties": { "hotel_name": "寶格利時尚旅館", "biz_area": "承德路中古汽車商圈", "min_price": 10800.0, "price_color": "#fc8d59" }, "geometry": { "type": "LineString", "coordinates": [ [ 121.507123549999974, 25.0882298 ], [ 121.515413481373102, 25.09175283171378 ] ] } },
{ "type": "Feature", "properties": { "hotel_name": "大地酒店", "biz_area": "新北投溫泉商圈", "min_price": 13800.0, "price_color": "#fee08b" }, "geometry": { "type": "LineString", "coordinates": [ [ 121.507210844946755, 25.13498486199785 ], [ 121.50714368989351, 25.135342723995702 ] ] } },
{ "type": "Feature", "properties": { "hotel_name": "華弘怡亨酒店", "biz_area": "士林觀光夜市商圈", "min_price": 12000.0, "price_color": "#fc8d59" }, "geometry": { "type": "LineString", "coordinates": [ [ 121.5322991, 25.08465855 ], [ 121.527282502874399, 25.088076514606229 ] ] } },
{ "type": "Feature", "properties": { "hotel_name": "三二行館", "biz_area": "新北投溫泉商圈", "min_price": 29800.0, "price_color": "#fee08b" }, "geometry": { "type": "LineString", "coordinates": [ [ 121.51087, 25.13692655 ], [ 121.511014, 25.1360481 ] ] } },
{ "type": "Feature", "properties": { "hotel_name": "神旺商務酒店", "biz_area": "士林捷運站周邊", "min_price": 13600.0, "price_color": "#d73027" }, "geometry": { "type": "LineString", "coordinates": [ [ 121.5215956, 25.09376705 ], [ 121.524740426297413, 25.094549267991948 ] ] } },
{ "type": "Feature", "properties": { "hotel_name": "小王子甜蜜旅店", "biz_area": "承德路中古汽車商圈", "min_price": 10000.0, "price_color": "#fc8d59" }, "geometry": { "type": "LineString", "coordinates": [ [ 121.50700205, 25.0897383 ], [ 121.514851886829931, 25.093074301572884 ] ] } },
{ "type": "Feature", "properties": { "hotel_name": "柔美商旅", "biz_area": "士林捷運站周邊", "min_price": 22000.0, "price_color": "#fee08b" }, "geometry": { "type": "LineString", "coordinates": [ [ 121.525995600000016, 25.09502205 ], [ 121.524710191571231, 25.094667110328125 ] ] } },
{ "type": "Feature", "properties": { "hotel_name": "新舍商旅-林森館", "biz_area": "天母商圈", "min_price": 9900.0, "price_color": "#d73027" }, "geometry": { "type": "LineString", "coordinates": [ [ 121.5209611, 25.09830005 ], [ 121.522825892476604, 25.100176358807076 ] ] } },
{ "type": "Feature", "properties": { "hotel_name": "宜津美侖大飯店", "biz_area": "士林觀光夜市商圈", "min_price": 14000.0, "price_color": "#fc8d59" }, "geometry": { "type": "LineString", "coordinates": [ [ 121.5300241, 25.08498555 ], [ 121.52671339981309, 25.087241233639205 ] ] } },
{ "type": "Feature", "properties": { "hotel_name": "璽愛旅店", "biz_area": "承德路中古汽車商圈", "min_price": 10000.0, "price_color": "#d73027" }, "geometry": { "type": "LineString", "coordinates": [ [ 121.51036005, 25.0910393 ], [ 121.514897268891133, 25.092967514520282 ] ] } },
{ "type": "Feature", "properties": { "hotel_name": "同一大飯店", "biz_area": "天母商圈", "min_price": 9800.0, "price_color": "#fc8d59" }, "geometry": { "type": "LineString", "coordinates": [ [ 121.521585100000024, 25.10022655 ], [ 121.522076215666885, 25.100844967317244 ] ] } },
{ "type": "Feature", "properties": { "hotel_name": "沐蘭精品旅館", "biz_area": "天母商圈", "min_price": 14500.0, "price_color": "#fee08b" }, "geometry": { "type": "LineString", "coordinates": [ [ 121.53908509999998, 25.10832205 ], [ 121.538661634996274, 25.110551935752973 ] ] } },
{ "type": "Feature", "properties": { "hotel_name": "愛活商旅", "biz_area": "承德路中古汽車商圈", "min_price": 11000.0, "price_color": "#91cf60" }, "geometry": { "type": "LineString", "coordinates": [ [ 121.50664905, 25.0904213 ], [ 121.514552029539843, 25.093779886012243 ] ] } },
{ "type": "Feature", "properties": { "hotel_name": "雀客藏居台北南港", "biz_area": "西湖商圈", "min_price": 22880.0, "price_color": "#91cf60" }, "geometry": { "type": "LineString", "coordinates": [ [ 121.55647759999998, 25.09574005 ], [ 121.5612709, 25.0866178 ] ] } },
{ "type": "Feature", "properties": { "hotel_name": "金都精緻溫泉飯店", "biz_area": "新北投溫泉商圈", "min_price": 10500.0, "price_color": "#d73027" }, "geometry": { "type": "LineString", "coordinates": [ [ 121.5078809345124, 25.135926320795612 ], [ 121.507995869024796, 25.135560641591223 ] ] } },
{ "type": "Feature", "properties": { "hotel_name": "新驛旅店台北車站三館", "biz_area": "承德路中古汽車商圈", "min_price": 9500.0, "price_color": "#d73027" }, "geometry": { "type": "LineString", "coordinates": [ [ 121.5167586, 25.09327155 ], [ 121.515838902821628, 25.092876888315423 ] ] } },
{ "type": "Feature", "properties": { "hotel_name": "雀客旅館台北信義", "biz_area": "士林觀光夜市商圈", "min_price": 22800.0, "price_color": "#fee08b" }, "geometry": { "type": "LineString", "coordinates": [ [ 121.5376286, 25.08424405 ], [ 121.527368, 25.088202 ] ] } },
{ "type": "Feature", "properties": { "hotel_name": "台北馥華商旅南港館", "biz_area": "西湖商圈", "min_price": 13000.0, "price_color": "#1a9850" }, "geometry": { "type": "LineString", "coordinates": [ [ 121.56511660000001, 25.09746205 ], [ 121.56431504800149, 25.086712412572947 ] ] } },
{ "type": "Feature", "properties": { "hotel_name": "天閣酒店(台北南西)", "biz_area": "承德路中古汽車商圈", "min_price": 11800.0, "price_color": "#fc8d59" }, "geometry": { "type": "LineString", "coordinates": [ [ 121.5188576, 25.09410955 ], [ 121.515861633930939, 25.092823917029108 ] ] } },
{ "type": "Feature", "properties": { "hotel_name": "雀客旅館台北內湖", "biz_area": "天母商圈", "min_price": 18480.0, "price_color": "#fc8d59" }, "geometry": { "type": "LineString", "coordinates": [ [ 121.554504100000017, 25.10306205 ], [ 121.5400532, 25.1108162 ] ] } },
{ "type": "Feature", "properties": { "hotel_name": "柯達大飯店敦南店", "biz_area": "至聖花博商圈", "min_price": 15000.0, "price_color": "#91cf60" }, "geometry": { "type": "LineString", "coordinates": [ [ 121.532222600000011, 25.07829005 ], [ 121.5257161, 25.0714465 ] ] } },
{ "type": "Feature", "properties": { "hotel_name": "香樹花園酒店", "biz_area": "天母商圈", "min_price": 18000.0, "price_color": "#d73027" }, "geometry": { "type": "LineString", "coordinates": [ [ 121.5382831, 25.10985555 ], [ 121.538168632781719, 25.110458312488042 ] ] } },
{ "type": "Feature", "properties": { "hotel_name": "鵲絲旅店豪麗旺館", "biz_area": "大直商圈", "min_price": 15000.0, "price_color": "#d73027" }, "geometry": { "type": "LineString", "coordinates": [ [ 121.5378096, 25.08386755 ], [ 121.548167650013227, 25.080556503302219 ] ] } },
{ "type": "Feature", "properties": { "hotel_name": "大倉久和大飯店", "biz_area": "承德路中古汽車商圈", "min_price": 50000.0, "price_color": "#d73027" }, "geometry": { "type": "LineString", "coordinates": [ [ 121.5197506, 25.09408505 ], [ 121.518243375926957, 25.090742005408099 ] ] } },
{ "type": "Feature", "properties": { "hotel_name": "六福居", "biz_area": "承德路中古汽車商圈", "min_price": 12000.0, "price_color": "#d73027" }, "geometry": { "type": "LineString", "coordinates": [ [ 121.52015560000001, 25.09380855 ], [ 121.518683560973187, 25.090543546344804 ] ] } },
{ "type": "Feature", "properties": { "hotel_name": "東棧商務旅店", "biz_area": "士林觀光夜市商圈", "min_price": 10000.0, "price_color": "#fc8d59" }, "geometry": { "type": "LineString", "coordinates": [ [ 121.534085099999984, 25.08865555 ], [ 121.527378567251034, 25.088778484187458 ] ] } },
{ "type": "Feature", "properties": { "hotel_name": "北投天玥泉溫泉會館", "biz_area": "新北投溫泉商圈", "min_price": 12800.0, "price_color": "#91cf60" }, "geometry": { "type": "LineString", "coordinates": [ [ 121.504780381302282, 25.137405048716204 ], [ 121.504384762604545, 25.137781097432416 ] ] } },
{ "type": "Feature", "properties": { "hotel_name": "儷夏商旅", "biz_area": "承德路中古汽車商圈", "min_price": 15000.0, "price_color": "#fc8d59" }, "geometry": { "type": "LineString", "coordinates": [ [ 121.50762805, 25.0899753 ], [ 121.514862338684523, 25.093049707653698 ] ] } },
{ "type": "Feature", "properties": { "hotel_name": "台北馥華商旅敦北館", "biz_area": "士林捷運站周邊", "min_price": 10200.0, "price_color": "#d73027" }, "geometry": { "type": "LineString", "coordinates": [ [ 121.5305971, 25.09296005 ], [ 121.5283458, 25.0934577 ] ] } },
{ "type": "Feature", "properties": { "hotel_name": "富裕自由商旅", "biz_area": "士林觀光夜市商圈", "min_price": 10000.0, "price_color": "#fc8d59" }, "geometry": { "type": "LineString", "coordinates": [ [ 121.5349651, 25.08863005 ], [ 121.527378395567425, 25.088769118186171 ] ] } },
{ "type": "Feature", "properties": { "hotel_name": "和逸．台北民生館", "biz_area": "士林捷運站周邊", "min_price": 13000.0, "price_color": "#fee08b" }, "geometry": { "type": "LineString", "coordinates": [ [ 121.5261826, 25.09666955 ], [ 121.525965674251736, 25.097433254108157 ] ] } },
{ "type": "Feature", "properties": { "hotel_name": "華泰瑞舍", "biz_area": "士林捷運站周邊", "min_price": 21000.0, "price_color": "#1a9850" }, "geometry": { "type": "LineString", "coordinates": [ [ 121.52088710000001, 25.09644155 ], [ 121.523997446680056, 25.097282060273347 ] ] } },
{ "type": "Feature", "properties": { "hotel_name": "和逸 台北忠孝館", "biz_area": "承德路中古汽車商圈", "min_price": 15000.0, "price_color": "#1a9850" }, "geometry": { "type": "LineString", "coordinates": [ [ 121.5207446, 25.09008805 ], [ 121.520567097497462, 25.089694346905848 ] ] } },
{ "type": "Feature", "properties": { "hotel_name": "皇家玫瑰旅館中山館", "biz_area": "承德路中古汽車商圈", "min_price": 18000.0, "price_color": "#91cf60" }, "geometry": { "type": "LineString", "coordinates": [ [ 121.5208616, 25.09330755 ], [ 121.519458015941467, 25.0901943804454 ] ] } },
{ "type": "Feature", "properties": { "hotel_name": "明星大飯店", "biz_area": "承德路中古汽車商圈", "min_price": 12880.0, "price_color": "#1a9850" }, "geometry": { "type": "LineString", "coordinates": [ [ 121.50683555, 25.0889248 ], [ 121.51511924800883, 25.092445182676158 ] ] } },
{ "type": "Feature", "properties": { "hotel_name": "酩月大飯店", "biz_area": "承德路中古汽車商圈", "min_price": 12880.0, "price_color": "#91cf60" }, "geometry": { "type": "LineString", "coordinates": [ [ 121.50683555, 25.0889248 ], [ 121.51511924800883, 25.092445182676158 ] ] } },
{ "type": "Feature", "properties": { "hotel_name": "台北慕軒", "biz_area": "士林觀光夜市商圈", "min_price": 19000.0, "price_color": "#fee08b" }, "geometry": { "type": "LineString", "coordinates": [ [ 121.5326911, 25.08485055 ], [ 121.527368, 25.088202 ] ] } },
{ "type": "Feature", "properties": { "hotel_name": "台北漫步旅店", "biz_area": "承德路中古汽車商圈", "min_price": 18000.0, "price_color": "#fee08b" }, "geometry": { "type": "LineString", "coordinates": [ [ 121.504042708981487, 25.089581050092786 ], [ 121.514455779983649, 25.094006367713309 ] ] } },
{ "type": "Feature", "properties": { "hotel_name": "皇家玫瑰旅館站前館", "biz_area": "承德路中古汽車商圈", "min_price": 15000.0, "price_color": "#d73027" }, "geometry": { "type": "LineString", "coordinates": [ [ 121.5184426, 25.09234155 ], [ 121.517809610478892, 25.090937570171718 ] ] } },
{ "type": "Feature", "properties": { "hotel_name": "台北文華東方酒店", "biz_area": "士林捷運站周邊", "min_price": 39850.0, "price_color": "#fc8d59" }, "geometry": { "type": "LineString", "coordinates": [ [ 121.5322736, 25.09549205 ], [ 121.5284692, 25.0950609 ] ] } },
{ "type": "Feature", "properties": { "hotel_name": "雀客旅館", "biz_area": "士林捷運站周邊", "min_price": 9800.0, "price_color": "#fc8d59" }, "geometry": { "type": "LineString", "coordinates": [ [ 121.524774600000015, 25.09755705 ], [ 121.52477329582301, 25.097442376539473 ] ] } },
{ "type": "Feature", "properties": { "hotel_name": "昇美精旅", "biz_area": "士林捷運站周邊", "min_price": 18000.0, "price_color": "#d73027" }, "geometry": { "type": "LineString", "coordinates": [ [ 121.5219726, 25.09464605 ], [ 121.524521647894446, 25.09534991828264 ] ] } },
{ "type": "Feature", "properties": { "hotel_name": "有誠商旅", "biz_area": "天母商圈", "min_price": 11000.0, "price_color": "#fc8d59" }, "geometry": { "type": "LineString", "coordinates": [ [ 121.5305946, 25.11668055 ], [ 121.5335623, 25.1197438 ] ] } },
{ "type": "Feature", "properties": { "hotel_name": "首都大飯店松山館", "biz_area": "大直商圈", "min_price": 13200.0, "price_color": "#fc8d59" }, "geometry": { "type": "LineString", "coordinates": [ [ 121.5459211, 25.09274455 ], [ 121.549788578235308, 25.084938599610741 ] ] } },
{ "type": "Feature", "properties": { "hotel_name": "皇家玫瑰旅館西門館", "biz_area": "承德路中古汽車商圈", "min_price": 15000.0, "price_color": "#1a9850" }, "geometry": { "type": "LineString", "coordinates": [ [ 121.50685905, 25.0907938 ], [ 121.514450067611847, 25.094019809309682 ] ] } },
{ "type": "Feature", "properties": { "hotel_name": "思泊客", "biz_area": "大直商圈", "min_price": 11800.0, "price_color": "#fee08b" }, "geometry": { "type": "LineString", "coordinates": [ [ 121.5395551, 25.08416805 ], [ 121.548416625557948, 25.081335381215968 ] ] } },
{ "type": "Feature", "properties": { "hotel_name": "誠品行旅", "biz_area": "士林捷運站周邊", "min_price": 26000.0, "price_color": "#1a9850" }, "geometry": { "type": "LineString", "coordinates": [ [ 121.53894360000001, 25.09014705 ], [ 121.5283458, 25.0934577 ] ] } },
{ "type": "Feature", "properties": { "hotel_name": "承攜行旅台北復北館", "biz_area": "士林捷運站周邊", "min_price": 18000.0, "price_color": "#fee08b" }, "geometry": { "type": "LineString", "coordinates": [ [ 121.5302786, 25.09711205 ], [ 121.528114812785518, 25.096484521338059 ] ] } },
{ "type": "Feature", "properties": { "hotel_name": "天閣酒店台北復興", "biz_area": "士林捷運站周邊", "min_price": 10200.0, "price_color": "#fee08b" }, "geometry": { "type": "LineString", "coordinates": [ [ 121.5302241, 25.09468155 ], [ 121.528454142949244, 25.094774652372021 ] ] } },
{ "type": "Feature", "properties": { "hotel_name": "新驛旅店復興北路店", "biz_area": "士林捷運站周邊", "min_price": 9600.0, "price_color": "#fc8d59" }, "geometry": { "type": "LineString", "coordinates": [ [ 121.5300521, 25.09758805 ], [ 121.527969903648824, 25.096984183833587 ] ] } },
{ "type": "Feature", "properties": { "hotel_name": "艾特文旅", "biz_area": "承德路中古汽車商圈", "min_price": 13920.0, "price_color": "#d73027" }, "geometry": { "type": "LineString", "coordinates": [ [ 121.50517055, 25.0903173 ], [ 121.514363289316876, 25.094224004493938 ] ] } },
{ "type": "Feature", "properties": { "hotel_name": "賦樂旅居", "biz_area": "士林觀光夜市商圈", "min_price": 16170.0, "price_color": "#d73027" }, "geometry": { "type": "LineString", "coordinates": [ [ 121.5311026, 25.08933305 ], [ 121.52738998019592, 25.089401104226535 ] ] } },
{ "type": "Feature", "properties": { "hotel_name": "城市商旅德立莊分館", "biz_area": "承德路中古汽車商圈", "min_price": 18000.0, "price_color": "#fee08b" }, "geometry": { "type": "LineString", "coordinates": [ [ 121.50798455, 25.0890213 ], [ 121.515260282021586, 25.092113320126497 ] ] } },
{ "type": "Feature", "properties": { "hotel_name": "町記憶旅店", "biz_area": "承德路中古汽車商圈", "min_price": 16800.0, "price_color": "#fc8d59" }, "geometry": { "type": "LineString", "coordinates": [ [ 121.50567555, 25.0885913 ], [ 121.515061843051186, 25.092580260415438 ] ] } },
{ "type": "Feature", "properties": { "hotel_name": "台北六福萬怡酒店", "biz_area": "西湖商圈", "min_price": 12000.0, "price_color": "#d73027" }, "geometry": { "type": "LineString", "coordinates": [ [ 121.5611046, 25.09407605 ], [ 121.5625798, 25.0869093 ] ] } },
{ "type": "Feature", "properties": { "hotel_name": "壹零壹艾美琪旅店", "biz_area": "士林觀光夜市商圈", "min_price": 18000.0, "price_color": "#1a9850" }, "geometry": { "type": "LineString", "coordinates": [ [ 121.529576600000013, 25.08947505 ], [ 121.527392069678939, 25.089515093562007 ] ] } },
{ "type": "Feature", "properties": { "hotel_name": "甄美精品商旅", "biz_area": "士林捷運站周邊", "min_price": 18000.0, "price_color": "#91cf60" }, "geometry": { "type": "LineString", "coordinates": [ [ 121.5211071, 25.09501155 ], [ 121.52437254984558, 25.095893973866097 ] ] } },
{ "type": "Feature", "properties": { "hotel_name": "峻美精旅", "biz_area": "士林捷運站周邊", "min_price": 13000.0, "price_color": "#1a9850" }, "geometry": { "type": "LineString", "coordinates": [ [ 121.521206099999986, 25.09523055 ], [ 121.52432413432598, 25.096073137709102 ] ] } },
{ "type": "Feature", "properties": { "hotel_name": "天雲旅棧台北基河", "biz_area": "天母商圈", "min_price": 20000.0, "price_color": "#1a9850" }, "geometry": { "type": "LineString", "coordinates": [ [ 121.5202316, 25.10928205 ], [ 121.5214506, 25.1087212 ] ] } },
{ "type": "Feature", "properties": { "hotel_name": "禾順行旅", "biz_area": "承德路中古汽車商圈", "min_price": 10000.0, "price_color": "#91cf60" }, "geometry": { "type": "LineString", "coordinates": [ [ 121.5012515, 25.0860725 ], [ 121.515291745645371, 25.092039284096444 ] ] } },
{ "type": "Feature", "properties": { "hotel_name": "丰居旅店北車館", "biz_area": "承德路中古汽車商圈", "min_price": 10000.0, "price_color": "#d73027" }, "geometry": { "type": "LineString", "coordinates": [ [ 121.50988105, 25.0895378 ], [ 121.515364480934494, 25.0918681330526 ] ] } },
{ "type": "Feature", "properties": { "hotel_name": "寧夏2號旅店", "biz_area": "承德路中古汽車商圈", "min_price": 14880.0, "price_color": "#fc8d59" }, "geometry": { "type": "LineString", "coordinates": [ [ 121.510682049999986, 25.0948208 ], [ 121.513585318301111, 25.096054622795155 ] ] } },
{ "type": "Feature", "properties": { "hotel_name": "詩漫精品旅館", "biz_area": "承德路中古汽車商圈", "min_price": 9770.0, "price_color": "#fc8d59" }, "geometry": { "type": "LineString", "coordinates": [ [ 121.51077655, 25.0905328 ], [ 121.515143306330827, 25.092388571820941 ] ] } },
{ "type": "Feature", "properties": { "hotel_name": "城市商旅昆明館（HOTEL PAPA WHALE）", "biz_area": "承德路中古汽車商圈", "min_price": 12020.0, "price_color": "#d73027" }, "geometry": { "type": "LineString", "coordinates": [ [ 121.506187549999979, 25.0908423 ], [ 121.514329885174035, 25.09430260669631 ] ] } },
{ "type": "Feature", "properties": { "hotel_name": "碩美精品飯店", "biz_area": "士林捷運站周邊", "min_price": 15000.0, "price_color": "#91cf60" }, "geometry": { "type": "LineString", "coordinates": [ [ 121.519603100000012, 25.09646305 ], [ 121.5239846, 25.0973296 ] ] } },
{ "type": "Feature", "properties": { "hotel_name": "台北北投雅樂軒酒店", "biz_area": "新北投溫泉商圈", "min_price": 11000.0, "price_color": "#fc8d59" }, "geometry": { "type": "LineString", "coordinates": [ [ 121.5010732, 25.1320712 ], [ 121.5041154, 25.1356644 ] ] } },
{ "type": "Feature", "properties": { "hotel_name": "錦棧商旅", "biz_area": "士林捷運站周邊", "min_price": 14800.0, "price_color": "#fc8d59" }, "geometry": { "type": "LineString", "coordinates": [ [ 121.5209331, 25.09770705 ], [ 121.5239846, 25.0973296 ] ] } },
{ "type": "Feature", "properties": { "hotel_name": "侘侘行旅", "biz_area": "承德路中古汽車商圈", "min_price": 15000.0, "price_color": "#1a9850" }, "geometry": { "type": "LineString", "coordinates": [ [ 121.51677810000001, 25.09056505 ], [ 121.516861187474973, 25.090748533469458 ] ] } },
{ "type": "Feature", "properties": { "hotel_name": "尚美精旅", "biz_area": "承德路中古汽車商圈", "min_price": 15000.0, "price_color": "#fc8d59" }, "geometry": { "type": "LineString", "coordinates": [ [ 121.519112100000015, 25.09666355 ], [ 121.514975669073408, 25.094888519222465 ] ] } },
{ "type": "Feature", "properties": { "hotel_name": "町記憶旅店2館", "biz_area": "承德路中古汽車商圈", "min_price": 16800.0, "price_color": "#91cf60" }, "geometry": { "type": "LineString", "coordinates": [ [ 121.50568355, 25.0886353 ], [ 121.51504722838969, 25.092614649700216 ] ] } },
{ "type": "Feature", "properties": { "hotel_name": "瑞桑德旅店 北車館", "biz_area": "承德路中古汽車商圈", "min_price": 12800.0, "price_color": "#91cf60" }, "geometry": { "type": "LineString", "coordinates": [ [ 121.51002055, 25.0910223 ], [ 121.514851452581468, 25.09307532338881 ] ] } },
{ "type": "Feature", "properties": { "hotel_name": "亞太飯店 北投館", "biz_area": "新北投溫泉商圈", "min_price": 10000.0, "price_color": "#d73027" }, "geometry": { "type": "LineString", "coordinates": [ [ 121.51477135, 25.13652905 ], [ 121.5147477, 25.1359121 ] ] } },
{ "type": "Feature", "properties": { "hotel_name": "凱達大飯店", "biz_area": "承德路中古汽車商圈", "min_price": 9800.0, "price_color": "#fc8d59" }, "geometry": { "type": "LineString", "coordinates": [ [ 121.502521, 25.0843055 ], [ 121.515597, 25.091321 ] ] } },
{ "type": "Feature", "properties": { "hotel_name": "謙商旅(谷墨商旅-師大館)", "biz_area": "承德路中古汽車商圈", "min_price": 15880.0, "price_color": "#d73027" }, "geometry": { "type": "LineString", "coordinates": [ [ 121.5234096, 25.08112955 ], [ 121.522884327573422, 25.08133679764174 ] ] } },
{ "type": "Feature", "properties": { "hotel_name": "阿樹國際旅店", "biz_area": "士林捷運站周邊", "min_price": 10400.0, "price_color": "#d73027" }, "geometry": { "type": "LineString", "coordinates": [ [ 121.5344426, 25.09185055 ], [ 121.5283458, 25.0934577 ] ] } },
{ "type": "Feature", "properties": { "hotel_name": "富裕自由旅店林森館", "biz_area": "承德路中古汽車商圈", "min_price": 10000.0, "price_color": "#fee08b" }, "geometry": { "type": "LineString", "coordinates": [ [ 121.5209576, 25.09266805 ], [ 121.519777413289503, 25.090050378964538 ] ] } },
{ "type": "Feature", "properties": { "hotel_name": "慶爾喜旅館長沙二館", "biz_area": "承德路中古汽車商圈", "min_price": 10000.0, "price_color": "#1a9850" }, "geometry": { "type": "LineString", "coordinates": [ [ 121.506797049999989, 25.0879793 ], [ 121.515453705689751, 25.091658181182193 ] ] } },
{ "type": "Feature", "properties": { "hotel_name": "台北五號商旅", "biz_area": "承德路中古汽車商圈", "min_price": 12000.0, "price_color": "#d73027" }, "geometry": { "type": "LineString", "coordinates": [ [ 121.50746305, 25.0865483 ], [ 121.515597, 25.091321 ] ] } },
{ "type": "Feature", "properties": { "hotel_name": "台北宿之酒店．臻品之選", "biz_area": "承德路中古汽車商圈", "min_price": 30000.0, "price_color": "#1a9850" }, "geometry": { "type": "LineString", "coordinates": [ [ 121.504214183431372, 25.090409970875722 ], [ 121.514183628833109, 25.09464675773658 ] ] } },
{ "type": "Feature", "properties": { "hotel_name": "沃客汽車旅館", "biz_area": "承德路中古汽車商圈", "min_price": 22999.0, "price_color": "#91cf60" }, "geometry": { "type": "LineString", "coordinates": [ [ 121.50649555, 25.1254328 ], [ 121.501537058000935, 25.119961506691638 ] ] } },
{ "type": "Feature", "properties": { "hotel_name": "正是旅館", "biz_area": "大直商圈", "min_price": 25000.0, "price_color": "#91cf60" }, "geometry": { "type": "LineString", "coordinates": [ [ 121.5405036, 25.08892355 ], [ 121.549527, 25.084809 ] ] } },
{ "type": "Feature", "properties": { "hotel_name": "九昱晴美 ", "biz_area": "天母商圈", "min_price": 10800.0, "price_color": "#d73027" }, "geometry": { "type": "LineString", "coordinates": [ [ 121.5208541, 25.10018305 ], [ 121.521649119325033, 25.101184145569359 ] ] } },
{ "type": "Feature", "properties": { "hotel_name": "門埕青旅", "biz_area": "承德路中古汽車商圈", "min_price": 12600.0, "price_color": "#fc8d59" }, "geometry": { "type": "LineString", "coordinates": [ [ 121.51059505, 25.0924353 ], [ 121.514430706789227, 25.094065366631838 ] ] } },
{ "type": "Feature", "properties": { "hotel_name": "漫步1948", "biz_area": "承德路中古汽車商圈", "min_price": 20000.0, "price_color": "#fc8d59" }, "geometry": { "type": "LineString", "coordinates": [ [ 121.5156336, 25.09301055 ], [ 121.515758538858961, 25.093064163930443 ] ] } },
{ "type": "Feature", "properties": { "hotel_name": "台北國泰萬怡酒店 ", "biz_area": "士林捷運站周邊", "min_price": 15000.0, "price_color": "#fee08b" }, "geometry": { "type": "LineString", "coordinates": [ [ 121.5269571, 25.09666005 ], [ 121.52665239764795, 25.097630610223554 ] ] } },
{ "type": "Feature", "properties": { "hotel_name": "天閣酒店台北劍潭", "biz_area": "天母商圈", "min_price": 10500.0, "price_color": "#d73027" }, "geometry": { "type": "LineString", "coordinates": [ [ 121.5201686, 25.10912955 ], [ 121.5214506, 25.1087212 ] ] } },
{ "type": "Feature", "properties": { "hotel_name": "台北中山九昱希爾頓逸林酒店", "biz_area": "承德路中古汽車商圈", "min_price": 12000.0, "price_color": "#1a9850" }, "geometry": { "type": "LineString", "coordinates": [ [ 121.5193506, 25.09353755 ], [ 121.51811609135305, 25.090799392131089 ] ] } },
{ "type": "Feature", "properties": { "hotel_name": "美侖商旅", "biz_area": "士林捷運站周邊", "min_price": 16000.0, "price_color": "#91cf60" }, "geometry": { "type": "LineString", "coordinates": [ [ 121.523205600000011, 25.09438905 ], [ 121.524674938630895, 25.094794778296041 ] ] } },
{ "type": "Feature", "properties": { "hotel_name": "雅璞文旅", "biz_area": "承德路中古汽車商圈", "min_price": 12800.0, "price_color": "#d73027" }, "geometry": { "type": "LineString", "coordinates": [ [ 121.51077655, 25.0905328 ], [ 121.515143306330827, 25.092388571820941 ] ] } },
{ "type": "Feature", "properties": { "hotel_name": "金普頓大安酒店", "biz_area": "士林觀光夜市商圈", "min_price": 16000.0, "price_color": "#d73027" }, "geometry": { "type": "LineString", "coordinates": [ [ 121.5307516, 25.08798505 ], [ 121.527368, 25.088202 ] ] } },
{ "type": "Feature", "properties": { "hotel_name": "玩行旅 台北館", "biz_area": "士林觀光夜市商圈", "min_price": 12880.0, "price_color": "#1a9850" }, "geometry": { "type": "LineString", "coordinates": [ [ 121.5227721, 25.08895955 ], [ 121.523115335670369, 25.089194764514218 ] ] } },
{ "type": "Feature", "properties": { "hotel_name": "甲山林湯旅JSL hotel", "biz_area": "士林捷運站周邊", "min_price": 15000.0, "price_color": "#d73027" }, "geometry": { "type": "LineString", "coordinates": [ [ 121.5278026, 25.09583355 ], [ 121.52827006301186, 25.095939501529884 ] ] } },
{ "type": "Feature", "properties": { "hotel_name": "日光拾玖", "biz_area": "承德路中古汽車商圈", "min_price": 16000.0, "price_color": "#fc8d59" }, "geometry": { "type": "LineString", "coordinates": [ [ 121.515988099999987, 25.09097155 ], [ 121.516052864016913, 25.091114569468669 ] ] } },
{ "type": "Feature", "properties": { "hotel_name": "城市商旅站前館", "biz_area": "承德路中古汽車商圈", "min_price": 13200.0, "price_color": "#fc8d59" }, "geometry": { "type": "LineString", "coordinates": [ [ 121.509365549999984, 25.0930893 ], [ 121.514007204077672, 25.095061897092076 ] ] } },
{ "type": "Feature", "properties": { "hotel_name": "MVSA 慕舍酒店", "biz_area": "士林捷運站周邊", "min_price": 18800.0, "price_color": "#fee08b" }, "geometry": { "type": "LineString", "coordinates": [ [ 121.5266426, 25.09315555 ], [ 121.526904464216685, 25.092662655106334 ] ] } },
{ "type": "Feature", "properties": { "hotel_name": "瀚寓酒店", "biz_area": "大直商圈", "min_price": 16000.0, "price_color": "#fc8d59" }, "geometry": { "type": "LineString", "coordinates": [ [ 121.5397466, 25.08773305 ], [ 121.549468314939674, 25.084625413706807 ] ] } },
{ "type": "Feature", "properties": { "hotel_name": "町記憶旅店3館", "biz_area": "承德路中古汽車商圈", "min_price": 18800.0, "price_color": "#91cf60" }, "geometry": { "type": "LineString", "coordinates": [ [ 121.50565455, 25.0889083 ], [ 121.514944521496119, 25.092856325951935 ] ] } },
{ "type": "Feature", "properties": { "hotel_name": "天閣酒店台北士林", "biz_area": "天母商圈", "min_price": 20000.0, "price_color": "#91cf60" }, "geometry": { "type": "LineString", "coordinates": [ [ 121.520188100000013, 25.10921255 ], [ 121.5214506, 25.1087212 ] ] } },
{ "type": "Feature", "properties": { "hotel_name": "美亞商旅", "biz_area": "承德路中古汽車商圈", "min_price": 12000.0, "price_color": "#fc8d59" }, "geometry": { "type": "LineString", "coordinates": [ [ 121.515988099999987, 25.09097155 ], [ 121.516052864016913, 25.091114569468669 ] ] } },
{ "type": "Feature", "properties": { "hotel_name": "和苑三井花園飯店  台北忠孝", "biz_area": "士林觀光夜市商圈", "min_price": 12500.0, "price_color": "#fee08b" }, "geometry": { "type": "LineString", "coordinates": [ [ 121.525212100000019, 25.08876555 ], [ 121.523985501316474, 25.087924979399691 ] ] } },
{ "type": "Feature", "properties": { "hotel_name": "路徒PLUS行旅-主題館", "biz_area": "承德路中古汽車商圈", "min_price": 18880.0, "price_color": "#fc8d59" }, "geometry": { "type": "LineString", "coordinates": [ [ 121.510212050000021, 25.0910588 ], [ 121.514867608956408, 25.093037306348297 ] ] } },
{ "type": "Feature", "properties": { "hotel_name": "台北時代寓所", "biz_area": "承德路中古汽車商圈", "min_price": 15800.0, "price_color": "#fee08b" }, "geometry": { "type": "LineString", "coordinates": [ [ 121.5197566, 25.08985655 ], [ 121.519832741911117, 25.090025433849949 ] ] } },
{ "type": "Feature", "properties": { "hotel_name": "雀客旅館台北站前", "biz_area": "承德路中古汽車商圈", "min_price": 10560.0, "price_color": "#91cf60" }, "geometry": { "type": "LineString", "coordinates": [ [ 121.51026405, 25.0892868 ], [ 121.515513422478449, 25.091517663548398 ] ] } },
{ "type": "Feature", "properties": { "hotel_name": "旅城驛鎮", "biz_area": "士林捷運站周邊", "min_price": 10000.0, "price_color": "#91cf60" }, "geometry": { "type": "LineString", "coordinates": [ [ 121.5246826, 25.09327655 ], [ 121.525090273159748, 25.093558727458955 ] ] } },
{ "type": "Feature", "properties": { "hotel_name": "趣西門旅店", "biz_area": "承德路中古汽車商圈", "min_price": 10000.0, "price_color": "#91cf60" }, "geometry": { "type": "LineString", "coordinates": [ [ 121.50642905, 25.0900323 ], [ 121.514658401126283, 25.093529586490895 ] ] } },
{ "type": "Feature", "properties": { "hotel_name": "慶爾喜旅館", "biz_area": "承德路中古汽車商圈", "min_price": 25000.0, "price_color": "#91cf60" }, "geometry": { "type": "LineString", "coordinates": [ [ 121.50642905, 25.0900323 ], [ 121.514658401126283, 25.093529586490895 ] ] } },
{ "type": "Feature", "properties": { "hotel_name": "路徒PLUS行旅-站前館 ", "biz_area": "承德路中古汽車商圈", "min_price": 33888.0, "price_color": "#fc8d59" }, "geometry": { "type": "LineString", "coordinates": [ [ 121.510212050000021, 25.0910588 ], [ 121.514867608956408, 25.093037306348297 ] ] } },
{ "type": "Feature", "properties": { "hotel_name": "米窩飯店-西門", "biz_area": "承德路中古汽車商圈", "min_price": 20000.0, "price_color": "#fc8d59" }, "geometry": { "type": "LineString", "coordinates": [ [ 121.50550405, 25.0892443 ], [ 121.514800550065161, 25.093195100444845 ] ] } },
{ "type": "Feature", "properties": { "hotel_name": "藝築文旅台北站前館", "biz_area": "承德路中古汽車商圈", "min_price": 28800.0, "price_color": "#fee08b" }, "geometry": { "type": "LineString", "coordinates": [ [ 121.51005855, 25.0892923 ], [ 121.515480005876896, 25.091596295066964 ] ] } },
{ "type": "Feature", "properties": { "hotel_name": "格拉斯麗台北飯店", "biz_area": "士林觀光夜市商圈", "min_price": 13000.0, "price_color": "#fc8d59" }, "geometry": { "type": "LineString", "coordinates": [ [ 121.5234126, 25.08939155 ], [ 121.52311856505878, 25.089190052044415 ] ] } },
{ "type": "Feature", "properties": { "hotel_name": "見潭璞旅", "biz_area": "石牌捷運商圈", "min_price": 12000.0, "price_color": "#fee08b" }, "geometry": { "type": "LineString", "coordinates": [ [ 121.5182676, 25.11240955 ], [ 121.516968331988465, 25.112956304831378 ] ] } },
{ "type": "Feature", "properties": { "hotel_name": "城市商旅德立莊二館", "biz_area": "承德路中古汽車商圈", "min_price": 14000.0, "price_color": "#fc8d59" }, "geometry": { "type": "LineString", "coordinates": [ [ 121.508013549999987, 25.0887553 ], [ 121.515360469157258, 25.091877573035163 ] ] } },
{ "type": "Feature", "properties": { "hotel_name": "寒居酒店 Humble Boutique Hotel", "biz_area": "士林捷運站周邊", "min_price": 15000.0, "price_color": "#fc8d59" }, "geometry": { "type": "LineString", "coordinates": [ [ 121.5244706, 25.09365655 ], [ 121.524919446576405, 25.093888691858822 ] ] } },
{ "type": "Feature", "properties": { "hotel_name": "星西門行旅", "biz_area": "承德路中古汽車商圈", "min_price": 10000.0, "price_color": "#d73027" }, "geometry": { "type": "LineString", "coordinates": [ [ 121.50664905, 25.0904213 ], [ 121.514552029539843, 25.093779886012243 ] ] } },
{ "type": "Feature", "properties": { "hotel_name": "喜園旅館", "biz_area": "承德路中古汽車商圈", "min_price": 25000.0, "price_color": "#fc8d59" }, "geometry": { "type": "LineString", "coordinates": [ [ 121.50762805, 25.0899753 ], [ 121.514862338684523, 25.093049707653698 ] ] } },
{ "type": "Feature", "properties": { "hotel_name": "安捷國際公寓酒店", "biz_area": "承德路中古汽車商圈", "min_price": 9800.0, "price_color": "#91cf60" }, "geometry": { "type": "LineString", "coordinates": [ [ 121.5168426, 25.09230505 ], [ 121.516202214679183, 25.092030246993708 ] ] } },
{ "type": "Feature", "properties": { "hotel_name": "雀客快捷台北永康", "biz_area": "承德路中古汽車商圈", "min_price": 16500.0, "price_color": "#fee08b" }, "geometry": { "type": "LineString", "coordinates": [ [ 121.5212991, 25.08514105 ], [ 121.522603599866173, 25.085754668525098 ] ] } },
{ "type": "Feature", "properties": { "hotel_name": "陸號行旅中華館", "biz_area": "承德路中古汽車商圈", "min_price": 12880.0, "price_color": "#fee08b" }, "geometry": { "type": "LineString", "coordinates": [ [ 121.50762805, 25.0899753 ], [ 121.514862338684523, 25.093049707653698 ] ] } },
{ "type": "Feature", "properties": { "hotel_name": "珂曼旅館", "biz_area": "承德路中古汽車商圈", "min_price": 12000.0, "price_color": "#91cf60" }, "geometry": { "type": "LineString", "coordinates": [ [ 121.506816550000011, 25.0906198 ], [ 121.514506200067586, 25.093887725853246 ] ] } },
{ "type": "Feature", "properties": { "hotel_name": "慶爾喜旅館西門捷運館", "biz_area": "承德路中古汽車商圈", "min_price": 18000.0, "price_color": "#91cf60" }, "geometry": { "type": "LineString", "coordinates": [ [ 121.50734705, 25.0889843 ], [ 121.515176077847698, 25.092311458230157 ] ] } },
{ "type": "Feature", "properties": { "hotel_name": "陸號行旅西門館", "biz_area": "承德路中古汽車商圈", "min_price": 12800.0, "price_color": "#91cf60" }, "geometry": { "type": "LineString", "coordinates": [ [ 121.50734705, 25.0889843 ], [ 121.515176077847698, 25.092311458230157 ] ] } },
{ "type": "Feature", "properties": { "hotel_name": "立和商務旅館-漢口館", "biz_area": "承德路中古汽車商圈", "min_price": 20000.0, "price_color": "#1a9850" }, "geometry": { "type": "LineString", "coordinates": [ [ 121.50629855, 25.0905193 ], [ 121.514463134459604, 25.093989062135098 ] ] } },
{ "type": "Feature", "properties": { "hotel_name": "摩莎曼拉商務旅館-西門館", "biz_area": "承德路中古汽車商圈", "min_price": 20000.0, "price_color": "#fee08b" }, "geometry": { "type": "LineString", "coordinates": [ [ 121.50629855, 25.0905193 ], [ 121.514463134459604, 25.093989062135098 ] ] } },
{ "type": "Feature", "properties": { "hotel_name": "成都壹壹壹商旅", "biz_area": "承德路中古汽車商圈", "min_price": 12880.0, "price_color": "#fc8d59" }, "geometry": { "type": "LineString", "coordinates": [ [ 121.50539555, 25.0892683 ], [ 121.514775312881071, 25.09325448524212 ] ] } },
{ "type": "Feature", "properties": { "hotel_name": "台灣西鐵國際旅館", "biz_area": "承德路中古汽車商圈", "min_price": 11700.0, "price_color": "#fee08b" }, "geometry": { "type": "LineString", "coordinates": [ [ 121.50765155, 25.0901323 ], [ 121.51480941907613, 25.093174231063504 ] ] } },
{ "type": "Feature", "properties": { "hotel_name": "西門雲町旅店", "biz_area": "承德路中古汽車商圈", "min_price": 12000.0, "price_color": "#d73027" }, "geometry": { "type": "LineString", "coordinates": [ [ 121.50693405, 25.0895908 ], [ 121.514894579286434, 25.092973843341646 ] ] } },
{ "type": "Feature", "properties": { "hotel_name": "福華國際文教會館", "biz_area": "承德路中古汽車商圈", "min_price": 32000.0, "price_color": "#fc8d59" }, "geometry": { "type": "LineString", "coordinates": [ [ 121.5252246, 25.07940355 ], [ 121.52253954666655, 25.08046294497893 ] ] } },
{ "type": "Feature", "properties": { "hotel_name": "柯達大飯店台北南京", "biz_area": "士林捷運站周邊", "min_price": 9200.0, "price_color": "#d73027" }, "geometry": { "type": "LineString", "coordinates": [ [ 121.5317926, 25.09380705 ], [ 121.528412597809535, 25.093984843139808 ] ] } },
{ "type": "Feature", "properties": { "hotel_name": "相鐵飯店台北西門", "biz_area": "承德路中古汽車商圈", "min_price": 12000.0, "price_color": "#91cf60" }, "geometry": { "type": "LineString", "coordinates": [ [ 121.50761555, 25.0884248 ], [ 121.515418552845162, 25.091740898197784 ] ] } },
{ "type": "Feature", "properties": { "hotel_name": "日光樂居", "biz_area": "承德路中古汽車商圈", "min_price": 12000.0, "price_color": "#91cf60" }, "geometry": { "type": "LineString", "coordinates": [ [ 121.50631205, 25.0892338 ], [ 121.514927935189874, 25.092895354649851 ] ] } },
{ "type": "Feature", "properties": { "hotel_name": "福泰桔子商務旅館西門漢中店", "biz_area": "承德路中古汽車商圈", "min_price": 10800.0, "price_color": "#fc8d59" }, "geometry": { "type": "LineString", "coordinates": [ [ 121.50654455, 25.0881348 ], [ 121.515359104352925, 25.091880784511865 ] ] } },
{ "type": "Feature", "properties": { "hotel_name": "美好境界旅店", "biz_area": "承德路中古汽車商圈", "min_price": 16000.0, "price_color": "#fc8d59" }, "geometry": { "type": "LineString", "coordinates": [ [ 121.50664905, 25.0904213 ], [ 121.514552029539843, 25.093779886012243 ] ] } },
{ "type": "Feature", "properties": { "hotel_name": "歐法行旅", "biz_area": "承德路中古汽車商圈", "min_price": 12000.0, "price_color": "#91cf60" }, "geometry": { "type": "LineString", "coordinates": [ [ 121.50762805, 25.0899753 ], [ 121.514862338684523, 25.093049707653698 ] ] } },
{ "type": "Feature", "properties": { "hotel_name": "藝築文旅昆明館", "biz_area": "承德路中古汽車商圈", "min_price": 45800.0, "price_color": "#fc8d59" }, "geometry": { "type": "LineString", "coordinates": [ [ 121.50576405, 25.0890573 ], [ 121.514907637640675, 25.092943116152863 ] ] } },
{ "type": "Feature", "properties": { "hotel_name": "台北大安伊普索酒店", "biz_area": "士林觀光夜市商圈", "min_price": 13000.0, "price_color": "#fee08b" }, "geometry": { "type": "LineString", "coordinates": [ [ 121.530038100000013, 25.08721655 ], [ 121.527368, 25.088202 ] ] } },
{ "type": "Feature", "properties": { "hotel_name": "雀客旅館台北杭州", "biz_area": "承德路中古汽車商圈", "min_price": 9800.0, "price_color": "#fc8d59" }, "geometry": { "type": "LineString", "coordinates": [ [ 121.520807100000013, 25.08782455 ], [ 121.521480875018426, 25.088141484362179 ] ] } },
{ "type": "Feature", "properties": { "hotel_name": "北投晶泉丰旅", "biz_area": "新北投溫泉商圈", "min_price": 22000.0, "price_color": "#91cf60" }, "geometry": { "type": "LineString", "coordinates": [ [ 121.504518015160386, 25.138063497730659 ], [ 121.504589030320773, 25.13799599546131 ] ] } },
{ "type": "Feature", "properties": { "hotel_name": "貓尾口袋（西門館）", "biz_area": "承德路中古汽車商圈", "min_price": 18000.0, "price_color": "#d73027" }, "geometry": { "type": "LineString", "coordinates": [ [ 121.504658517269576, 25.08964583985183 ], [ 121.514526662470487, 25.093839576438317 ] ] } },
{ "type": "Feature", "properties": { "hotel_name": "捷絲旅臺大尊賢館", "biz_area": "至聖花博商圈", "min_price": 12100.0, "price_color": "#fee08b" }, "geometry": { "type": "LineString", "coordinates": [ [ 121.5262486, 25.07440955 ], [ 121.5241873, 25.0725495 ] ] } },
{ "type": "Feature", "properties": { "hotel_name": "臺北嘉佩樂酒店 Capella Taipei", "biz_area": "士林捷運站周邊", "min_price": 34650.0, "price_color": "#1a9850" }, "geometry": { "type": "LineString", "coordinates": [ [ 121.532961599999979, 25.09408155 ], [ 121.52843022267632, 25.094319907183401 ] ] } }
]
}
