{
"type": "FeatureCollection",
"crs": { "type": "name", "properties": { "name": "urn:ogc:def:crs:OGC:1.3:CRS84" } },
"features": [
{ "type": "Feature", "properties": { "hotel_name": "沐舍溫泉渡假酒店", "biz_area": "新北市金山商圈", "min_price": 16500.0, "price_color": "#d73027" }, "geometry": { "type": "LineString", "coordinates": [ [ 121.643493, 25.215392 ], [ 121.64142651742263, 25.218391168630589 ] ] } },
{ "type": "Feature", "properties": { "hotel_name": "陽明山天籟渡假酒店", "biz_area": "新北市金山商圈", "min_price": 14500.0, "price_color": "#d73027" }, "geometry": { "type": "LineString", "coordinates": [ [ 121.594999, 25.201883 ], [ 121.634034569642751, 25.220330213720342 ] ] } },
{ "type": "Feature", "properties": { "hotel_name": "富逸旅趣-板橋府中館", "biz_area": "新北市板橋區府中商圈", "min_price": 20000.0, "price_color": "#d73027" }, "geometry": { "type": "LineString", "coordinates": [ [ 121.4580935, 25.0085737 ], [ 121.455936535813308, 25.006378768637994 ] ] } },
{ "type": "Feature", "properties": { "hotel_name": "板橋旅居文旅", "biz_area": "新北市板橋區新板商圈", "min_price": 12000.0, "price_color": "#d73027" }, "geometry": { "type": "LineString", "coordinates": [ [ 121.4628644, 25.00927183 ], [ 121.462499805127592, 25.008719366658593 ] ] } },
{ "type": "Feature", "properties": { "hotel_name": "丰居旅店微風館", "biz_area": "新北市蘆洲區商圈", "min_price": 15000.0, "price_color": "#d73027" }, "geometry": { "type": "LineString", "coordinates": [ [ 121.4851339, 25.0773284 ], [ 121.484935017011338, 25.077521908859985 ] ] } },
{ "type": "Feature", "properties": { "hotel_name": "旅居文旅-板橋驛站2館", "biz_area": "新北市板橋區府中商圈", "min_price": 12000.0, "price_color": "#d73027" }, "geometry": { "type": "LineString", "coordinates": [ [ 121.454328, 25.003215 ], [ 121.456489972041226, 25.005893291097237 ] ] } },
{ "type": "Feature", "properties": { "hotel_name": "庭有名旅居文旅", "biz_area": "新北市板橋區府中商圈", "min_price": 12000.0, "price_color": "#d73027" }, "geometry": { "type": "LineString", "coordinates": [ [ 121.443392, 24.974949 ], [ 121.45733467201967, 25.005384888612884 ] ] } },
{ "type": "Feature", "properties": { "hotel_name": "沃客伽洲旅社", "biz_area": "新北市三重碧華布街商圈", "min_price": 16800.0, "price_color": "#d73027" }, "geometry": { "type": "LineString", "coordinates": [ [ 121.488095, 25.051515 ], [ 121.489469317278378, 25.07540286824576 ] ] } },
{ "type": "Feature", "properties": { "hotel_name": "馥俐商旅", "biz_area": "新北市板橋區府中商圈", "min_price": 9900.0, "price_color": "#d73027" }, "geometry": { "type": "LineString", "coordinates": [ [ 121.458116, 25.007901 ], [ 121.456697645179673, 25.005751654180052 ] ] } },
{ "type": "Feature", "properties": { "hotel_name": "喜客商旅-三重館", "biz_area": "新北市三重碧華布街商圈", "min_price": 14800.0, "price_color": "#d73027" }, "geometry": { "type": "LineString", "coordinates": [ [ 121.494895, 25.070982 ], [ 121.492285200085945, 25.075942829948414 ] ] } },
{ "type": "Feature", "properties": { "hotel_name": "百麗旅店", "biz_area": "新北市板橋區府中商圈", "min_price": 9880.0, "price_color": "#d73027" }, "geometry": { "type": "LineString", "coordinates": [ [ 121.45756, 25.008538 ], [ 121.455379501909576, 25.007066477958972 ] ] } },
{ "type": "Feature", "properties": { "hotel_name": "馥俐旅店", "biz_area": "新北市板橋區府中商圈", "min_price": 9900.0, "price_color": "#d73027" }, "geometry": { "type": "LineString", "coordinates": [ [ 121.457892, 25.0090009 ], [ 121.45498288492476, 25.007817416403352 ] ] } },
{ "type": "Feature", "properties": { "hotel_name": "旅居文旅-板橋驛站1館", "biz_area": "新北市板橋區府中商圈", "min_price": 12000.0, "price_color": "#d73027" }, "geometry": { "type": "LineString", "coordinates": [ [ 121.4543127, 25.00683152 ], [ 121.455223755488745, 25.007318397189593 ] ] } },
{ "type": "Feature", "properties": { "hotel_name": "柜富旅店", "biz_area": "新北市三重碧華布街商圈", "min_price": 12000.0, "price_color": "#d73027" }, "geometry": { "type": "LineString", "coordinates": [ [ 121.497481, 25.062712 ], [ 121.491847835096024, 25.075748965598738 ] ] } },
{ "type": "Feature", "properties": { "hotel_name": "夢綺旅店", "biz_area": "新北市板橋區府中商圈", "min_price": 12000.0, "price_color": "#d73027" }, "geometry": { "type": "LineString", "coordinates": [ [ 121.453753, 25.010996 ], [ 121.454863401792451, 25.01065113018198 ] ] } },
{ "type": "Feature", "properties": { "hotel_name": "上格大飯店", "biz_area": "新北市三重碧華布街商圈", "min_price": 18800.0, "price_color": "#d73027" }, "geometry": { "type": "LineString", "coordinates": [ [ 121.488743, 25.051896 ], [ 121.489554986668409, 25.075399908635777 ] ] } },
{ "type": "Feature", "properties": { "hotel_name": "馥都飯店", "biz_area": "新北市板橋區府中商圈", "min_price": 11600.0, "price_color": "#d73027" }, "geometry": { "type": "LineString", "coordinates": [ [ 121.4582219, 25.0076129 ], [ 121.457102049214882, 25.005508689350538 ] ] } },
{ "type": "Feature", "properties": { "hotel_name": "藏愛旅店", "biz_area": "新北市三重碧華布街商圈", "min_price": 12000.0, "price_color": "#d73027" }, "geometry": { "type": "LineString", "coordinates": [ [ 121.489257, 25.051607 ], [ 121.489955378871088, 25.075386076335128 ] ] } },
{ "type": "Feature", "properties": { "hotel_name": "大觀商旅", "biz_area": "新北市新莊廟街商圈", "min_price": 12000.0, "price_color": "#d73027" }, "geometry": { "type": "LineString", "coordinates": [ [ 121.453804, 25.036103 ], [ 121.455371866618563, 25.037410047485782 ] ] } },
{ "type": "Feature", "properties": { "hotel_name": "沃客新舍旅社", "biz_area": "新北市三重碧華布街商圈", "min_price": 16800.0, "price_color": "#d73027" }, "geometry": { "type": "LineString", "coordinates": [ [ 121.488093, 25.051517 ], [ 121.489469317278378, 25.07540286824576 ] ] } },
{ "type": "Feature", "properties": { "hotel_name": "福容大飯店 福隆貝悅", "biz_area": "新北市雙溪低碳商圈", "min_price": 14080.0, "price_color": "#d73027" }, "geometry": { "type": "LineString", "coordinates": [ [ 121.943978, 25.018408 ], [ 121.863868375938367, 25.037456483548834 ] ] } },
{ "type": "Feature", "properties": { "hotel_name": "香奈爾汽車旅館 (新莊店)", "biz_area": "新北市新莊廟街商圈", "min_price": 13800.0, "price_color": "#d73027" }, "geometry": { "type": "LineString", "coordinates": [ [ 121.4336972, 25.0284124 ], [ 121.446775352125982, 25.033240207503649 ] ] } },
{ "type": "Feature", "properties": { "hotel_name": "挪威森林頂級汽車旅館", "biz_area": "新北市板橋區府中商圈", "min_price": 20000.0, "price_color": "#d73027" }, "geometry": { "type": "LineString", "coordinates": [ [ 121.460704, 24.993067 ], [ 121.46005151651552, 25.00489679229274 ] ] } },
{ "type": "Feature", "properties": { "hotel_name": "慾望精緻汽車旅館", "biz_area": "新北市深坑商圈", "min_price": 10000.0, "price_color": "#d73027" }, "geometry": { "type": "LineString", "coordinates": [ [ 121.630749, 25.054608 ], [ 121.61761676481143, 24.993936472335196 ] ] } },
{ "type": "Feature", "properties": { "hotel_name": "挪威森林精品SPA汽車旅館", "biz_area": "新北市中和華新街商圈", "min_price": 20000.0, "price_color": "#d73027" }, "geometry": { "type": "LineString", "coordinates": [ [ 121.5507933, 24.9808276 ], [ 121.513034080809632, 24.983706882931635 ] ] } },
{ "type": "Feature", "properties": { "hotel_name": "歐悅精品汽車旅館-林口館", "biz_area": "新北市林口建成商圈", "min_price": 15800.0, "price_color": "#d73027" }, "geometry": { "type": "LineString", "coordinates": [ [ 121.374467, 25.081484 ], [ 121.384740146222455, 25.078758708318382 ] ] } },
{ "type": "Feature", "properties": { "hotel_name": "白宮行館", "biz_area": "新北市萬里商圈", "min_price": 12000.0, "price_color": "#d73027" }, "geometry": { "type": "LineString", "coordinates": [ [ 121.690402, 25.180397 ], [ 121.691364742685039, 25.183447128155311 ] ] } },
{ "type": "Feature", "properties": { "hotel_name": "美麗海精品汽車旅館", "biz_area": "新北市蘆洲區商圈", "min_price": 11180.0, "price_color": "#d73027" }, "geometry": { "type": "LineString", "coordinates": [ [ 121.4620831, 25.060504 ], [ 121.477749769416562, 25.077269278141831 ] ] } },
{ "type": "Feature", "properties": { "hotel_name": "集璦飯店", "biz_area": "新北市板橋區新板商圈", "min_price": 10000.0, "price_color": "#d73027" }, "geometry": { "type": "LineString", "coordinates": [ [ 121.485301, 25.000404 ], [ 121.469935090237911, 25.010197176609871 ] ] } },
{ "type": "Feature", "properties": { "hotel_name": "沃客商旅-正義館", "biz_area": "新北市三重碧華布街商圈", "min_price": 14800.0, "price_color": "#d73027" }, "geometry": { "type": "LineString", "coordinates": [ [ 121.498227, 25.060405 ], [ 121.491847835096024, 25.075748965598738 ] ] } },
{ "type": "Feature", "properties": { "hotel_name": "富士大飯店", "biz_area": "新北市深坑商圈", "min_price": 13200.0, "price_color": "#d73027" }, "geometry": { "type": "LineString", "coordinates": [ [ 121.6286358, 25.0544102 ], [ 121.61761676481143, 24.993936472335196 ] ] } },
{ "type": "Feature", "properties": { "hotel_name": "薆悅酒店野柳渡假館二館", "biz_area": "新北市萬里商圈", "min_price": 9680.0, "price_color": "#d73027" }, "geometry": { "type": "LineString", "coordinates": [ [ 121.690128, 25.204291 ], [ 121.689651718359457, 25.183714249625151 ] ] } },
{ "type": "Feature", "properties": { "hotel_name": "薆悅酒店野柳渡假館一館", "biz_area": "新北市萬里商圈", "min_price": 14080.0, "price_color": "#d73027" }, "geometry": { "type": "LineString", "coordinates": [ [ 121.690337, 25.204077 ], [ 121.689651718359457, 25.183714249625151 ] ] } },
{ "type": "Feature", "properties": { "hotel_name": "黑熊好眠站", "biz_area": "新北市板橋區府中商圈", "min_price": 20000.0, "price_color": "#d73027" }, "geometry": { "type": "LineString", "coordinates": [ [ 121.4565846, 25.005939 ], [ 121.456532768872222, 25.005860456171455 ] ] } },
{ "type": "Feature", "properties": { "hotel_name": "蘊泉庄(鴻寬)", "biz_area": "新北市淡水區商圈", "min_price": 22800.0, "price_color": "#d73027" }, "geometry": { "type": "LineString", "coordinates": [ [ 121.454358, 25.161639 ], [ 121.443234604862553, 25.168774338856057 ] ] } },
{ "type": "Feature", "properties": { "hotel_name": "睡台北複合式旅店", "biz_area": "新北市板橋區府中商圈", "min_price": 15000.0, "price_color": "#d73027" }, "geometry": { "type": "LineString", "coordinates": [ [ 121.455904, 25.006623 ], [ 121.455791352864253, 25.006529118646515 ] ] } },
{ "type": "Feature", "properties": { "hotel_name": "趣淘漫旅-台北 Hotel Cham Cham Taipei", "biz_area": "新北市板橋區府中商圈", "min_price": 10000.0, "price_color": "#d73027" }, "geometry": { "type": "LineString", "coordinates": [ [ 121.463462, 25.011262 ], [ 121.463945231662791, 25.011588080412007 ] ] } },
{ "type": "Feature", "properties": { "hotel_name": "品川商旅", "biz_area": "新北市板橋區府中商圈", "min_price": 18000.0, "price_color": "#d73027" }, "geometry": { "type": "LineString", "coordinates": [ [ 121.460825, 25.006011 ], [ 121.461050038719591, 25.005070581594332 ] ] } },
{ "type": "Feature", "properties": { "hotel_name": "富裕自由旅店正義館", "biz_area": "新北市永和中興街韓國商圈", "min_price": 20000.0, "price_color": "#d73027" }, "geometry": { "type": "LineString", "coordinates": [ [ 121.533012, 25.042385 ], [ 121.522072016131801, 25.01626669746182 ] ] } },
{ "type": "Feature", "properties": { "hotel_name": "亞昕福朋喜來登酒店", "biz_area": "新北市林口建成商圈", "min_price": 18000.0, "price_color": "#d73027" }, "geometry": { "type": "LineString", "coordinates": [ [ 121.36098, 25.06618 ], [ 121.384864174631659, 25.075918347081362 ] ] } },
{ "type": "Feature", "properties": { "hotel_name": "雀客快捷", "biz_area": "新北市淡水區商圈", "min_price": 22000.0, "price_color": "#d73027" }, "geometry": { "type": "LineString", "coordinates": [ [ 121.4446987, 25.1692679 ], [ 121.44366786173785, 25.169658492216954 ] ] } },
{ "type": "Feature", "properties": { "hotel_name": "將捷金鬱金香酒店", "biz_area": "新北市淡水區商圈", "min_price": 10560.0, "price_color": "#d73027" }, "geometry": { "type": "LineString", "coordinates": [ [ 121.4288468, 25.1756671 ], [ 121.434417010082996, 25.172858706392265 ] ] } },
{ "type": "Feature", "properties": { "hotel_name": "傑仕堡有氧酒店", "biz_area": "新北市板橋區新板商圈", "min_price": 9900.0, "price_color": "#d73027" }, "geometry": { "type": "LineString", "coordinates": [ [ 121.46958, 25.01808 ], [ 121.468247187415514, 25.016060463287943 ] ] } },
{ "type": "Feature", "properties": { "hotel_name": "東暘旅店", "biz_area": "新北市鶯歌區陶瓷藝術商圈", "min_price": 16800.0, "price_color": "#d73027" }, "geometry": { "type": "LineString", "coordinates": [ [ 121.488106, 25.049926 ], [ 121.488095, 25.051515 ] ] } },
{ "type": "Feature", "properties": { "hotel_name": "雀客藏居新北三重水漾", "biz_area": "新北市蘆洲區商圈", "min_price": 25080.0, "price_color": "#d73027" }, "geometry": { "type": "LineString", "coordinates": [ [ 121.4832322, 25.0556913 ], [ 121.481756226123665, 25.076009801379257 ] ] } },
{ "type": "Feature", "properties": { "hotel_name": "富碧酒店公寓", "biz_area": "新北市林口建成商圈", "min_price": 18800.0, "price_color": "#d73027" }, "geometry": { "type": "LineString", "coordinates": [ [ 121.375381, 25.0770812 ], [ 121.384543935449642, 25.077446128338451 ] ] } },
{ "type": "Feature", "properties": { "hotel_name": "新北林口爵怡溫德姆酒店", "biz_area": "新北市林口建成商圈", "min_price": 11800.0, "price_color": "#d73027" }, "geometry": { "type": "LineString", "coordinates": [ [ 121.3604842, 25.0655261 ], [ 121.38494385753124, 25.075722917582606 ] ] } },
{ "type": "Feature", "properties": { "hotel_name": "陽明山家新休閒君鈺會館", "biz_area": "新北市金山商圈", "min_price": 12800.0, "price_color": "#d73027" }, "geometry": { "type": "LineString", "coordinates": [ [ 121.5973, 25.2059 ], [ 121.633866069714045, 25.220745254115851 ] ] } }
]
}
