{
"type": "FeatureCollection",
"crs": { "type": "name", "properties": { "name": "urn:ogc:def:crs:OGC:1.3:CRS84" } },
"features": [
{ "type": "Feature", "properties": { "hotel_name": "漾館溫泉商旅", "biz_area": "新北投溫泉商圈", "min_price": 5888.0, "price_color": "#fc8d59" }, "geometry": { "type": "LineString", "coordinates": [ [ 121.504707027157636, 25.135310788057907 ], [ 121.504754054315271, 25.13545257611581 ] ] } },
{ "type": "Feature", "properties": { "hotel_name": "和怡商務旅館", "biz_area": "西湖商圈", "min_price": 3380.0, "price_color": "#fc8d59" }, "geometry": { "type": "LineString", "coordinates": [ [ 121.55804710000001, 25.09625505 ], [ 121.5612709, 25.0866178 ] ] } },
{ "type": "Feature", "properties": { "hotel_name": "皇后旅社", "biz_area": "承德路中古汽車商圈", "min_price": 6800.0, "price_color": "#1a9850" }, "geometry": { "type": "LineString", "coordinates": [ [ 121.510657549999976, 25.0932968 ], [ 121.514130157653213, 25.094772579031353 ] ] } },
{ "type": "Feature", "properties": { "hotel_name": "新凱飯店", "biz_area": "天母商圈", "min_price": 3000.0, "price_color": "#1a9850" }, "geometry": { "type": "LineString", "coordinates": [ [ 121.521774599999986, 25.10119905 ], [ 121.521718810996305, 25.101128799978841 ] ] } },
{ "type": "Feature", "properties": { "hotel_name": "漫慢米窩旅店", "biz_area": "天母商圈", "min_price": 5600.0, "price_color": "#91cf60" }, "geometry": { "type": "LineString", "coordinates": [ [ 121.5201751, 25.09965805 ], [ 121.521488405548709, 25.101311776299021 ] ] } },
{ "type": "Feature", "properties": { "hotel_name": "首都唯客樂飯店", "biz_area": "士林捷運站周邊", "min_price": 5800.0, "price_color": "#d73027" }, "geometry": { "type": "LineString", "coordinates": [ [ 121.5269526, 25.09524305 ], [ 121.528355829665074, 25.095561095120189 ] ] } },
{ "type": "Feature", "properties": { "hotel_name": "力歐時尚旅館", "biz_area": "承德路中古汽車商圈", "min_price": 3000.0, "price_color": "#fc8d59" }, "geometry": { "type": "LineString", "coordinates": [ [ 121.50877555, 25.0907773 ], [ 121.514749187632134, 25.093315959715913 ] ] } },
{ "type": "Feature", "properties": { "hotel_name": "悅來旅館", "biz_area": "承德路中古汽車商圈", "min_price": 5000.0, "price_color": "#1a9850" }, "geometry": { "type": "LineString", "coordinates": [ [ 121.50828555, 25.0908203 ], [ 121.51465875034576, 25.093528764753898 ] ] } },
{ "type": "Feature", "properties": { "hotel_name": "金財神旅館", "biz_area": "承德路中古汽車商圈", "min_price": 5000.0, "price_color": "#91cf60" }, "geometry": { "type": "LineString", "coordinates": [ [ 121.50828555, 25.0908203 ], [ 121.51465875034576, 25.093528764753898 ] ] } },
{ "type": "Feature", "properties": { "hotel_name": "紫園旅社", "biz_area": "承德路中古汽車商圈", "min_price": 5200.0, "price_color": "#fee08b" }, "geometry": { "type": "LineString", "coordinates": [ [ 121.5180976, 25.09312555 ], [ 121.517229134067946, 25.091199280117962 ] ] } },
{ "type": "Feature", "properties": { "hotel_name": "東皇大飯店", "biz_area": "新北投溫泉商圈", "min_price": 5000.0, "price_color": "#fc8d59" }, "geometry": { "type": "LineString", "coordinates": [ [ 121.510623987641893, 25.135990755443128 ], [ 121.510625975283816, 25.135979510886248 ] ] } },
{ "type": "Feature", "properties": { "hotel_name": "旅居文旅-松山驛站", "biz_area": "大直商圈", "min_price": 3000.0, "price_color": "#fee08b" }, "geometry": { "type": "LineString", "coordinates": [ [ 121.545165600000018, 25.09273005 ], [ 121.549527, 25.084809 ] ] } },
{ "type": "Feature", "properties": { "hotel_name": "薇閣精品旅館", "biz_area": "天母商圈", "min_price": 3800.0, "price_color": "#fc8d59" }, "geometry": { "type": "LineString", "coordinates": [ [ 121.5213576, 25.09802155 ], [ 121.523164610382352, 25.099839719870058 ] ] } },
{ "type": "Feature", "properties": { "hotel_name": "薇閣精品旅館", "biz_area": "天母商圈", "min_price": 4700.0, "price_color": "#fc8d59" }, "geometry": { "type": "LineString", "coordinates": [ [ 121.5213576, 25.09802155 ], [ 121.523164610382352, 25.099839719870058 ] ] } },
{ "type": "Feature", "properties": { "hotel_name": "洛碁大飯店花華分館", "biz_area": "承德路中古汽車商圈", "min_price": 3000.0, "price_color": "#d73027" }, "geometry": { "type": "LineString", "coordinates": [ [ 121.51024705, 25.0901743 ], [ 121.515191352563107, 25.092275515793993 ] ] } },
{ "type": "Feature", "properties": { "hotel_name": "京都商務旅館", "biz_area": "士林捷運站周邊", "min_price": 4300.0, "price_color": "#1a9850" }, "geometry": { "type": "LineString", "coordinates": [ [ 121.5205551, 25.09524105 ], [ 121.524277186325278, 25.096246870931388 ] ] } },
{ "type": "Feature", "properties": { "hotel_name": "台北世聯商旅", "biz_area": "士林捷運站周邊", "min_price": 4600.0, "price_color": "#fee08b" }, "geometry": { "type": "LineString", "coordinates": [ [ 121.524049600000026, 25.09311605 ], [ 121.525051147964845, 25.093634047058394 ] ] } },
{ "type": "Feature", "properties": { "hotel_name": "台北碧瑤飯店", "biz_area": "士林捷運站周邊", "min_price": 4300.0, "price_color": "#fee08b" }, "geometry": { "type": "LineString", "coordinates": [ [ 121.5304061, 25.09175405 ], [ 121.5283458, 25.0934577 ] ] } },
{ "type": "Feature", "properties": { "hotel_name": "家賓大旅社", "biz_area": "中山商圈", "min_price": 4000.0, "price_color": "#1a9850" }, "geometry": { "type": "LineString", "coordinates": [ [ 121.5286916, 25.06367805 ], [ 121.528028183808672, 25.06368677990978 ] ] } },
{ "type": "Feature", "properties": { "hotel_name": "璞漣商務旅館西門店", "biz_area": "承德路中古汽車商圈", "min_price": 3300.0, "price_color": "#91cf60" }, "geometry": { "type": "LineString", "coordinates": [ [ 121.50670605, 25.0890783 ], [ 121.515044182784777, 25.092621816214105 ] ] } },
{ "type": "Feature", "properties": { "hotel_name": "台北商旅慶城館", "biz_area": "士林捷運站周邊", "min_price": 8000.0, "price_color": "#91cf60" }, "geometry": { "type": "LineString", "coordinates": [ [ 121.530611599999986, 25.09429355 ], [ 121.528434859109339, 25.094408049806709 ] ] } },
{ "type": "Feature", "properties": { "hotel_name": "皇家大飯店", "biz_area": "承德路中古汽車商圈", "min_price": 4280.0, "price_color": "#d73027" }, "geometry": { "type": "LineString", "coordinates": [ [ 121.51047055, 25.0907753 ], [ 121.515009203728738, 25.092704124293526 ] ] } },
{ "type": "Feature", "properties": { "hotel_name": "東姿商務旅館", "biz_area": "士林捷運站周邊", "min_price": 5400.0, "price_color": "#91cf60" }, "geometry": { "type": "LineString", "coordinates": [ [ 121.5238851, 25.09459155 ], [ 121.524671123540998, 25.094808594584027 ] ] } },
{ "type": "Feature", "properties": { "hotel_name": "內江商旅", "biz_area": "承德路中古汽車商圈", "min_price": 4998.0, "price_color": "#fc8d59" }, "geometry": { "type": "LineString", "coordinates": [ [ 121.506286050000014, 25.0884048 ], [ 121.515222369113687, 25.092202531757337 ] ] } },
{ "type": "Feature", "properties": { "hotel_name": "老爺商務會館", "biz_area": "承德路中古汽車商圈", "min_price": 3000.0, "price_color": "#91cf60" }, "geometry": { "type": "LineString", "coordinates": [ [ 121.519119100000012, 25.09405555 ], [ 121.517729609031662, 25.090973639121394 ] ] } },
{ "type": "Feature", "properties": { "hotel_name": "享住旅店 Just Live Inn", "biz_area": "承德路中古汽車商圈", "min_price": 3450.0, "price_color": "#d73027" }, "geometry": { "type": "LineString", "coordinates": [ [ 121.51069055, 25.0901673 ], [ 121.515261717659953, 25.092109941972552 ] ] } },
{ "type": "Feature", "properties": { "hotel_name": "璞漣商務旅館臺北車站店", "biz_area": "承德路中古汽車商圈", "min_price": 6000.0, "price_color": "#fee08b" }, "geometry": { "type": "LineString", "coordinates": [ [ 121.5159291, 25.09285005 ], [ 121.515862655201161, 25.092821537118958 ] ] } },
{ "type": "Feature", "properties": { "hotel_name": "承攜行旅台北重慶館", "biz_area": "承德路中古汽車商圈", "min_price": 7200.0, "price_color": "#1a9850" }, "geometry": { "type": "LineString", "coordinates": [ [ 121.510255049999984, 25.0936698 ], [ 121.513934317275528, 25.095233404656273 ] ] } },
{ "type": "Feature", "properties": { "hotel_name": "賓王大飯店", "biz_area": "承德路中古汽車商圈", "min_price": 5500.0, "price_color": "#fee08b" }, "geometry": { "type": "LineString", "coordinates": [ [ 121.50989355, 25.0946668 ], [ 121.513520130540215, 25.096208013995707 ] ] } },
{ "type": "Feature", "properties": { "hotel_name": "凱微精品旅館", "biz_area": "士林捷運站周邊", "min_price": 3980.0, "price_color": "#91cf60" }, "geometry": { "type": "LineString", "coordinates": [ [ 121.5209046, 25.09706355 ], [ 121.5239846, 25.0973296 ] ] } },
{ "type": "Feature", "properties": { "hotel_name": "香都大飯店（香城長安）", "biz_area": "士林觀光夜市商圈", "min_price": 6500.0, "price_color": "#1a9850" }, "geometry": { "type": "LineString", "coordinates": [ [ 121.5220181, 25.09196005 ], [ 121.523364723883503, 25.090441412116768 ] ] } },
{ "type": "Feature", "properties": { "hotel_name": "幸福大旅社", "biz_area": "承德路中古汽車商圈", "min_price": 3500.0, "price_color": "#fc8d59" }, "geometry": { "type": "LineString", "coordinates": [ [ 121.50596555, 25.0889398 ], [ 121.51498075846024, 25.092771057929912 ] ] } },
{ "type": "Feature", "properties": { "hotel_name": "瑾旅南西", "biz_area": "承德路中古汽車商圈", "min_price": 8280.0, "price_color": "#fc8d59" }, "geometry": { "type": "LineString", "coordinates": [ [ 121.51012505, 25.0946808 ], [ 121.513550505220508, 25.096136540323151 ] ] } },
{ "type": "Feature", "properties": { "hotel_name": "囍閱文創旅店", "biz_area": "承德路中古汽車商圈", "min_price": 6200.0, "price_color": "#1a9850" }, "geometry": { "type": "LineString", "coordinates": [ [ 121.506797049999989, 25.0879793 ], [ 121.515453705689751, 25.091658181182193 ] ] } },
{ "type": "Feature", "properties": { "hotel_name": "欣欣時尚旅店松山站", "biz_area": "大直商圈", "min_price": 7000.0, "price_color": "#fee08b" }, "geometry": { "type": "LineString", "coordinates": [ [ 121.543246600000018, 25.09301305 ], [ 121.549527, 25.084809 ] ] } },
{ "type": "Feature", "properties": { "hotel_name": "欣欣時尚旅店", "biz_area": "承德路中古汽車商圈", "min_price": 7000.0, "price_color": "#91cf60" }, "geometry": { "type": "LineString", "coordinates": [ [ 121.506271550000022, 25.0911278 ], [ 121.514239965123849, 25.094514194642635 ] ] } },
{ "type": "Feature", "properties": { "hotel_name": "水都溫泉會館", "biz_area": "新北投溫泉商圈", "min_price": 3300.0, "price_color": "#fee08b" }, "geometry": { "type": "LineString", "coordinates": [ [ 121.511028, 25.13650005 ], [ 121.511014, 25.1360481 ] ] } },
{ "type": "Feature", "properties": { "hotel_name": "台北國際飯店", "biz_area": "承德路中古汽車商圈", "min_price": 6600.0, "price_color": "#91cf60" }, "geometry": { "type": "LineString", "coordinates": [ [ 121.520616600000011, 25.09378605 ], [ 121.519075114466489, 25.090367012997802 ] ] } },
{ "type": "Feature", "properties": { "hotel_name": "瑞華旅社", "biz_area": "士林觀光夜市商圈", "min_price": 4300.0, "price_color": "#d73027" }, "geometry": { "type": "LineString", "coordinates": [ [ 121.5349651, 25.08863005 ], [ 121.527378395567425, 25.088769118186171 ] ] } },
{ "type": "Feature", "properties": { "hotel_name": "樂爾公寓", "biz_area": "承德路中古汽車商圈", "min_price": 8000.0, "price_color": "#91cf60" }, "geometry": { "type": "LineString", "coordinates": [ [ 121.50885405, 25.0993443 ], [ 121.512182906265636, 25.099905703195116 ] ] } },
{ "type": "Feature", "properties": { "hotel_name": "大欣大飯店", "biz_area": "承德路中古汽車商圈", "min_price": 5500.0, "price_color": "#91cf60" }, "geometry": { "type": "LineString", "coordinates": [ [ 121.519679599999989, 25.09438755 ], [ 121.518071026073102, 25.090819709979964 ] ] } },
{ "type": "Feature", "properties": { "hotel_name": "旅居文旅中山館", "biz_area": "天母商圈", "min_price": 3000.0, "price_color": "#1a9850" }, "geometry": { "type": "LineString", "coordinates": [ [ 121.519060100000019, 25.09793205 ], [ 121.521645212979791, 25.101187247790627 ] ] } },
{ "type": "Feature", "properties": { "hotel_name": "吉緻行旅天津館", "biz_area": "承德路中古汽車商圈", "min_price": 8800.0, "price_color": "#91cf60" }, "geometry": { "type": "LineString", "coordinates": [ [ 121.51975010000001, 25.09333705 ], [ 121.518523229025888, 25.09061583259885 ] ] } },
{ "type": "Feature", "properties": { "hotel_name": "東京國際飯店", "biz_area": "士林捷運站周邊", "min_price": 3600.0, "price_color": "#91cf60" }, "geometry": { "type": "LineString", "coordinates": [ [ 121.5210351, 25.09533655 ], [ 121.524285801920328, 25.096214988528136 ] ] } },
{ "type": "Feature", "properties": { "hotel_name": "新驛旅店", "biz_area": "承德路中古汽車商圈", "min_price": 6000.0, "price_color": "#d73027" }, "geometry": { "type": "LineString", "coordinates": [ [ 121.51046955000001, 25.0907423 ], [ 121.515020929610301, 25.092676532502875 ] ] } },
{ "type": "Feature", "properties": { "hotel_name": "建山大旅社", "biz_area": "承德路中古汽車商圈", "min_price": 3000.0, "price_color": "#fc8d59" }, "geometry": { "type": "LineString", "coordinates": [ [ 121.509443549999986, 25.0966713 ], [ 121.512729740178017, 25.098067855857177 ] ] } },
{ "type": "Feature", "properties": { "hotel_name": "儷萊飯店(普亨萊大飯店)", "biz_area": "承德路中古汽車商圈", "min_price": 5000.0, "price_color": "#fee08b" }, "geometry": { "type": "LineString", "coordinates": [ [ 121.50828555, 25.0908203 ], [ 121.51465875034576, 25.093528764753898 ] ] } },
{ "type": "Feature", "properties": { "hotel_name": "儷萊旅館", "biz_area": "承德路中古汽車商圈", "min_price": 3960.0, "price_color": "#fc8d59" }, "geometry": { "type": "LineString", "coordinates": [ [ 121.50828555, 25.0908203 ], [ 121.51465875034576, 25.093528764753898 ] ] } },
{ "type": "Feature", "properties": { "hotel_name": "上華旅館", "biz_area": "天母商圈", "min_price": 4000.0, "price_color": "#91cf60" }, "geometry": { "type": "LineString", "coordinates": [ [ 121.5203046, 25.09959705 ], [ 121.521597528038342, 25.101225116752513 ] ] } },
{ "type": "Feature", "properties": { "hotel_name": "背包棧旅店西門店", "biz_area": "承德路中古汽車商圈", "min_price": 4000.0, "price_color": "#fee08b" }, "geometry": { "type": "LineString", "coordinates": [ [ 121.504962630383091, 25.089604254531935 ], [ 121.514588154086184, 25.093694882516825 ] ] } },
{ "type": "Feature", "properties": { "hotel_name": "曲水會館", "biz_area": "新北投溫泉商圈", "min_price": 8000.0, "price_color": "#91cf60" }, "geometry": { "type": "LineString", "coordinates": [ [ 121.511858341477563, 25.136163387896371 ], [ 121.511761682955111, 25.13587477579274 ] ] } },
{ "type": "Feature", "properties": { "hotel_name": "玩行旅 大安分館", "biz_area": "士林觀光夜市商圈", "min_price": 7380.0, "price_color": "#d73027" }, "geometry": { "type": "LineString", "coordinates": [ [ 121.5311886, 25.08835355 ], [ 121.527372060376038, 25.08842350913017 ] ] } },
{ "type": "Feature", "properties": { "hotel_name": "水美溫泉會館", "biz_area": "新北投溫泉商圈", "min_price": 9000.0, "price_color": "#1a9850" }, "geometry": { "type": "LineString", "coordinates": [ [ 121.50491665065266, 25.135808113653958 ], [ 121.504794301305338, 25.135439227307923 ] ] } },
{ "type": "Feature", "properties": { "hotel_name": "新仕商務旅店", "biz_area": "承德路中古汽車商圈", "min_price": 3000.0, "price_color": "#fee08b" }, "geometry": { "type": "LineString", "coordinates": [ [ 121.5192161, 25.09667655 ], [ 121.514987130941691, 25.094861809135487 ] ] } },
{ "type": "Feature", "properties": { "hotel_name": "北城大飯店", "biz_area": "士林捷運站周邊", "min_price": 3200.0, "price_color": "#fc8d59" }, "geometry": { "type": "LineString", "coordinates": [ [ 121.5287131, 25.09520005 ], [ 121.528451119598714, 25.095140671560191 ] ] } },
{ "type": "Feature", "properties": { "hotel_name": "洛碁大飯店新仕界", "biz_area": "承德路中古汽車商圈", "min_price": 3000.0, "price_color": "#fc8d59" }, "geometry": { "type": "LineString", "coordinates": [ [ 121.50559055, 25.0881403 ], [ 121.5152111844003, 25.092228850142732 ] ] } },
{ "type": "Feature", "properties": { "hotel_name": "麗之湯別館", "biz_area": "新北投溫泉商圈", "min_price": 6000.0, "price_color": "#fc8d59" }, "geometry": { "type": "LineString", "coordinates": [ [ 121.513758866477048, 25.135954803790685 ], [ 121.513765732954099, 25.135848607581369 ] ] } },
{ "type": "Feature", "properties": { "hotel_name": "山樂溫泉", "biz_area": "新北投溫泉商圈", "min_price": 4600.0, "price_color": "#fc8d59" }, "geometry": { "type": "LineString", "coordinates": [ [ 121.50418585468789, 25.137887953874621 ], [ 121.50434370937576, 25.137737907749244 ] ] } },
{ "type": "Feature", "properties": { "hotel_name": "山水樂會館", "biz_area": "新北投溫泉商圈", "min_price": 8600.0, "price_color": "#fc8d59" }, "geometry": { "type": "LineString", "coordinates": [ [ 121.503977417174795, 25.137813980819971 ], [ 121.504207834349629, 25.13759496163993 ] ] } },
{ "type": "Feature", "properties": { "hotel_name": "燦路都飯店", "biz_area": "天母商圈", "min_price": 6000.0, "price_color": "#1a9850" }, "geometry": { "type": "LineString", "coordinates": [ [ 121.5197396, 25.09929155 ], [ 121.521399825997705, 25.101382121685631 ] ] } },
{ "type": "Feature", "properties": { "hotel_name": "君帥旅館", "biz_area": "承德路中古汽車商圈", "min_price": 5000.0, "price_color": "#d73027" }, "geometry": { "type": "LineString", "coordinates": [ [ 121.50591355, 25.0890558 ], [ 121.514931047663595, 25.092888030789116 ] ] } },
{ "type": "Feature", "properties": { "hotel_name": "函舍旅館", "biz_area": "承德路中古汽車商圈", "min_price": 5000.0, "price_color": "#d73027" }, "geometry": { "type": "LineString", "coordinates": [ [ 121.50591355, 25.0890558 ], [ 121.514931047663595, 25.092888030789116 ] ] } },
{ "type": "Feature", "properties": { "hotel_name": "長春精品旅館", "biz_area": "士林捷運站周邊", "min_price": 3600.0, "price_color": "#fc8d59" }, "geometry": { "type": "LineString", "coordinates": [ [ 121.53087859999998, 25.09482155 ], [ 121.528463292787308, 25.094948598749891 ] ] } },
{ "type": "Feature", "properties": { "hotel_name": "台北馥華商旅", "biz_area": "士林捷運站周邊", "min_price": 9000.0, "price_color": "#fc8d59" }, "geometry": { "type": "LineString", "coordinates": [ [ 121.5238646, 25.09319505 ], [ 121.524979869755654, 25.093771863565642 ] ] } },
{ "type": "Feature", "properties": { "hotel_name": "城市商旅-台北南西館", "biz_area": "承德路中古汽車商圈", "min_price": 7500.0, "price_color": "#1a9850" }, "geometry": { "type": "LineString", "coordinates": [ [ 121.50969305, 25.0946513 ], [ 121.513495038097801, 25.096267058206077 ] ] } },
{ "type": "Feature", "properties": { "hotel_name": "芝山璞旅", "biz_area": "石牌捷運商圈", "min_price": 5800.0, "price_color": "#fc8d59" }, "geometry": { "type": "LineString", "coordinates": [ [ 121.518802599999987, 25.11904805 ], [ 121.518790513392744, 25.118776383357879 ] ] } },
{ "type": "Feature", "properties": { "hotel_name": "晴悅旅店", "biz_area": "天母商圈", "min_price": 3500.0, "price_color": "#d73027" }, "geometry": { "type": "LineString", "coordinates": [ [ 121.5217756, 25.09944005 ], [ 121.522665660552249, 25.100335607266551 ] ] } },
{ "type": "Feature", "properties": { "hotel_name": "富園國際商務飯店", "biz_area": "承德路中古汽車商圈", "min_price": 4800.0, "price_color": "#fee08b" }, "geometry": { "type": "LineString", "coordinates": [ [ 121.506830549999989, 25.0872078 ], [ 121.515597, 25.091321 ] ] } },
{ "type": "Feature", "properties": { "hotel_name": "印石時尚旅館", "biz_area": "中山國中捷運站周邊", "min_price": 4500.0, "price_color": "#fc8d59" }, "geometry": { "type": "LineString", "coordinates": [ [ 121.545785599999988, 25.06386105 ], [ 121.544134, 25.062112 ] ] } },
{ "type": "Feature", "properties": { "hotel_name": "鳳凰閣旅社", "biz_area": "新北投溫泉商圈", "min_price": 6000.0, "price_color": "#d73027" }, "geometry": { "type": "LineString", "coordinates": [ [ 121.51041961537959, 25.136016631836455 ], [ 121.510432230759193, 25.135945263672902 ] ] } },
{ "type": "Feature", "properties": { "hotel_name": "萬事達旅店(中華店)", "biz_area": "承德路中古汽車商圈", "min_price": 4800.0, "price_color": "#fc8d59" }, "geometry": { "type": "LineString", "coordinates": [ [ 121.50767905, 25.0902838 ], [ 121.514759091185866, 25.093292655985646 ] ] } },
{ "type": "Feature", "properties": { "hotel_name": "皇家季節酒店1館", "biz_area": "承德路中古汽車商圈", "min_price": 3300.0, "price_color": "#fee08b" }, "geometry": { "type": "LineString", "coordinates": [ [ 121.50972305, 25.0945538 ], [ 121.513534724038323, 25.096173674509835 ] ] } },
{ "type": "Feature", "properties": { "hotel_name": "丹迪旅店-天母店", "biz_area": "行義路溫泉美食商圈", "min_price": 8000.0, "price_color": "#91cf60" }, "geometry": { "type": "LineString", "coordinates": [ [ 121.5221246, 25.12524655 ], [ 121.524112723311703, 25.123857374240412 ] ] } },
{ "type": "Feature", "properties": { "hotel_name": "伊倫商務旅館", "biz_area": "士林捷運站周邊", "min_price": 6000.0, "price_color": "#91cf60" }, "geometry": { "type": "LineString", "coordinates": [ [ 121.525150599999989, 25.09424055 ], [ 121.524836638263224, 25.094162457763407 ] ] } },
{ "type": "Feature", "properties": { "hotel_name": "太豪大飯店", "biz_area": "士林捷運站周邊", "min_price": 8000.0, "price_color": "#1a9850" }, "geometry": { "type": "LineString", "coordinates": [ [ 121.5304286, 25.09592305 ], [ 121.528379078239922, 25.095458521341055 ] ] } },
{ "type": "Feature", "properties": { "hotel_name": "香城大飯店豪悅分店", "biz_area": "士林捷運站周邊", "min_price": 6400.0, "price_color": "#fc8d59" }, "geometry": { "type": "LineString", "coordinates": [ [ 121.5252906, 25.09318855 ], [ 121.525328391639476, 25.093214708084101 ] ] } },
{ "type": "Feature", "properties": { "hotel_name": "宏都金殿大飯店", "biz_area": "士林觀光夜市商圈", "min_price": 5000.0, "price_color": "#fc8d59" }, "geometry": { "type": "LineString", "coordinates": [ [ 121.5329486, 25.08198705 ], [ 121.526245309969767, 25.086554211263891 ] ] } },
{ "type": "Feature", "properties": { "hotel_name": "富逸旅趣-北車開封館", "biz_area": "承德路中古汽車商圈", "min_price": 3800.0, "price_color": "#1a9850" }, "geometry": { "type": "LineString", "coordinates": [ [ 121.509592550000022, 25.0906563 ], [ 121.514917725728893, 25.092919378200513 ] ] } },
{ "type": "Feature", "properties": { "hotel_name": "采舍精品旅館", "biz_area": "天母商圈", "min_price": 4800.0, "price_color": "#1a9850" }, "geometry": { "type": "LineString", "coordinates": [ [ 121.5214846, 25.10022655 ], [ 121.522014584674523, 25.100893911525418 ] ] } },
{ "type": "Feature", "properties": { "hotel_name": "皇家季節酒店2館", "biz_area": "承德路中古汽車商圈", "min_price": 3500.0, "price_color": "#fc8d59" }, "geometry": { "type": "LineString", "coordinates": [ [ 121.50961405, 25.0945458 ], [ 121.513520929258931, 25.09620613455666 ] ] } },
{ "type": "Feature", "properties": { "hotel_name": "旅居文旅-西門驛站", "biz_area": "承德路中古汽車商圈", "min_price": 8000.0, "price_color": "#91cf60" }, "geometry": { "type": "LineString", "coordinates": [ [ 121.50684155, 25.0907268 ], [ 121.514471508195513, 25.093969358169385 ] ] } },
{ "type": "Feature", "properties": { "hotel_name": "捷絲旅西門町店", "biz_area": "承德路中古汽車商圈", "min_price": 3200.0, "price_color": "#91cf60" }, "geometry": { "type": "LineString", "coordinates": [ [ 121.508067549999978, 25.0900583 ], [ 121.514899694985758, 25.092961805755916 ] ] } },
{ "type": "Feature", "properties": { "hotel_name": "探索汽車旅館南港館", "biz_area": "西湖商圈", "min_price": 3980.0, "price_color": "#d73027" }, "geometry": { "type": "LineString", "coordinates": [ [ 121.5567536, 25.09565555 ], [ 121.5612709, 25.0866178 ] ] } },
{ "type": "Feature", "properties": { "hotel_name": "家美瑞品 台北", "biz_area": "承德路中古汽車商圈", "min_price": 7500.0, "price_color": "#fc8d59" }, "geometry": { "type": "LineString", "coordinates": [ [ 121.520312600000011, 25.09084005 ], [ 121.519926308158347, 25.0899832491598 ] ] } },
{ "type": "Feature", "properties": { "hotel_name": "台北桃禧大飯店", "biz_area": "承德路中古汽車商圈", "min_price": 8800.0, "price_color": "#91cf60" }, "geometry": { "type": "LineString", "coordinates": [ [ 121.51043705, 25.0937468 ], [ 121.513934441768853, 25.095233111715082 ] ] } },
{ "type": "Feature", "properties": { "hotel_name": "福泰桔子商務旅館（林森店）", "biz_area": "承德路中古汽車商圈", "min_price": 5280.0, "price_color": "#d73027" }, "geometry": { "type": "LineString", "coordinates": [ [ 121.5207161, 25.09345805 ], [ 121.519280704408231, 25.090274322008838 ] ] } },
{ "type": "Feature", "properties": { "hotel_name": "立德北投溫泉飯店", "biz_area": "新北投溫泉商圈", "min_price": 8500.0, "price_color": "#fc8d59" }, "geometry": { "type": "LineString", "coordinates": [ [ 121.513556067007016, 25.136395191475778 ], [ 121.513592134014033, 25.135837382951561 ] ] } },
{ "type": "Feature", "properties": { "hotel_name": "城市商旅南東館", "biz_area": "大直商圈", "min_price": 3000.0, "price_color": "#d73027" }, "geometry": { "type": "LineString", "coordinates": [ [ 121.5430986, 25.09356605 ], [ 121.549527, 25.084809 ] ] } },
{ "type": "Feature", "properties": { "hotel_name": "洛碁大飯店林森館", "biz_area": "天母商圈", "min_price": 3000.0, "price_color": "#fc8d59" }, "geometry": { "type": "LineString", "coordinates": [ [ 121.5210016, 25.10123055 ], [ 121.521229432890379, 25.101517439249019 ] ] } },
{ "type": "Feature", "properties": { "hotel_name": "探索汽車旅館延平館", "biz_area": "承德路中古汽車商圈", "min_price": 3380.0, "price_color": "#fc8d59" }, "geometry": { "type": "LineString", "coordinates": [ [ 121.50876105, 25.1074248 ], [ 121.510855265967322, 25.107777984229507 ] ] } },
{ "type": "Feature", "properties": { "hotel_name": "意寬精品旅館 HOME HOTEL", "biz_area": "大直商圈", "min_price": 5900.0, "price_color": "#fc8d59" }, "geometry": { "type": "LineString", "coordinates": [ [ 121.5420891, 25.08535155 ], [ 121.548994793254181, 25.083144081140901 ] ] } },
{ "type": "Feature", "properties": { "hotel_name": "二十輪旅店", "biz_area": "承德路中古汽車商圈", "min_price": 4900.0, "price_color": "#d73027" }, "geometry": { "type": "LineString", "coordinates": [ [ 121.50642905, 25.0900323 ], [ 121.514658401126283, 25.093529586490895 ] ] } },
{ "type": "Feature", "properties": { "hotel_name": "富驛時尚酒店", "biz_area": "士林捷運站周邊", "min_price": 6600.0, "price_color": "#1a9850" }, "geometry": { "type": "LineString", "coordinates": [ [ 121.5284076, 25.09388405 ], [ 121.528407296779534, 25.093884065949847 ] ] } },
{ "type": "Feature", "properties": { "hotel_name": "台北西門町意舍酒店", "biz_area": "承德路中古汽車商圈", "min_price": 3927.0, "price_color": "#d73027" }, "geometry": { "type": "LineString", "coordinates": [ [ 121.50618355, 25.0901638 ], [ 121.514573509799021, 25.093729341512809 ] ] } },
{ "type": "Feature", "properties": { "hotel_name": "薆悅酒店", "biz_area": "承德路中古汽車商圈", "min_price": 8000.0, "price_color": "#91cf60" }, "geometry": { "type": "LineString", "coordinates": [ [ 121.506684549999989, 25.0901753 ], [ 121.514646011718312, 25.093558739603928 ] ] } },
{ "type": "Feature", "properties": { "hotel_name": "洛碁大飯店舞衣南京館", "biz_area": "士林捷運站周邊", "min_price": 3000.0, "price_color": "#91cf60" }, "geometry": { "type": "LineString", "coordinates": [ [ 121.5260156, 25.09393505 ], [ 121.52521388978704, 25.093380133530033 ] ] } },
{ "type": "Feature", "properties": { "hotel_name": "西門星辰精典大飯店", "biz_area": "承德路中古汽車商圈", "min_price": 3380.0, "price_color": "#fc8d59" }, "geometry": { "type": "LineString", "coordinates": [ [ 121.50552155, 25.0896483 ], [ 121.514657801136991, 25.093530998306168 ] ] } },
{ "type": "Feature", "properties": { "hotel_name": "西門星辰大飯店", "biz_area": "承德路中古汽車商圈", "min_price": 4880.0, "price_color": "#fee08b" }, "geometry": { "type": "LineString", "coordinates": [ [ 121.50514805, 25.0897318 ], [ 121.51457060708222, 25.093736171801332 ] ] } },
{ "type": "Feature", "properties": { "hotel_name": "橙舍背包客國際青年旅館", "biz_area": "承德路中古汽車商圈", "min_price": 3600.0, "price_color": "#91cf60" }, "geometry": { "type": "LineString", "coordinates": [ [ 121.50694755, 25.0904558 ], [ 121.514585274394108, 25.093701658626618 ] ] } },
{ "type": "Feature", "properties": { "hotel_name": "洛碁大飯店建北館", "biz_area": "士林捷運站周邊", "min_price": 3000.0, "price_color": "#fc8d59" }, "geometry": { "type": "LineString", "coordinates": [ [ 121.5262276, 25.09334255 ], [ 121.525587923154532, 25.092847086218899 ] ] } },
{ "type": "Feature", "properties": { "hotel_name": "尚印旅店", "biz_area": "士林捷運站周邊", "min_price": 8800.0, "price_color": "#91cf60" }, "geometry": { "type": "LineString", "coordinates": [ [ 121.519603100000012, 25.09646305 ], [ 121.5239846, 25.0973296 ] ] } },
{ "type": "Feature", "properties": { "hotel_name": "長弘時尚旅店", "biz_area": "士林捷運站周邊", "min_price": 7000.0, "price_color": "#fc8d59" }, "geometry": { "type": "LineString", "coordinates": [ [ 121.5210776, 25.09523205 ], [ 121.524315011522987, 25.096106897058551 ] ] } },
{ "type": "Feature", "properties": { "hotel_name": "新麗旅店", "biz_area": "承德路中古汽車商圈", "min_price": 5200.0, "price_color": "#fee08b" }, "geometry": { "type": "LineString", "coordinates": [ [ 121.50607255, 25.0911298 ], [ 121.514208802752307, 25.094587521805831 ] ] } },
{ "type": "Feature", "properties": { "hotel_name": "世方旅居文旅", "biz_area": "天母商圈", "min_price": 3000.0, "price_color": "#1a9850" }, "geometry": { "type": "LineString", "coordinates": [ [ 121.524848600000013, 25.10141905 ], [ 121.525304901897414, 25.100349274891421 ] ] } },
{ "type": "Feature", "properties": { "hotel_name": "WESTGATE HOTEL 永安棧", "biz_area": "承德路中古汽車商圈", "min_price": 4000.0, "price_color": "#d73027" }, "geometry": { "type": "LineString", "coordinates": [ [ 121.50737405, 25.0890938 ], [ 121.515140792016282, 25.092394488172737 ] ] } },
{ "type": "Feature", "properties": { "hotel_name": "台糖台北會館", "biz_area": "承德路中古汽車商圈", "min_price": 5000.0, "price_color": "#91cf60" }, "geometry": { "type": "LineString", "coordinates": [ [ 121.50816405, 25.0902943 ], [ 121.514829505437163, 25.093126966500471 ] ] } },
{ "type": "Feature", "properties": { "hotel_name": "福泰桔子商務旅館西門店", "biz_area": "承德路中古汽車商圈", "min_price": 5800.0, "price_color": "#d73027" }, "geometry": { "type": "LineString", "coordinates": [ [ 121.507138550000022, 25.0882678 ], [ 121.51540209734371, 25.091779619103175 ] ] } },
{ "type": "Feature", "properties": { "hotel_name": "天閣酒店(台北長安) ", "biz_area": "承德路中古汽車商圈", "min_price": 8200.0, "price_color": "#1a9850" }, "geometry": { "type": "LineString", "coordinates": [ [ 121.5203786, 25.09270055 ], [ 121.519284046710524, 25.090272815119437 ] ] } },
{ "type": "Feature", "properties": { "hotel_name": "東驛商務旅館", "biz_area": "承德路中古汽車商圈", "min_price": 8000.0, "price_color": "#91cf60" }, "geometry": { "type": "LineString", "coordinates": [ [ 121.50609505, 25.0905088 ], [ 121.514435783258847, 25.094053421356257 ] ] } },
{ "type": "Feature", "properties": { "hotel_name": "西悠巢旅台北館", "biz_area": "承德路中古汽車商圈", "min_price": 3400.0, "price_color": "#fee08b" }, "geometry": { "type": "LineString", "coordinates": [ [ 121.516328100000024, 25.09631955 ], [ 121.514667394119584, 25.095606905669051 ] ] } },
{ "type": "Feature", "properties": { "hotel_name": "意芙旅店", "biz_area": "承德路中古汽車商圈", "min_price": 5980.0, "price_color": "#fc8d59" }, "geometry": { "type": "LineString", "coordinates": [ [ 121.509104549999989, 25.0972898 ], [ 121.512455242336372, 25.098713767802973 ] ] } },
{ "type": "Feature", "properties": { "hotel_name": "老爺會館台北林森", "biz_area": "承德路中古汽車商圈", "min_price": 3000.0, "price_color": "#fee08b" }, "geometry": { "type": "LineString", "coordinates": [ [ 121.5205026, 25.09268905 ], [ 121.519391408248111, 25.090224410771388 ] ] } },
{ "type": "Feature", "properties": { "hotel_name": "大師會館國際酒店", "biz_area": "承德路中古汽車商圈", "min_price": 6000.0, "price_color": "#91cf60" }, "geometry": { "type": "LineString", "coordinates": [ [ 121.517282600000016, 25.09238655 ], [ 121.516828708996044, 25.09137981324913 ] ] } },
{ "type": "Feature", "properties": { "hotel_name": "謙商旅-東門館", "biz_area": "承德路中古汽車商圈", "min_price": 7880.0, "price_color": "#fc8d59" }, "geometry": { "type": "LineString", "coordinates": [ [ 121.52250810000001, 25.08485255 ], [ 121.52286749857609, 25.084741217151798 ] ] } },
{ "type": "Feature", "properties": { "hotel_name": "尚印旅店-二館", "biz_area": "士林捷運站周邊", "min_price": 5476.0, "price_color": "#d73027" }, "geometry": { "type": "LineString", "coordinates": [ [ 121.519603100000012, 25.09646305 ], [ 121.5239846, 25.0973296 ] ] } },
{ "type": "Feature", "properties": { "hotel_name": "品格子旅店", "biz_area": "承德路中古汽車商圈", "min_price": 6000.0, "price_color": "#1a9850" }, "geometry": { "type": "LineString", "coordinates": [ [ 121.51677810000001, 25.09056505 ], [ 121.516861187474973, 25.090748533469458 ] ] } },
{ "type": "Feature", "properties": { "hotel_name": "路境行旅-府前館", "biz_area": "承德路中古汽車商圈", "min_price": 6880.0, "price_color": "#fc8d59" }, "geometry": { "type": "LineString", "coordinates": [ [ 121.50987705, 25.0891633 ], [ 121.515498676073648, 25.091552362834065 ] ] } },
{ "type": "Feature", "properties": { "hotel_name": "橙舍青年旅館（臺北二館）", "biz_area": "承德路中古汽車商圈", "min_price": 3600.0, "price_color": "#fee08b" }, "geometry": { "type": "LineString", "coordinates": [ [ 121.506066050000015, 25.0905783 ], [ 121.514406329327002, 25.094122728445566 ] ] } },
{ "type": "Feature", "properties": { "hotel_name": "方舟旅店", "biz_area": "承德路中古汽車商圈", "min_price": 5500.0, "price_color": "#fc8d59" }, "geometry": { "type": "LineString", "coordinates": [ [ 121.5238106, 25.08473155 ], [ 121.523715126337407, 25.084714742402962 ] ] } },
{ "type": "Feature", "properties": { "hotel_name": "丰居旅店雙連館", "biz_area": "士林捷運站周邊", "min_price": 7000.0, "price_color": "#91cf60" }, "geometry": { "type": "LineString", "coordinates": [ [ 121.5202951, 25.09678455 ], [ 121.5239846, 25.0973296 ] ] } },
{ "type": "Feature", "properties": { "hotel_name": "蜂巢 Bee House", "biz_area": "承德路中古汽車商圈", "min_price": 5200.0, "price_color": "#fc8d59" }, "geometry": { "type": "LineString", "coordinates": [ [ 121.5158176, 25.09332805 ], [ 121.515672093945795, 25.093265610247201 ] ] } },
{ "type": "Feature", "properties": { "hotel_name": "旅樂序精品旅館", "biz_area": "承德路中古汽車商圈", "min_price": 5800.0, "price_color": "#fc8d59" }, "geometry": { "type": "LineString", "coordinates": [ [ 121.51077655, 25.0905328 ], [ 121.515143306330827, 25.092388571820941 ] ] } },
{ "type": "Feature", "properties": { "hotel_name": "復新文旅 ", "biz_area": "士林捷運站周邊", "min_price": 5000.0, "price_color": "#1a9850" }, "geometry": { "type": "LineString", "coordinates": [ [ 121.5300421, 25.09721255 ], [ 121.528069579303718, 25.096640491312854 ] ] } },
{ "type": "Feature", "properties": { "hotel_name": "洛碁大飯店中華館", "biz_area": "承德路中古汽車商圈", "min_price": 3000.0, "price_color": "#fee08b" }, "geometry": { "type": "LineString", "coordinates": [ [ 121.508067549999978, 25.0900583 ], [ 121.514899694985758, 25.092961805755916 ] ] } },
{ "type": "Feature", "properties": { "hotel_name": "儷夏旅館-西寧館", "biz_area": "承德路中古汽車商圈", "min_price": 3000.0, "price_color": "#d73027" }, "geometry": { "type": "LineString", "coordinates": [ [ 121.50669505, 25.0905708 ], [ 121.514505251656558, 25.093889957528404 ] ] } },
{ "type": "Feature", "properties": { "hotel_name": "昌亞旅館", "biz_area": "天母商圈", "min_price": 8000.0, "price_color": "#d73027" }, "geometry": { "type": "LineString", "coordinates": [ [ 121.5210241, 25.10190605 ], [ 121.520914113463135, 25.101784589704245 ] ] } },
{ "type": "Feature", "properties": { "hotel_name": "大地清旅", "biz_area": "士林捷運站周邊", "min_price": 5500.0, "price_color": "#91cf60" }, "geometry": { "type": "LineString", "coordinates": [ [ 121.529632099999986, 25.09190805 ], [ 121.5283458, 25.0934577 ] ] } },
{ "type": "Feature", "properties": { "hotel_name": "信星旅館", "biz_area": "承德路中古汽車商圈", "min_price": 3200.0, "price_color": "#91cf60" }, "geometry": { "type": "LineString", "coordinates": [ [ 121.5158391, 25.09284255 ], [ 121.515851377317389, 25.092847818458875 ] ] } },
{ "type": "Feature", "properties": { "hotel_name": "千彩格精品旅店", "biz_area": "士林捷運站周邊", "min_price": 6880.0, "price_color": "#1a9850" }, "geometry": { "type": "LineString", "coordinates": [ [ 121.5207556, 25.09567605 ], [ 121.524181280942898, 25.09660177318198 ] ] } },
{ "type": "Feature", "properties": { "hotel_name": "拾光行旅", "biz_area": "承德路中古汽車商圈", "min_price": 8000.0, "price_color": "#d73027" }, "geometry": { "type": "LineString", "coordinates": [ [ 121.50899855, 25.0987978 ], [ 121.512276519431111, 25.099350621259099 ] ] } },
{ "type": "Feature", "properties": { "hotel_name": "洛碁大飯店驛", "biz_area": "承德路中古汽車商圈", "min_price": 6000.0, "price_color": "#fee08b" }, "geometry": { "type": "LineString", "coordinates": [ [ 121.51003055, 25.0905058 ], [ 121.515038904488634, 25.092634236401118 ] ] } },
{ "type": "Feature", "properties": { "hotel_name": "松哖酒店", "biz_area": "士林觀光夜市商圈", "min_price": 8500.0, "price_color": "#fc8d59" }, "geometry": { "type": "LineString", "coordinates": [ [ 121.5248076, 25.08673955 ], [ 121.524800971871898, 25.086735007838254 ] ] } },
{ "type": "Feature", "properties": { "hotel_name": "凡登商旅-二館", "biz_area": "士林觀光夜市商圈", "min_price": 5980.0, "price_color": "#d73027" }, "geometry": { "type": "LineString", "coordinates": [ [ 121.5338871, 25.08865905 ], [ 121.527378564879101, 25.088778354789312 ] ] } },
{ "type": "Feature", "properties": { "hotel_name": "豪景大酒店新館", "biz_area": "承德路中古汽車商圈", "min_price": 6600.0, "price_color": "#d73027" }, "geometry": { "type": "LineString", "coordinates": [ [ 121.503412, 25.089791 ], [ 121.514283721254444, 25.09441123351446 ] ] } },
{ "type": "Feature", "properties": { "hotel_name": "互舍商旅台北館", "biz_area": "承德路中古汽車商圈", "min_price": 3600.0, "price_color": "#91cf60" }, "geometry": { "type": "LineString", "coordinates": [ [ 121.51005605, 25.0973208 ], [ 121.512589641108676, 25.098397518421883 ] ] } },
{ "type": "Feature", "properties": { "hotel_name": "台北中山意舍酒店", "biz_area": "承德路中古汽車商圈", "min_price": 5100.0, "price_color": "#fee08b" }, "geometry": { "type": "LineString", "coordinates": [ [ 121.5195556, 25.09568705 ], [ 121.515398510277393, 25.093903154092263 ] ] } },
{ "type": "Feature", "properties": { "hotel_name": "小公館人文旅舍", "biz_area": "大直商圈", "min_price": 6000.0, "price_color": "#fee08b" }, "geometry": { "type": "LineString", "coordinates": [ [ 121.5429111, 25.09356855 ], [ 121.549527, 25.084809 ] ] } },
{ "type": "Feature", "properties": { "hotel_name": "綺樂文旅 康定館", "biz_area": "承德路中古汽車商圈", "min_price": 8800.0, "price_color": "#d73027" }, "geometry": { "type": "LineString", "coordinates": [ [ 121.504285041520689, 25.089645164473165 ], [ 121.514469772350594, 25.093973442729645 ] ] } },
{ "type": "Feature", "properties": { "hotel_name": "北門臥客青年旅舍", "biz_area": "承德路中古汽車商圈", "min_price": 4000.0, "price_color": "#fc8d59" }, "geometry": { "type": "LineString", "coordinates": [ [ 121.508767049999989, 25.0940118 ], [ 121.513583579195625, 25.096058715027734 ] ] } },
{ "type": "Feature", "properties": { "hotel_name": "清翼居旅店童話館", "biz_area": "承德路中古汽車商圈", "min_price": 3700.0, "price_color": "#fee08b" }, "geometry": { "type": "LineString", "coordinates": [ [ 121.50952255, 25.0905848 ], [ 121.514932754859757, 25.092884013641353 ] ] } },
{ "type": "Feature", "properties": { "hotel_name": "鉑泊客", "biz_area": "承德路中古汽車商圈", "min_price": 3080.0, "price_color": "#fc8d59" }, "geometry": { "type": "LineString", "coordinates": [ [ 121.51007205, 25.0901773 ], [ 121.515163501676298, 25.092341050810163 ] ] } },
{ "type": "Feature", "properties": { "hotel_name": "台北發現青年旅舍", "biz_area": "天母商圈", "min_price": 6000.0, "price_color": "#91cf60" }, "geometry": { "type": "LineString", "coordinates": [ [ 121.5226216, 25.09921705 ], [ 121.52320276267848, 25.099801801743503 ] ] } },
{ "type": "Feature", "properties": { "hotel_name": "二十輪旅店大安店", "biz_area": "士林觀光夜市商圈", "min_price": 4500.0, "price_color": "#91cf60" }, "geometry": { "type": "LineString", "coordinates": [ [ 121.5311321, 25.08589205 ], [ 121.527368, 25.088202 ] ] } },
{ "type": "Feature", "properties": { "hotel_name": "番茄行旅", "biz_area": "承德路中古汽車商圈", "min_price": 4000.0, "price_color": "#d73027" }, "geometry": { "type": "LineString", "coordinates": [ [ 121.5162571, 25.09525355 ], [ 121.515042659815222, 25.094732407801885 ] ] } },
{ "type": "Feature", "properties": { "hotel_name": "能量旅店", "biz_area": "承德路中古汽車商圈", "min_price": 4800.0, "price_color": "#1a9850" }, "geometry": { "type": "LineString", "coordinates": [ [ 121.50559805, 25.0894153 ], [ 121.514753375825734, 25.093306104613728 ] ] } },
{ "type": "Feature", "properties": { "hotel_name": "洛碁大飯店南京館", "biz_area": "士林捷運站周邊", "min_price": 3000.0, "price_color": "#91cf60" }, "geometry": { "type": "LineString", "coordinates": [ [ 121.5267026, 25.09371405 ], [ 121.527196972557491, 25.092821429062418 ] ] } },
{ "type": "Feature", "properties": { "hotel_name": "藝宿商旅", "biz_area": "承德路中古汽車商圈", "min_price": 6160.0, "price_color": "#fc8d59" }, "geometry": { "type": "LineString", "coordinates": [ [ 121.51033555, 25.0942763 ], [ 121.513728312907659, 25.095718146835999 ] ] } },
{ "type": "Feature", "properties": { "hotel_name": "方舟旅店 長安復興", "biz_area": "士林捷運站周邊", "min_price": 4300.0, "price_color": "#91cf60" }, "geometry": { "type": "LineString", "coordinates": [ [ 121.529632099999986, 25.09190805 ], [ 121.5283458, 25.0934577 ] ] } },
{ "type": "Feature", "properties": { "hotel_name": "台北天晴旅店", "biz_area": "承德路中古汽車商圈", "min_price": 5000.0, "price_color": "#fc8d59" }, "geometry": { "type": "LineString", "coordinates": [ [ 121.51031755, 25.0889538 ], [ 121.515597, 25.091321 ] ] } },
{ "type": "Feature", "properties": { "hotel_name": "清翼居旅店采風館", "biz_area": "承德路中古汽車商圈", "min_price": 6500.0, "price_color": "#91cf60" }, "geometry": { "type": "LineString", "coordinates": [ [ 121.516105100000019, 25.09042455 ], [ 121.516355504960515, 25.090977523489006 ] ] } },
{ "type": "Feature", "properties": { "hotel_name": "台北松山意舍酒店", "biz_area": "大直商圈", "min_price": 3465.0, "price_color": "#1a9850" }, "geometry": { "type": "LineString", "coordinates": [ [ 121.5483896, 25.09240855 ], [ 121.551636894064828, 25.085854352451349 ] ] } },
{ "type": "Feature", "properties": { "hotel_name": "趣旅館‧林森館", "biz_area": "天母商圈", "min_price": 3650.0, "price_color": "#fc8d59" }, "geometry": { "type": "LineString", "coordinates": [ [ 121.5209631, 25.09850205 ], [ 121.522725900547343, 25.100275737010005 ] ] } },
{ "type": "Feature", "properties": { "hotel_name": "洛碁大飯店松山館", "biz_area": "大直商圈", "min_price": 3000.0, "price_color": "#fc8d59" }, "geometry": { "type": "LineString", "coordinates": [ [ 121.5499216, 25.09048255 ], [ 121.551836, 25.085953 ] ] } },
{ "type": "Feature", "properties": { "hotel_name": "路徒行旅-中華館", "biz_area": "承德路中古汽車商圈", "min_price": 8880.0, "price_color": "#91cf60" }, "geometry": { "type": "LineString", "coordinates": [ [ 121.50849355, 25.0900893 ], [ 121.51495370429781, 25.092834718199832 ] ] } },
{ "type": "Feature", "properties": { "hotel_name": "旅樂序精品旅館三館", "biz_area": "承德路中古汽車商圈", "min_price": 3988.0, "price_color": "#1a9850" }, "geometry": { "type": "LineString", "coordinates": [ [ 121.51037005000002, 25.0901343 ], [ 121.515224567361599, 25.092197359131635 ] ] } },
{ "type": "Feature", "properties": { "hotel_name": "漫旅時光", "biz_area": "士林捷運站周邊", "min_price": 6600.0, "price_color": "#fee08b" }, "geometry": { "type": "LineString", "coordinates": [ [ 121.5207531, 25.09559405 ], [ 121.524201761680558, 25.096525983276251 ] ] } },
{ "type": "Feature", "properties": { "hotel_name": "洛碁大飯店忠孝館", "biz_area": "士林觀光夜市商圈", "min_price": 3000.0, "price_color": "#fc8d59" }, "geometry": { "type": "LineString", "coordinates": [ [ 121.5338431, 25.08845105 ], [ 121.527374738633654, 25.088569618383776 ] ] } },
{ "type": "Feature", "properties": { "hotel_name": "靜好文旅", "biz_area": "士林捷運站周邊", "min_price": 5449.0, "price_color": "#d73027" }, "geometry": { "type": "LineString", "coordinates": [ [ 121.522288099999983, 25.09398805 ], [ 121.5247290063311, 25.094595180781891 ] ] } },
{ "type": "Feature", "properties": { "hotel_name": "進綵商旅", "biz_area": "承德路中古汽車商圈", "min_price": 5750.0, "price_color": "#fc8d59" }, "geometry": { "type": "LineString", "coordinates": [ [ 121.50791305, 25.0987173 ], [ 121.512259700167263, 25.09945035156403 ] ] } },
{ "type": "Feature", "properties": { "hotel_name": "在家行旅西門館", "biz_area": "承德路中古汽車商圈", "min_price": 5000.0, "price_color": "#fee08b" }, "geometry": { "type": "LineString", "coordinates": [ [ 121.505610050000016, 25.0900178 ], [ 121.514538332388938, 25.093812116332661 ] ] } },
{ "type": "Feature", "properties": { "hotel_name": "涪美飯店", "biz_area": "承德路中古汽車商圈", "min_price": 5600.0, "price_color": "#fee08b" }, "geometry": { "type": "LineString", "coordinates": [ [ 121.50987855, 25.0890733 ], [ 121.515531302426538, 25.091475590823951 ] ] } },
{ "type": "Feature", "properties": { "hotel_name": "台灣青旅", "biz_area": "承德路中古汽車商圈", "min_price": 4000.0, "price_color": "#d73027" }, "geometry": { "type": "LineString", "coordinates": [ [ 121.5169601, 25.09031405 ], [ 121.517106537629672, 25.090637430682399 ] ] } },
{ "type": "Feature", "properties": { "hotel_name": "仲信大湖商旅", "biz_area": "天母商圈", "min_price": 6000.0, "price_color": "#91cf60" }, "geometry": { "type": "LineString", "coordinates": [ [ 121.55804185, 25.11019805 ], [ 121.5400532, 25.1108162 ] ] } },
{ "type": "Feature", "properties": { "hotel_name": "華山文旅", "biz_area": "士林觀光夜市商圈", "min_price": 6000.0, "price_color": "#91cf60" }, "geometry": { "type": "LineString", "coordinates": [ [ 121.523250600000026, 25.08978755 ], [ 121.522976252272855, 25.090096942144868 ] ] } },
{ "type": "Feature", "properties": { "hotel_name": "朗司旅館", "biz_area": "士林觀光夜市商圈", "min_price": 5500.0, "price_color": "#d73027" }, "geometry": { "type": "LineString", "coordinates": [ [ 121.5290151, 25.08588055 ], [ 121.526809971370668, 25.087382973140336 ] ] } },
{ "type": "Feature", "properties": { "hotel_name": "皇后旅店二館", "biz_area": "承德路中古汽車商圈", "min_price": 6800.0, "price_color": "#fee08b" }, "geometry": { "type": "LineString", "coordinates": [ [ 121.50989355, 25.0946668 ], [ 121.513520130540215, 25.096208013995707 ] ] } },
{ "type": "Feature", "properties": { "hotel_name": "東驛 E-HOUSE", "biz_area": "承德路中古汽車商圈", "min_price": 7000.0, "price_color": "#91cf60" }, "geometry": { "type": "LineString", "coordinates": [ [ 121.50646105, 25.0893963 ], [ 121.51489223439637, 25.09297936102622 ] ] } },
{ "type": "Feature", "properties": { "hotel_name": "東旅", "biz_area": "天母商圈", "min_price": 5800.0, "price_color": "#91cf60" }, "geometry": { "type": "LineString", "coordinates": [ [ 121.5382206, 25.09366855 ], [ 121.5337008, 25.1010561 ] ] } },
{ "type": "Feature", "properties": { "hotel_name": "樂山水靜旅館 OrigInn", "biz_area": "承德路中古汽車商圈", "min_price": 8880.0, "price_color": "#91cf60" }, "geometry": { "type": "LineString", "coordinates": [ [ 121.508411550000019, 25.0943923 ], [ 121.513392229000516, 25.096508974950027 ] ] } },
{ "type": "Feature", "properties": { "hotel_name": "洛碁大飯店南港館", "biz_area": "西湖商圈", "min_price": 3000.0, "price_color": "#d73027" }, "geometry": { "type": "LineString", "coordinates": [ [ 121.5637186, 25.09401355 ], [ 121.562779103093121, 25.086883040356735 ] ] } },
{ "type": "Feature", "properties": { "hotel_name": "快意旅店", "biz_area": "士林觀光夜市商圈", "min_price": 8000.0, "price_color": "#fc8d59" }, "geometry": { "type": "LineString", "coordinates": [ [ 121.5346401, 25.08986205 ], [ 121.527400862008349, 25.089994748947973 ] ] } },
{ "type": "Feature", "properties": { "hotel_name": "陽光士林珮柏旅館", "biz_area": "石牌捷運商圈", "min_price": 6000.0, "price_color": "#fc8d59" }, "geometry": { "type": "LineString", "coordinates": [ [ 121.519687600000012, 25.11408705 ], [ 121.51778168334927, 25.11488909324877 ] ] } },
{ "type": "Feature", "properties": { "hotel_name": "世民酒店台北北門", "biz_area": "承德路中古汽車商圈", "min_price": 6000.0, "price_color": "#fc8d59" }, "geometry": { "type": "LineString", "coordinates": [ [ 121.508620549999975, 25.0913058 ], [ 121.514535234462102, 25.093819405963568 ] ] } },
{ "type": "Feature", "properties": { "hotel_name": "皇家玫瑰旅館 雙城館", "biz_area": "天母商圈", "min_price": 3000.0, "price_color": "#fee08b" }, "geometry": { "type": "LineString", "coordinates": [ [ 121.519929100000013, 25.10070905 ], [ 121.520908028428195, 25.10179009991575 ] ] } },
{ "type": "Feature", "properties": { "hotel_name": "旅樂序精品旅館五館", "biz_area": "承德路中古汽車商圈", "min_price": 5200.0, "price_color": "#fee08b" }, "geometry": { "type": "LineString", "coordinates": [ [ 121.50989505, 25.0906813 ], [ 121.514955002162949, 25.09283166423559 ] ] } },
{ "type": "Feature", "properties": { "hotel_name": "台北臥客旅店", "biz_area": "承德路中古汽車商圈", "min_price": 3000.0, "price_color": "#d73027" }, "geometry": { "type": "LineString", "coordinates": [ [ 121.508767049999989, 25.0940118 ], [ 121.513583579195625, 25.096058715027734 ] ] } },
{ "type": "Feature", "properties": { "hotel_name": "儷客旅店-站前店", "biz_area": "承德路中古汽車商圈", "min_price": 3000.0, "price_color": "#d73027" }, "geometry": { "type": "LineString", "coordinates": [ [ 121.51036005, 25.0910393 ], [ 121.514897268891133, 25.092967514520282 ] ] } },
{ "type": "Feature", "properties": { "hotel_name": "南陽街壹號旅店", "biz_area": "承德路中古汽車商圈", "min_price": 3000.0, "price_color": "#1a9850" }, "geometry": { "type": "LineString", "coordinates": [ [ 121.516191100000015, 25.09067755 ], [ 121.516331799140517, 25.090988258280166 ] ] } },
{ "type": "Feature", "properties": { "hotel_name": "和昌商務旅館台北西門館", "biz_area": "承德路中古汽車商圈", "min_price": 3500.0, "price_color": "#fee08b" }, "geometry": { "type": "LineString", "coordinates": [ [ 121.50607905, 25.0864258 ], [ 121.515597, 25.091321 ] ] } },
{ "type": "Feature", "properties": { "hotel_name": "好駐旅館", "biz_area": "士林觀光夜市商圈", "min_price": 4360.0, "price_color": "#d73027" }, "geometry": { "type": "LineString", "coordinates": [ [ 121.5222466, 25.09253805 ], [ 121.523779566760084, 25.090809266318004 ] ] } },
{ "type": "Feature", "properties": { "hotel_name": "智慧環境會館-菁山遊憩區", "biz_area": "行義路溫泉美食商圈", "min_price": 3500.0, "price_color": "#1a9850" }, "geometry": { "type": "LineString", "coordinates": [ [ 121.53814675, 25.1457008 ], [ 121.528661, 25.144568 ] ] } },
{ "type": "Feature", "properties": { "hotel_name": "城市商旅 北門館", "biz_area": "承德路中古汽車商圈", "min_price": 9000.0, "price_color": "#91cf60" }, "geometry": { "type": "LineString", "coordinates": [ [ 121.50873805, 25.0936873 ], [ 121.513695951636848, 25.095794295090098 ] ] } },
{ "type": "Feature", "properties": { "hotel_name": "木文陶喜時尚旅館", "biz_area": "大直商圈", "min_price": 6800.0, "price_color": "#91cf60" }, "geometry": { "type": "LineString", "coordinates": [ [ 121.540744600000011, 25.08892805 ], [ 121.549527, 25.084809 ] ] } },
{ "type": "Feature", "properties": { "hotel_name": "吉泰旅店", "biz_area": "天母商圈", "min_price": 6000.0, "price_color": "#91cf60" }, "geometry": { "type": "LineString", "coordinates": [ [ 121.5208796, 25.11335255 ], [ 121.5228668, 25.1106253 ] ] } },
{ "type": "Feature", "properties": { "hotel_name": "美寓旅店", "biz_area": "士林捷運站周邊", "min_price": 4000.0, "price_color": "#1a9850" }, "geometry": { "type": "LineString", "coordinates": [ [ 121.5327241, 25.09175005 ], [ 121.5283458, 25.0934577 ] ] } },
{ "type": "Feature", "properties": { "hotel_name": "果芒驛站旅店", "biz_area": "承德路中古汽車商圈", "min_price": 3000.0, "price_color": "#fc8d59" }, "geometry": { "type": "LineString", "coordinates": [ [ 121.515988099999987, 25.09097155 ], [ 121.516052864016913, 25.091114569468669 ] ] } },
{ "type": "Feature", "properties": { "hotel_name": "台北士林萬麗酒店", "biz_area": "天母商圈", "min_price": 6000.0, "price_color": "#1a9850" }, "geometry": { "type": "LineString", "coordinates": [ [ 121.522679100000019, 25.11440455 ], [ 121.5252559, 25.1149693 ] ] } },
{ "type": "Feature", "properties": { "hotel_name": "天成文旅 華山町", "biz_area": "士林觀光夜市商圈", "min_price": 6000.0, "price_color": "#fc8d59" }, "geometry": { "type": "LineString", "coordinates": [ [ 121.5232036, 25.08946205 ], [ 121.523018904704799, 25.089335480945874 ] ] } },
{ "type": "Feature", "properties": { "hotel_name": "城鄉旅坊台北", "biz_area": "士林捷運站周邊", "min_price": 3880.0, "price_color": "#fee08b" }, "geometry": { "type": "LineString", "coordinates": [ [ 121.5246826, 25.09327655 ], [ 121.525090273159748, 25.093558727458955 ] ] } },
{ "type": "Feature", "properties": { "hotel_name": "宜家居商旅", "biz_area": "新北投溫泉商圈", "min_price": 4900.0, "price_color": "#fc8d59" }, "geometry": { "type": "LineString", "coordinates": [ [ 121.50327495, 25.1377112 ], [ 121.5038499, 25.1372184 ] ] } },
{ "type": "Feature", "properties": { "hotel_name": "懷特豪斯青年旅舍", "biz_area": "天母商圈", "min_price": 7500.0, "price_color": "#d73027" }, "geometry": { "type": "LineString", "coordinates": [ [ 121.5384151, 25.09376905 ], [ 121.5337008, 25.1010561 ] ] } },
{ "type": "Feature", "properties": { "hotel_name": "皇家玫瑰旅館新生館", "biz_area": "士林觀光夜市商圈", "min_price": 3000.0, "price_color": "#d73027" }, "geometry": { "type": "LineString", "coordinates": [ [ 121.5260516, 25.08819105 ], [ 121.526945554650382, 25.087581970722134 ] ] } },
{ "type": "Feature", "properties": { "hotel_name": "凱旋酒店", "biz_area": "天母商圈", "min_price": 8800.0, "price_color": "#fc8d59" }, "geometry": { "type": "LineString", "coordinates": [ [ 121.5470461, 25.10660605 ], [ 121.5400532, 25.1108162 ] ] } },
{ "type": "Feature", "properties": { "hotel_name": "艾爾行旅", "biz_area": "士林觀光夜市商圈", "min_price": 4800.0, "price_color": "#1a9850" }, "geometry": { "type": "LineString", "coordinates": [ [ 121.5318886, 25.08869905 ], [ 121.527378626567483, 25.088781720127788 ] ] } },
{ "type": "Feature", "properties": { "hotel_name": "109 Hostel Taipei 台北109青旅", "biz_area": "承德路中古汽車商圈", "min_price": 3500.0, "price_color": "#1a9850" }, "geometry": { "type": "LineString", "coordinates": [ [ 121.50892955, 25.0906933 ], [ 121.514802983198607, 25.093189375117639 ] ] } },
{ "type": "Feature", "properties": { "hotel_name": "幸福蘋果旅店", "biz_area": "承德路中古汽車商圈", "min_price": 4000.0, "price_color": "#1a9850" }, "geometry": { "type": "LineString", "coordinates": [ [ 121.50542505, 25.0897463 ], [ 121.514607762237347, 25.09364874321389 ] ] } },
{ "type": "Feature", "properties": { "hotel_name": "南港老爺行旅", "biz_area": "西湖商圈", "min_price": 4500.0, "price_color": "#fee08b" }, "geometry": { "type": "LineString", "coordinates": [ [ 121.5655396, 25.09776605 ], [ 121.564713166547946, 25.086682726667842 ] ] } },
{ "type": "Feature", "properties": { "hotel_name": "門草行旅", "biz_area": "承德路中古汽車商圈", "min_price": 8800.0, "price_color": "#fc8d59" }, "geometry": { "type": "LineString", "coordinates": [ [ 121.50836055, 25.0975608 ], [ 121.512337, 25.098992 ] ] } },
{ "type": "Feature", "properties": { "hotel_name": "洛碁三貝茲", "biz_area": "士林捷運站周邊", "min_price": 3000.0, "price_color": "#fc8d59" }, "geometry": { "type": "LineString", "coordinates": [ [ 121.537322100000011, 25.09189605 ], [ 121.5283458, 25.0934577 ] ] } },
{ "type": "Feature", "properties": { "hotel_name": "豪城商旅民生館", "biz_area": "天母商圈", "min_price": 3200.0, "price_color": "#fee08b" }, "geometry": { "type": "LineString", "coordinates": [ [ 121.531536100000011, 25.09710055 ], [ 121.530406565861341, 25.100260507010528 ] ] } },
{ "type": "Feature", "properties": { "hotel_name": "天雲旅棧台北中山", "biz_area": "承德路中古汽車商圈", "min_price": 7000.0, "price_color": "#91cf60" }, "geometry": { "type": "LineString", "coordinates": [ [ 121.519671100000011, 25.09296155 ], [ 121.518598270903055, 25.090581999689761 ] ] } },
{ "type": "Feature", "properties": { "hotel_name": "台北大直英迪格酒店", "biz_area": "天母商圈", "min_price": 5000.0, "price_color": "#fc8d59" }, "geometry": { "type": "LineString", "coordinates": [ [ 121.5381151, 25.10944155 ], [ 121.537930596829099, 25.11041310842527 ] ] } },
{ "type": "Feature", "properties": { "hotel_name": "配普特行旅", "biz_area": "承德路中古汽車商圈", "min_price": 5000.0, "price_color": "#d73027" }, "geometry": { "type": "LineString", "coordinates": [ [ 121.51057055, 25.0923598 ], [ 121.514454136239294, 25.094010235554702 ] ] } },
{ "type": "Feature", "properties": { "hotel_name": "苓旅旅館中山館", "biz_area": "士林捷運站周邊", "min_price": 3280.0, "price_color": "#1a9850" }, "geometry": { "type": "LineString", "coordinates": [ [ 121.526734099999985, 25.09717305 ], [ 121.52659600907316, 25.097612907322745 ] ] } },
{ "type": "Feature", "properties": { "hotel_name": "和旅瓏旅館西門館", "biz_area": "承德路中古汽車商圈", "min_price": 3150.0, "price_color": "#d73027" }, "geometry": { "type": "LineString", "coordinates": [ [ 121.50668955, 25.0901893 ], [ 121.51464173708797, 25.093568798097607 ] ] } },
{ "type": "Feature", "properties": { "hotel_name": "藝築文旅開封館", "biz_area": "承德路中古汽車商圈", "min_price": 4280.0, "price_color": "#fee08b" }, "geometry": { "type": "LineString", "coordinates": [ [ 121.50595755, 25.0911573 ], [ 121.514181311338206, 25.094652210958479 ] ] } },
{ "type": "Feature", "properties": { "hotel_name": "日好青旅", "biz_area": "承德路中古汽車商圈", "min_price": 3000.0, "price_color": "#fc8d59" }, "geometry": { "type": "LineString", "coordinates": [ [ 121.508767049999989, 25.0940118 ], [ 121.513583579195625, 25.096058715027734 ] ] } },
{ "type": "Feature", "properties": { "hotel_name": "盤古捷旅", "biz_area": "承德路中古汽車商圈", "min_price": 4400.0, "price_color": "#fc8d59" }, "geometry": { "type": "LineString", "coordinates": [ [ 121.5204756, 25.09344605 ], [ 121.519085328526913, 25.090362407950714 ] ] } },
{ "type": "Feature", "properties": { "hotel_name": "旅家雅舍", "biz_area": "承德路中古汽車商圈", "min_price": 8000.0, "price_color": "#91cf60" }, "geometry": { "type": "LineString", "coordinates": [ [ 121.5203271, 25.07972505 ], [ 121.521227235504938, 25.079446210137505 ] ] } },
{ "type": "Feature", "properties": { "hotel_name": "白色空間設計旅店", "biz_area": "承德路中古汽車商圈", "min_price": 6800.0, "price_color": "#fc8d59" }, "geometry": { "type": "LineString", "coordinates": [ [ 121.515915100000015, 25.09053855 ], [ 121.516154997617079, 25.091068319945638 ] ] } },
{ "type": "Feature", "properties": { "hotel_name": "玉璽精品飯店", "biz_area": "行義路溫泉美食商圈", "min_price": 4950.0, "price_color": "#fee08b" }, "geometry": { "type": "LineString", "coordinates": [ [ 121.5237301, 25.12715505 ], [ 121.525535483187568, 25.125893561567068 ] ] } },
{ "type": "Feature", "properties": { "hotel_name": "大湖璞旅", "biz_area": "西湖商圈", "min_price": 5000.0, "price_color": "#91cf60" }, "geometry": { "type": "LineString", "coordinates": [ [ 121.5612706, 25.10451405 ], [ 121.5625798, 25.0869093 ] ] } },
{ "type": "Feature", "properties": { "hotel_name": "森浩文旅-STEP INN", "biz_area": "大直商圈", "min_price": 6800.0, "price_color": "#d73027" }, "geometry": { "type": "LineString", "coordinates": [ [ 121.545405100000011, 25.09305205 ], [ 121.549527, 25.084809 ] ] } },
{ "type": "Feature", "properties": { "hotel_name": "悅心旅", "biz_area": "承德路中古汽車商圈", "min_price": 3800.0, "price_color": "#fee08b" }, "geometry": { "type": "LineString", "coordinates": [ [ 121.510331549999989, 25.0932533 ], [ 121.514095945617726, 25.094853082259657 ] ] } },
{ "type": "Feature", "properties": { "hotel_name": "時尚居商旅", "biz_area": "士林捷運站周邊", "min_price": 6000.0, "price_color": "#d73027" }, "geometry": { "type": "LineString", "coordinates": [ [ 121.5268721, 25.09695555 ], [ 121.526659471165985, 25.097632830917881 ] ] } },
{ "type": "Feature", "properties": { "hotel_name": "雅齊旅館", "biz_area": "承德路中古汽車商圈", "min_price": 6800.0, "price_color": "#1a9850" }, "geometry": { "type": "LineString", "coordinates": [ [ 121.50987705, 25.0891633 ], [ 121.515498676073648, 25.091552362834065 ] ] } },
{ "type": "Feature", "properties": { "hotel_name": "日野苑", "biz_area": "承德路中古汽車商圈", "min_price": 8000.0, "price_color": "#d73027" }, "geometry": { "type": "LineString", "coordinates": [ [ 121.50989505, 25.0907478 ], [ 121.514931064462928, 25.092887991259179 ] ] } },
{ "type": "Feature", "properties": { "hotel_name": "台北捷運-北投會館(捷之旅)", "biz_area": "新北投溫泉商圈", "min_price": 5500.0, "price_color": "#91cf60" }, "geometry": { "type": "LineString", "coordinates": [ [ 121.4938982, 25.13556865 ], [ 121.5038364, 25.1362083 ] ] } },
{ "type": "Feature", "properties": { "hotel_name": "城市商旅北門二館", "biz_area": "承德路中古汽車商圈", "min_price": 9000.0, "price_color": "#1a9850" }, "geometry": { "type": "LineString", "coordinates": [ [ 121.50867355, 25.0936933 ], [ 121.513683924822132, 25.095822594996758 ] ] } },
{ "type": "Feature", "properties": { "hotel_name": "米窩飯店-站前", "biz_area": "承德路中古汽車商圈", "min_price": 8000.0, "price_color": "#91cf60" }, "geometry": { "type": "LineString", "coordinates": [ [ 121.515988099999987, 25.09097155 ], [ 121.516052864016913, 25.091114569468669 ] ] } },
{ "type": "Feature", "properties": { "hotel_name": "葛瑞絲商旅敦北館 ", "biz_area": "天母商圈", "min_price": 4180.0, "price_color": "#1a9850" }, "geometry": { "type": "LineString", "coordinates": [ [ 121.5324716, 25.09700005 ], [ 121.531204223434315, 25.100545631604515 ] ] } },
{ "type": "Feature", "properties": { "hotel_name": "台北棧", "biz_area": "承德路中古汽車商圈", "min_price": 6000.0, "price_color": "#91cf60" }, "geometry": { "type": "LineString", "coordinates": [ [ 121.515915100000015, 25.09053855 ], [ 121.516154997617079, 25.091068319945638 ] ] } },
{ "type": "Feature", "properties": { "hotel_name": "天母之星商務會館", "biz_area": "石牌捷運商圈", "min_price": 6000.0, "price_color": "#fc8d59" }, "geometry": { "type": "LineString", "coordinates": [ [ 121.5132532, 25.12461805 ], [ 121.513004753249248, 25.11903379519876 ] ] } },
{ "type": "Feature", "properties": { "hotel_name": "優美飯店", "biz_area": "士林捷運站周邊", "min_price": 5250.0, "price_color": "#d73027" }, "geometry": { "type": "LineString", "coordinates": [ [ 121.5201021, 25.09678105 ], [ 121.5239846, 25.0973296 ] ] } },
{ "type": "Feature", "properties": { "hotel_name": "聖雄商旅", "biz_area": "大直商圈", "min_price": 6600.0, "price_color": "#fc8d59" }, "geometry": { "type": "LineString", "coordinates": [ [ 121.5430431, 25.09320205 ], [ 121.549527, 25.084809 ] ] } },
{ "type": "Feature", "properties": { "hotel_name": "晶城青年旅館", "biz_area": "承德路中古汽車商圈", "min_price": 3600.0, "price_color": "#fc8d59" }, "geometry": { "type": "LineString", "coordinates": [ [ 121.510323549999981, 25.0945803 ], [ 121.513617047696769, 25.095979961385936 ] ] } },
{ "type": "Feature", "properties": { "hotel_name": "瀚寓夏天", "biz_area": "至聖花博商圈", "min_price": 8000.0, "price_color": "#fc8d59" }, "geometry": { "type": "LineString", "coordinates": [ [ 121.523835600000027, 25.07555205 ], [ 121.5232378, 25.0728216 ] ] } },
{ "type": "Feature", "properties": { "hotel_name": "大光瀛商旅", "biz_area": "承德路中古汽車商圈", "min_price": 3280.0, "price_color": "#1a9850" }, "geometry": { "type": "LineString", "coordinates": [ [ 121.515988099999987, 25.09097155 ], [ 121.516052864016913, 25.091114569468669 ] ] } },
{ "type": "Feature", "properties": { "hotel_name": "天雲旅棧台北開封", "biz_area": "承德路中古汽車商圈", "min_price": 8000.0, "price_color": "#fc8d59" }, "geometry": { "type": "LineString", "coordinates": [ [ 121.509786549999987, 25.0906563 ], [ 121.51494740328414, 25.092849544910226 ] ] } }
]
}
