{
	"type": "FeatureCollection",
	"crs": {
		"type": "name",
		"properties": { "name": "urn:ogc:def:crs:OGC:1.3:CRS84" }
	},
	"features": [
		{
			"type": "Feature",
			"properties": {
				"hotel_name": "香香雙博士大旅社",
				"biz_area": "新北市永和中興街韓國商圈",
				"min_price": 880.0,
				"price_color": "#1a9850"
			},
			"geometry": {
				"type": "LineString",
				"coordinates": [
					[121.519031, 25.013517],
					[121.517796685059167, 25.016301808176237]
				]
			}
		},
		{
			"type": "Feature",
			"properties": {
				"hotel_name": "香奈爾汽車旅館",
				"biz_area": "新北市蘆洲區商圈",
				"min_price": 2580.0,
				"price_color": "#91cf60"
			},
			"geometry": {
				"type": "LineString",
				"coordinates": [
					[121.463024, 25.0864029],
					[121.476455795996515, 25.081758690671379]
				]
			}
		},
		{
			"type": "Feature",
			"properties": {
				"hotel_name": "碧潭飯店",
				"biz_area": "新北市中和華新街商圈",
				"min_price": 4280.0,
				"price_color": "#fc8d59"
			},
			"geometry": {
				"type": "LineString",
				"coordinates": [
					[121.534224, 24.958425],
					[121.511640450165373, 24.980943172113655]
				]
			}
		},
		{
			"type": "Feature",
			"properties": {
				"hotel_name": "沐舍溫泉渡假酒店",
				"biz_area": "新北市金山商圈",
				"min_price": 16500.0,
				"price_color": "#d73027"
			},
			"geometry": {
				"type": "LineString",
				"coordinates": [
					[121.643493, 25.215392],
					[121.64142651742263, 25.218391168630589]
				]
			}
		},
		{
			"type": "Feature",
			"properties": {
				"hotel_name": "柯達大飯店(永和店)",
				"biz_area": "新北市永和中興街韓國商圈",
				"min_price": 1200.0,
				"price_color": "#1a9850"
			},
			"geometry": {
				"type": "LineString",
				"coordinates": [
					[121.513578, 25.007732],
					[121.515844758168413, 25.009619444961629]
				]
			}
		},
		{
			"type": "Feature",
			"properties": {
				"hotel_name": "綠映旅舍",
				"biz_area": "新北市三重碧華布街商圈",
				"min_price": 2600.0,
				"price_color": "#91cf60"
			},
			"geometry": {
				"type": "LineString",
				"coordinates": [
					[121.4971153, 25.064316],
					[121.492014777378799, 25.075822963650321]
				]
			}
		},
		{
			"type": "Feature",
			"properties": {
				"hotel_name": "長緹海景飯店",
				"biz_area": "新北市淡水區商圈",
				"min_price": 3000.0,
				"price_color": "#fee08b"
			},
			"geometry": {
				"type": "LineString",
				"coordinates": [
					[121.420539, 25.184061],
					[121.434793917381427, 25.173502145532776]
				]
			}
		},
		{
			"type": "Feature",
			"properties": {
				"hotel_name": "宮賓大旅社",
				"biz_area": "新北市板橋區府中商圈",
				"min_price": 450.0,
				"price_color": "#1a9850"
			},
			"geometry": {
				"type": "LineString",
				"coordinates": [
					[121.457363, 25.006801],
					[121.456678759904932, 25.005764116586146]
				]
			}
		},
		{
			"type": "Feature",
			"properties": {
				"hotel_name": "金龍湖旅館",
				"biz_area": "新北市深坑商圈",
				"min_price": 2500.0,
				"price_color": "#91cf60"
			},
			"geometry": {
				"type": "LineString",
				"coordinates": [
					[121.630955, 25.071439],
					[121.61761676481143, 24.993936472335196]
				]
			}
		},
		{
			"type": "Feature",
			"properties": {
				"hotel_name": "馨記旅館",
				"biz_area": "新北市蘆洲區商圈",
				"min_price": 1480.0,
				"price_color": "#1a9850"
			},
			"geometry": {
				"type": "LineString",
				"coordinates": [
					[121.466075, 25.079361],
					[121.476285645372926, 25.080038582331415]
				]
			}
		},
		{
			"type": "Feature",
			"properties": {
				"hotel_name": "陽明山天籟渡假酒店",
				"biz_area": "新北市金山商圈",
				"min_price": 14500.0,
				"price_color": "#d73027"
			},
			"geometry": {
				"type": "LineString",
				"coordinates": [
					[121.594999, 25.201883],
					[121.634034569642751, 25.220330213720342]
				]
			}
		},
		{
			"type": "Feature",
			"properties": {
				"hotel_name": "冠君大飯店",
				"biz_area": "新北市板橋區府中商圈",
				"min_price": 3800.0,
				"price_color": "#fee08b"
			},
			"geometry": {
				"type": "LineString",
				"coordinates": [
					[121.4620706, 25.0061414],
					[121.462356826611583, 25.005630604648506]
				]
			}
		},
		{
			"type": "Feature",
			"properties": {
				"hotel_name": "享來大旅社",
				"biz_area": "新北市淡水區商圈",
				"min_price": 1200.0,
				"price_color": "#1a9850"
			},
			"geometry": {
				"type": "LineString",
				"coordinates": [
					[121.441707, 25.170461],
					[121.443751775589121, 25.169925694433132]
				]
			}
		},
		{
			"type": "Feature",
			"properties": {
				"hotel_name": "薇星旅館",
				"biz_area": "新北市石碇觀光商圈",
				"min_price": 4230.0,
				"price_color": "#fc8d59"
			},
			"geometry": {
				"type": "LineString",
				"coordinates": [
					[121.6636462, 25.0533748],
					[121.662420136247874, 24.99473431474485]
				]
			}
		},
		{
			"type": "Feature",
			"properties": {
				"hotel_name": "富逸旅趣-板橋府中館",
				"biz_area": "新北市板橋區府中商圈",
				"min_price": 20000.0,
				"price_color": "#d73027"
			},
			"geometry": {
				"type": "LineString",
				"coordinates": [
					[121.4580935, 25.0085737],
					[121.455936535813308, 25.006378768637994]
				]
			}
		},
		{
			"type": "Feature",
			"properties": {
				"hotel_name": "盟園旅社",
				"biz_area": "新北市板橋區府中商圈",
				"min_price": 700.0,
				"price_color": "#1a9850"
			},
			"geometry": {
				"type": "LineString",
				"coordinates": [
					[121.457297, 25.0068729],
					[121.456599728685575, 25.005816269343462]
				]
			}
		},
		{
			"type": "Feature",
			"properties": {
				"hotel_name": "喬太商務旅館",
				"biz_area": "新北市板橋區新板商圈",
				"min_price": 1100.0,
				"price_color": "#1a9850"
			},
			"geometry": {
				"type": "LineString",
				"coordinates": [
					[121.47965, 25.019176],
					[121.470088372355193, 25.014067265153727]
				]
			}
		},
		{
			"type": "Feature",
			"properties": {
				"hotel_name": "富康精彩旅店",
				"biz_area": "新北市板橋區江子翠商圈",
				"min_price": 5600.0,
				"price_color": "#d73027"
			},
			"geometry": {
				"type": "LineString",
				"coordinates": [
					[121.470317, 25.027489],
					[121.469168798827738, 25.027021954074161]
				]
			}
		},
		{
			"type": "Feature",
			"properties": {
				"hotel_name": "漁人碼頭休閒旅館",
				"biz_area": "新北市淡水區商圈",
				"min_price": 3690.0,
				"price_color": "#fee08b"
			},
			"geometry": {
				"type": "LineString",
				"coordinates": [
					[121.420552, 25.181656],
					[121.434548527767987, 25.173119560544983]
				]
			}
		},
		{
			"type": "Feature",
			"properties": {
				"hotel_name": "青青汽車旅館",
				"biz_area": "新北市三峽民權老街商圈",
				"min_price": 2680.0,
				"price_color": "#91cf60"
			},
			"geometry": {
				"type": "LineString",
				"coordinates": [
					[121.378745, 24.931984],
					[121.37515322885605, 24.932920778560401]
				]
			}
		},
		{
			"type": "Feature",
			"properties": {
				"hotel_name": "薇薇精品旅館",
				"biz_area": "新北市蘆洲區商圈",
				"min_price": 3080.0,
				"price_color": "#fee08b"
			},
			"geometry": {
				"type": "LineString",
				"coordinates": [
					[121.482333, 25.082416],
					[121.483249666574679, 25.084607512266079]
				]
			}
		},
		{
			"type": "Feature",
			"properties": {
				"hotel_name": "觀海樓旅店",
				"biz_area": "新北市淡水區商圈",
				"min_price": 5000.0,
				"price_color": "#d73027"
			},
			"geometry": {
				"type": "LineString",
				"coordinates": [
					[121.455955, 25.159308],
					[121.443105919331074, 25.168573728899894]
				]
			}
		},
		{
			"type": "Feature",
			"properties": {
				"hotel_name": "菁鳥旅館",
				"biz_area": "新北市板橋區府中商圈",
				"min_price": 2500.0,
				"price_color": "#91cf60"
			},
			"geometry": {
				"type": "LineString",
				"coordinates": [
					[121.4553962, 25.0048938],
					[121.45631622463776, 25.006033543599635]
				]
			}
		},
		{
			"type": "Feature",
			"properties": {
				"hotel_name": "三重旅社",
				"biz_area": "新北市三重碧華布街商圈",
				"min_price": 600.0,
				"price_color": "#1a9850"
			},
			"geometry": {
				"type": "LineString",
				"coordinates": [
					[121.49513, 25.070647],
					[121.492285200085945, 25.075942829948414]
				]
			}
		},
		{
			"type": "Feature",
			"properties": {
				"hotel_name": "名爵汽車旅館",
				"biz_area": "新北市三重碧華布街商圈",
				"min_price": 3620.0,
				"price_color": "#fee08b"
			},
			"geometry": {
				"type": "LineString",
				"coordinates": [
					[121.49728, 25.064789],
					[121.492285200085945, 25.075942829948414]
				]
			}
		},
		{
			"type": "Feature",
			"properties": {
				"hotel_name": "皇品時尚旅店",
				"biz_area": "新北市板橋區新板商圈",
				"min_price": 4700.0,
				"price_color": "#fc8d59"
			},
			"geometry": {
				"type": "LineString",
				"coordinates": [
					[121.462457, 25.009211],
					[121.462229359529175, 25.008929012181873]
				]
			}
		},
		{
			"type": "Feature",
			"properties": {
				"hotel_name": "億苑賓館",
				"biz_area": "新北市板橋區府中商圈",
				"min_price": 4200.0,
				"price_color": "#fc8d59"
			},
			"geometry": {
				"type": "LineString",
				"coordinates": [
					[121.456428, 25.009997],
					[121.454803460108153, 25.010422013630585]
				]
			}
		},
		{
			"type": "Feature",
			"properties": {
				"hotel_name": "悅榕汽車旅館",
				"biz_area": "新北市板橋區府中商圈",
				"min_price": 580.0,
				"price_color": "#1a9850"
			},
			"geometry": {
				"type": "LineString",
				"coordinates": [
					[121.457836, 25.00625],
					[121.457453290503139, 25.005335260888899]
				]
			}
		},
		{
			"type": "Feature",
			"properties": {
				"hotel_name": "印象賓館",
				"biz_area": "新北市板橋區府中商圈",
				"min_price": 1000.0,
				"price_color": "#1a9850"
			},
			"geometry": {
				"type": "LineString",
				"coordinates": [
					[121.426365, 24.993166],
					[121.455065180172753, 25.007615126868256]
				]
			}
		},
		{
			"type": "Feature",
			"properties": {
				"hotel_name": "昇園賓館",
				"biz_area": "新北市板橋區府中商圈",
				"min_price": 1000.0,
				"price_color": "#1a9850"
			},
			"geometry": {
				"type": "LineString",
				"coordinates": [
					[121.426365, 24.993166],
					[121.455065180172753, 25.007615126868256]
				]
			}
		},
		{
			"type": "Feature",
			"properties": {
				"hotel_name": "佳賓旅社",
				"biz_area": "新北市板橋區府中商圈",
				"min_price": 800.0,
				"price_color": "#1a9850"
			},
			"geometry": {
				"type": "LineString",
				"coordinates": [
					[121.426859, 24.992846],
					[121.455065180172753, 25.007615126868256]
				]
			}
		},
		{
			"type": "Feature",
			"properties": {
				"hotel_name": "龍海大飯店",
				"biz_area": "新北市板橋區府中商圈",
				"min_price": 1000.0,
				"price_color": "#1a9850"
			},
			"geometry": {
				"type": "LineString",
				"coordinates": [
					[121.427613, 24.993063],
					[121.455065180172753, 25.007615126868256]
				]
			}
		},
		{
			"type": "Feature",
			"properties": {
				"hotel_name": "板橋旅居文旅",
				"biz_area": "新北市板橋區新板商圈",
				"min_price": 12000.0,
				"price_color": "#d73027"
			},
			"geometry": {
				"type": "LineString",
				"coordinates": [
					[121.4628644, 25.00927183],
					[121.462499805127592, 25.008719366658593]
				]
			}
		},
		{
			"type": "Feature",
			"properties": {
				"hotel_name": "香寧旅店",
				"biz_area": "新北市八里區左岸觀光商圈",
				"min_price": 1480.0,
				"price_color": "#1a9850"
			},
			"geometry": {
				"type": "LineString",
				"coordinates": [
					[121.460202, 25.137578],
					[121.434391690083032, 25.158103951008481]
				]
			}
		},
		{
			"type": "Feature",
			"properties": {
				"hotel_name": "新五福旅社",
				"biz_area": "新北市淡水區商圈",
				"min_price": 1200.0,
				"price_color": "#1a9850"
			},
			"geometry": {
				"type": "LineString",
				"coordinates": [
					[121.442042, 25.170223],
					[121.443650783560997, 25.169613420048659]
				]
			}
		},
		{
			"type": "Feature",
			"properties": {
				"hotel_name": "新加州景觀旅館",
				"biz_area": "新北市中和華新街商圈",
				"min_price": 3800.0,
				"price_color": "#fee08b"
			},
			"geometry": {
				"type": "LineString",
				"coordinates": [
					[121.537422, 24.958785],
					[121.511962886265295, 24.981274666858457]
				]
			}
		},
		{
			"type": "Feature",
			"properties": {
				"hotel_name": "蘭竹大飯店",
				"biz_area": "新北市板橋區新板商圈",
				"min_price": 1250.0,
				"price_color": "#1a9850"
			},
			"geometry": {
				"type": "LineString",
				"coordinates": [
					[121.458429, 25.008614],
					[121.461197813731147, 25.010107007662718]
				]
			}
		},
		{
			"type": "Feature",
			"properties": {
				"hotel_name": "丰居旅店微風館",
				"biz_area": "新北市蘆洲區商圈",
				"min_price": 15000.0,
				"price_color": "#d73027"
			},
			"geometry": {
				"type": "LineString",
				"coordinates": [
					[121.4851339, 25.0773284],
					[121.484935017011338, 25.077521908859985]
				]
			}
		},
		{
			"type": "Feature",
			"properties": {
				"hotel_name": "相見歡旅館",
				"biz_area": "新北市永和中興街韓國商圈",
				"min_price": 3380.0,
				"price_color": "#fee08b"
			},
			"geometry": {
				"type": "LineString",
				"coordinates": [
					[121.512874, 25.005893],
					[121.516170178766657, 25.009244292319092]
				]
			}
		},
		{
			"type": "Feature",
			"properties": {
				"hotel_name": "華倫大旅社",
				"biz_area": "新北市板橋區府中商圈",
				"min_price": 1200.0,
				"price_color": "#1a9850"
			},
			"geometry": {
				"type": "LineString",
				"coordinates": [
					[121.454042, 25.0082139],
					[121.454781878555536, 25.008427144972689]
				]
			}
		},
		{
			"type": "Feature",
			"properties": {
				"hotel_name": "美錦樂賓館",
				"biz_area": "新北市板橋區府中商圈",
				"min_price": 650.0,
				"price_color": "#1a9850"
			},
			"geometry": {
				"type": "LineString",
				"coordinates": [
					[121.453421, 25.008369],
					[121.454747600752142, 25.008601942300956]
				]
			}
		},
		{
			"type": "Feature",
			"properties": {
				"hotel_name": "愛莉亞汽車旅館",
				"biz_area": "新北市三峽民權老街商圈",
				"min_price": 1580.0,
				"price_color": "#1a9850"
			},
			"geometry": {
				"type": "LineString",
				"coordinates": [
					[121.363821, 24.935946],
					[121.365623742155478, 24.935265294270671]
				]
			}
		},
		{
			"type": "Feature",
			"properties": {
				"hotel_name": "龍山旅社",
				"biz_area": "新北市中和華新街商圈",
				"min_price": 1000.0,
				"price_color": "#1a9850"
			},
			"geometry": {
				"type": "LineString",
				"coordinates": [
					[121.538625, 24.959475],
					[121.511962886265295, 24.981274666858457]
				]
			}
		},
		{
			"type": "Feature",
			"properties": {
				"hotel_name": "南國旅社",
				"biz_area": "新北市板橋區府中商圈",
				"min_price": 500.0,
				"price_color": "#1a9850"
			},
			"geometry": {
				"type": "LineString",
				"coordinates": [
					[121.454078, 25.008293],
					[121.454772705231022, 25.008458972902812]
				]
			}
		},
		{
			"type": "Feature",
			"properties": {
				"hotel_name": "美莊旅社",
				"biz_area": "新北市板橋區府中商圈",
				"min_price": 1000.0,
				"price_color": "#1a9850"
			},
			"geometry": {
				"type": "LineString",
				"coordinates": [
					[121.4561113, 25.0088007],
					[121.454754533444884, 25.008562460783942]
				]
			}
		},
		{
			"type": "Feature",
			"properties": {
				"hotel_name": "愛家旅館",
				"biz_area": "新北市中和華新街商圈",
				"min_price": 2200.0,
				"price_color": "#91cf60"
			},
			"geometry": {
				"type": "LineString",
				"coordinates": [
					[121.543257, 24.974164],
					[121.512855112879862, 24.982837088939089]
				]
			}
		},
		{
			"type": "Feature",
			"properties": {
				"hotel_name": "旅居文旅-板橋驛站2館",
				"biz_area": "新北市板橋區府中商圈",
				"min_price": 12000.0,
				"price_color": "#d73027"
			},
			"geometry": {
				"type": "LineString",
				"coordinates": [
					[121.454328, 25.003215],
					[121.456489972041226, 25.005893291097237]
				]
			}
		},
		{
			"type": "Feature",
			"properties": {
				"hotel_name": "黎明旅館",
				"biz_area": "新北市中和華新街商圈",
				"min_price": 1800.0,
				"price_color": "#1a9850"
			},
			"geometry": {
				"type": "LineString",
				"coordinates": [
					[121.541418, 24.981013],
					[121.513034080809632, 24.983706882931635]
				]
			}
		},
		{
			"type": "Feature",
			"properties": {
				"hotel_name": "名華大旅社",
				"biz_area": "新北市三重碧華布街商圈",
				"min_price": 300.0,
				"price_color": "#1a9850"
			},
			"geometry": {
				"type": "LineString",
				"coordinates": [
					[121.502479, 25.065202],
					[121.493087033910157, 25.076442651172261]
				]
			}
		},
		{
			"type": "Feature",
			"properties": {
				"hotel_name": "慶都大旅社",
				"biz_area": "新北市三重碧華布街商圈",
				"min_price": 700.0,
				"price_color": "#1a9850"
			},
			"geometry": {
				"type": "LineString",
				"coordinates": [
					[121.496643, 25.061991],
					[121.491847835096024, 25.075748965598738]
				]
			}
		},
		{
			"type": "Feature",
			"properties": {
				"hotel_name": "庭有名旅居文旅",
				"biz_area": "新北市板橋區府中商圈",
				"min_price": 12000.0,
				"price_color": "#d73027"
			},
			"geometry": {
				"type": "LineString",
				"coordinates": [
					[121.443392, 24.974949],
					[121.45733467201967, 25.005384888612884]
				]
			}
		},
		{
			"type": "Feature",
			"properties": {
				"hotel_name": "名流賓館",
				"biz_area": "新北市三重碧華布街商圈",
				"min_price": 800.0,
				"price_color": "#1a9850"
			},
			"geometry": {
				"type": "LineString",
				"coordinates": [
					[121.497482, 25.062712],
					[121.491847835096024, 25.075748965598738]
				]
			}
		},
		{
			"type": "Feature",
			"properties": {
				"hotel_name": "千嘉旅店",
				"biz_area": "新北市板橋區府中商圈",
				"min_price": 1400.0,
				"price_color": "#1a9850"
			},
			"geometry": {
				"type": "LineString",
				"coordinates": [
					[121.456291, 25.007824],
					[121.455313477326911, 25.007164313038853]
				]
			}
		},
		{
			"type": "Feature",
			"properties": {
				"hotel_name": "玉山旅店",
				"biz_area": "新北市鶯歌區陶瓷藝術商圈",
				"min_price": 2000.0,
				"price_color": "#91cf60"
			},
			"geometry": {
				"type": "LineString",
				"coordinates": [
					[121.352599, 24.948658],
					[121.35321277151877, 24.947772923919572]
				]
			}
		},
		{
			"type": "Feature",
			"properties": {
				"hotel_name": "中信旅店",
				"biz_area": "新北市永和中興街韓國商圈",
				"min_price": 1380.0,
				"price_color": "#1a9850"
			},
			"geometry": {
				"type": "LineString",
				"coordinates": [
					[121.517933, 25.014253],
					[121.516871744489706, 25.015787966166865]
				]
			}
		},
		{
			"type": "Feature",
			"properties": {
				"hotel_name": "明園賓館",
				"biz_area": "新北市板橋區府中商圈",
				"min_price": 900.0,
				"price_color": "#1a9850"
			},
			"geometry": {
				"type": "LineString",
				"coordinates": [
					[121.427613, 24.993065],
					[121.455065180172753, 25.007615126868256]
				]
			}
		},
		{
			"type": "Feature",
			"properties": {
				"hotel_name": "豪華旅社",
				"biz_area": "新北市板橋區府中商圈",
				"min_price": 800.0,
				"price_color": "#1a9850"
			},
			"geometry": {
				"type": "LineString",
				"coordinates": [
					[121.425571, 24.990515],
					[121.455278026664075, 25.007216843752257]
				]
			}
		},
		{
			"type": "Feature",
			"properties": {
				"hotel_name": "凱帝賓館",
				"biz_area": "新北市中和華新街商圈",
				"min_price": 1500.0,
				"price_color": "#1a9850"
			},
			"geometry": {
				"type": "LineString",
				"coordinates": [
					[121.496533, 25.002629],
					[121.505303098090494, 24.98782565053947]
				]
			}
		},
		{
			"type": "Feature",
			"properties": {
				"hotel_name": "福泰翡翠灣渡假飯店",
				"biz_area": "新北市萬里商圈",
				"min_price": 8000.0,
				"price_color": "#d73027"
			},
			"geometry": {
				"type": "LineString",
				"coordinates": [
					[121.68372, 25.18628],
					[121.686515466411677, 25.182661655741185]
				]
			}
		},
		{
			"type": "Feature",
			"properties": {
				"hotel_name": "土城飯店",
				"biz_area": "新北市板橋區府中商圈",
				"min_price": 1380.0,
				"price_color": "#1a9850"
			},
			"geometry": {
				"type": "LineString",
				"coordinates": [
					[121.440843, 24.9734909],
					[121.45733467201967, 25.005384888612884]
				]
			}
		},
		{
			"type": "Feature",
			"properties": {
				"hotel_name": "沃客伽洲旅社",
				"biz_area": "新北市三重碧華布街商圈",
				"min_price": 16800.0,
				"price_color": "#d73027"
			},
			"geometry": {
				"type": "LineString",
				"coordinates": [
					[121.488095, 25.051515],
					[121.489469317278378, 25.07540286824576]
				]
			}
		},
		{
			"type": "Feature",
			"properties": {
				"hotel_name": "馥俐商旅",
				"biz_area": "新北市板橋區府中商圈",
				"min_price": 9900.0,
				"price_color": "#d73027"
			},
			"geometry": {
				"type": "LineString",
				"coordinates": [
					[121.458116, 25.007901],
					[121.456697645179673, 25.005751654180052]
				]
			}
		},
		{
			"type": "Feature",
			"properties": {
				"hotel_name": "新莊客旅",
				"biz_area": "新北市板橋區府中商圈",
				"min_price": 4500.0,
				"price_color": "#fc8d59"
			},
			"geometry": {
				"type": "LineString",
				"coordinates": [
					[121.44481, 24.987039],
					[121.456914886756337, 25.005608296310609]
				]
			}
		},
		{
			"type": "Feature",
			"properties": {
				"hotel_name": "嘉家旅店",
				"biz_area": "新北市永和中興街韓國商圈",
				"min_price": 800.0,
				"price_color": "#1a9850"
			},
			"geometry": {
				"type": "LineString",
				"coordinates": [
					[121.5172134, 25.0073466],
					[121.517605616903992, 25.008212722933994]
				]
			}
		},
		{
			"type": "Feature",
			"properties": {
				"hotel_name": "極品旅館",
				"biz_area": "新北市新莊廟街商圈",
				"min_price": 4980.0,
				"price_color": "#fc8d59"
			},
			"geometry": {
				"type": "LineString",
				"coordinates": [
					[121.442574, 25.03261],
					[121.446651802123412, 25.03366866639022]
				]
			}
		},
		{
			"type": "Feature",
			"properties": {
				"hotel_name": "華園旅社",
				"biz_area": "新北市三重碧華布街商圈",
				"min_price": 800.0,
				"price_color": "#1a9850"
			},
			"geometry": {
				"type": "LineString",
				"coordinates": [
					[121.497469, 25.062783],
					[121.491847835096024, 25.075748965598738]
				]
			}
		},
		{
			"type": "Feature",
			"properties": {
				"hotel_name": "仲信商務會館",
				"biz_area": "新北市中和華新街商圈",
				"min_price": 4400.0,
				"price_color": "#fc8d59"
			},
			"geometry": {
				"type": "LineString",
				"coordinates": [
					[121.543171, 24.9826349],
					[121.513041984585385, 24.983895749957416]
				]
			}
		},
		{
			"type": "Feature",
			"properties": {
				"hotel_name": "首府大旅社",
				"biz_area": "新北市板橋區新板商圈",
				"min_price": 3000.0,
				"price_color": "#fee08b"
			},
			"geometry": {
				"type": "LineString",
				"coordinates": [
					[121.462419, 25.007451],
					[121.462945153698257, 25.008439575075865]
				]
			}
		},
		{
			"type": "Feature",
			"properties": {
				"hotel_name": "華春林賓館",
				"biz_area": "新北市三重碧華布街商圈",
				"min_price": 700.0,
				"price_color": "#1a9850"
			},
			"geometry": {
				"type": "LineString",
				"coordinates": [
					[121.490602, 25.059037],
					[121.489955378871088, 25.075386076335128]
				]
			}
		},
		{
			"type": "Feature",
			"properties": {
				"hotel_name": "秀山大飯店",
				"biz_area": "新北市烏來區溫泉社區商圈",
				"min_price": 2500.0,
				"price_color": "#91cf60"
			},
			"geometry": {
				"type": "LineString",
				"coordinates": [
					[121.551769, 24.864253],
					[121.553427351608903, 24.864361654375742]
				]
			}
		},
		{
			"type": "Feature",
			"properties": {
				"hotel_name": "烏來輕井澤溫泉旅館",
				"biz_area": "新北市烏來區溫泉社區商圈",
				"min_price": 8800.0,
				"price_color": "#d73027"
			},
			"geometry": {
				"type": "LineString",
				"coordinates": [
					[121.551659, 24.864752],
					[121.553261090441239, 24.865211735213272]
				]
			}
		},
		{
			"type": "Feature",
			"properties": {
				"hotel_name": "三和旅舍",
				"biz_area": "新北市三重碧華布街商圈",
				"min_price": 1050.0,
				"price_color": "#1a9850"
			},
			"geometry": {
				"type": "LineString",
				"coordinates": [
					[121.500698, 25.067675],
					[121.493209573843885, 25.076546091793357]
				]
			}
		},
		{
			"type": "Feature",
			"properties": {
				"hotel_name": "喜客商旅-三重館",
				"biz_area": "新北市三重碧華布街商圈",
				"min_price": 14800.0,
				"price_color": "#d73027"
			},
			"geometry": {
				"type": "LineString",
				"coordinates": [
					[121.494895, 25.070982],
					[121.492285200085945, 25.075942829948414]
				]
			}
		},
		{
			"type": "Feature",
			"properties": {
				"hotel_name": "百麗旅店",
				"biz_area": "新北市板橋區府中商圈",
				"min_price": 9880.0,
				"price_color": "#d73027"
			},
			"geometry": {
				"type": "LineString",
				"coordinates": [
					[121.45756, 25.008538],
					[121.455379501909576, 25.007066477958972]
				]
			}
		},
		{
			"type": "Feature",
			"properties": {
				"hotel_name": "宏仁旅店",
				"biz_area": "新北市中和華新街商圈",
				"min_price": 1980.0,
				"price_color": "#1a9850"
			},
			"geometry": {
				"type": "LineString",
				"coordinates": [
					[121.512463, 24.990141],
					[121.510920278196295, 24.987805544008364]
				]
			}
		},
		{
			"type": "Feature",
			"properties": {
				"hotel_name": "嘉年華汽車旅館",
				"biz_area": "新北市蘆洲區商圈",
				"min_price": 2900.0,
				"price_color": "#91cf60"
			},
			"geometry": {
				"type": "LineString",
				"coordinates": [
					[121.480634, 25.0825719],
					[121.48008054093232, 25.084887294924759]
				]
			}
		},
		{
			"type": "Feature",
			"properties": {
				"hotel_name": "台北薇米商旅",
				"biz_area": "新北市三重碧華布街商圈",
				"min_price": 4800.0,
				"price_color": "#fc8d59"
			},
			"geometry": {
				"type": "LineString",
				"coordinates": [
					[121.497167, 25.061757],
					[121.491847835096024, 25.075748965598738]
				]
			}
		},
		{
			"type": "Feature",
			"properties": {
				"hotel_name": "怡美賓館",
				"biz_area": "新北市金山商圈",
				"min_price": 1400.0,
				"price_color": "#1a9850"
			},
			"geometry": {
				"type": "LineString",
				"coordinates": [
					[121.640948, 25.2208319],
					[121.642637116322618, 25.219483616798506]
				]
			}
		},
		{
			"type": "Feature",
			"properties": {
				"hotel_name": "雲仙大飯店",
				"biz_area": "新北市烏來區溫泉社區商圈",
				"min_price": 4400.0,
				"price_color": "#fc8d59"
			},
			"geometry": {
				"type": "LineString",
				"coordinates": [
					[121.552134, 24.84898],
					[121.549596794048995, 24.85960101588552]
				]
			}
		},
		{
			"type": "Feature",
			"properties": {
				"hotel_name": "友愛金色商旅",
				"biz_area": "新北市板橋區府中商圈",
				"min_price": 3300.0,
				"price_color": "#fee08b"
			},
			"geometry": {
				"type": "LineString",
				"coordinates": [
					[121.461666, 25.0064229],
					[121.462168957046899, 25.005525331041838]
				]
			}
		},
		{
			"type": "Feature",
			"properties": {
				"hotel_name": "香格里拉汽車旅館",
				"biz_area": "新北市中和華新街商圈",
				"min_price": 2600.0,
				"price_color": "#91cf60"
			},
			"geometry": {
				"type": "LineString",
				"coordinates": [
					[121.484617, 24.994595],
					[121.503503486210974, 24.985781489909819]
				]
			}
		},
		{
			"type": "Feature",
			"properties": {
				"hotel_name": "香格里拉汽車旅館中和館",
				"biz_area": "新北市中和華新街商圈",
				"min_price": 2600.0,
				"price_color": "#91cf60"
			},
			"geometry": {
				"type": "LineString",
				"coordinates": [
					[121.484381, 24.994105],
					[121.503503486210974, 24.985781489909819]
				]
			}
		},
		{
			"type": "Feature",
			"properties": {
				"hotel_name": "馥俐旅店",
				"biz_area": "新北市板橋區府中商圈",
				"min_price": 9900.0,
				"price_color": "#d73027"
			},
			"geometry": {
				"type": "LineString",
				"coordinates": [
					[121.457892, 25.0090009],
					[121.45498288492476, 25.007817416403352]
				]
			}
		},
		{
			"type": "Feature",
			"properties": {
				"hotel_name": "君祥酒店",
				"biz_area": "新北市新莊廟街商圈",
				"min_price": 3600.0,
				"price_color": "#fee08b"
			},
			"geometry": {
				"type": "LineString",
				"coordinates": [
					[121.433046, 25.053278],
					[121.447956475690418, 25.037755227475138]
				]
			}
		},
		{
			"type": "Feature",
			"properties": {
				"hotel_name": "雅都旅社",
				"biz_area": "新北市新莊廟街商圈",
				"min_price": 6980.0,
				"price_color": "#d73027"
			},
			"geometry": {
				"type": "LineString",
				"coordinates": [
					[121.442574, 25.03261],
					[121.446651802123412, 25.03366866639022]
				]
			}
		},
		{
			"type": "Feature",
			"properties": {
				"hotel_name": "旅居文旅-板橋驛站1館",
				"biz_area": "新北市板橋區府中商圈",
				"min_price": 12000.0,
				"price_color": "#d73027"
			},
			"geometry": {
				"type": "LineString",
				"coordinates": [
					[121.4543127, 25.00683152],
					[121.455223755488745, 25.007318397189593]
				]
			}
		},
		{
			"type": "Feature",
			"properties": {
				"hotel_name": "柜富旅店",
				"biz_area": "新北市三重碧華布街商圈",
				"min_price": 12000.0,
				"price_color": "#d73027"
			},
			"geometry": {
				"type": "LineString",
				"coordinates": [
					[121.497481, 25.062712],
					[121.491847835096024, 25.075748965598738]
				]
			}
		},
		{
			"type": "Feature",
			"properties": {
				"hotel_name": "夢綺旅店",
				"biz_area": "新北市板橋區府中商圈",
				"min_price": 12000.0,
				"price_color": "#d73027"
			},
			"geometry": {
				"type": "LineString",
				"coordinates": [
					[121.453753, 25.010996],
					[121.454863401792451, 25.01065113018198]
				]
			}
		},
		{
			"type": "Feature",
			"properties": {
				"hotel_name": "台麗精品旅店",
				"biz_area": "新北市新莊廟街商圈",
				"min_price": 4500.0,
				"price_color": "#fc8d59"
			},
			"geometry": {
				"type": "LineString",
				"coordinates": [
					[121.424413, 25.0384089],
					[121.44657788822407, 25.035084937383619]
				]
			}
		},
		{
			"type": "Feature",
			"properties": {
				"hotel_name": "愛摩兒時尚旅?",
				"biz_area": "新北市永和中興街韓國商圈",
				"min_price": 3500.0,
				"price_color": "#fee08b"
			},
			"geometry": {
				"type": "LineString",
				"coordinates": [
					[121.5034069, 25.0078468],
					[121.515069686559144, 25.011202210752568]
				]
			}
		},
		{
			"type": "Feature",
			"properties": {
				"hotel_name": "上格大飯店",
				"biz_area": "新北市三重碧華布街商圈",
				"min_price": 18800.0,
				"price_color": "#d73027"
			},
			"geometry": {
				"type": "LineString",
				"coordinates": [
					[121.488743, 25.051896],
					[121.489554986668409, 25.075399908635777]
				]
			}
		},
		{
			"type": "Feature",
			"properties": {
				"hotel_name": "大東旅社",
				"biz_area": "新北市雙溪低碳商圈",
				"min_price": 1200.0,
				"price_color": "#1a9850"
			},
			"geometry": {
				"type": "LineString",
				"coordinates": [
					[121.9412014, 25.01949324],
					[121.863868375938367, 25.037456483548834]
				]
			}
		},
		{
			"type": "Feature",
			"properties": {
				"hotel_name": "花蝶晶漾商旅",
				"biz_area": "新北市新莊廟街商圈",
				"min_price": 3980.0,
				"price_color": "#fee08b"
			},
			"geometry": {
				"type": "LineString",
				"coordinates": [
					[121.451488, 25.053349],
					[121.451443316330426, 25.039113867191343]
				]
			}
		},
		{
			"type": "Feature",
			"properties": {
				"hotel_name": "群策翡翠灣溫泉飯店",
				"biz_area": "新北市萬里商圈",
				"min_price": 6600.0,
				"price_color": "#d73027"
			},
			"geometry": {
				"type": "LineString",
				"coordinates": [
					[121.6831496, 25.1908987],
					[121.687318820388583, 25.183160482294461]
				]
			}
		},
		{
			"type": "Feature",
			"properties": {
				"hotel_name": "河灣渡假村",
				"biz_area": "新北市平溪區魅力商圈",
				"min_price": 4000.0,
				"price_color": "#fc8d59"
			},
			"geometry": {
				"type": "LineString",
				"coordinates": [
					[121.780458, 25.048758],
					[121.743913996064833, 25.026594083402973]
				]
			}
		},
		{
			"type": "Feature",
			"properties": {
				"hotel_name": "儷閣經典旅館",
				"biz_area": "新北市中和華新街商圈",
				"min_price": 6960.0,
				"price_color": "#d73027"
			},
			"geometry": {
				"type": "LineString",
				"coordinates": [
					[121.484415, 24.982353],
					[121.503176612134354, 24.983608051616837]
				]
			}
		},
		{
			"type": "Feature",
			"properties": {
				"hotel_name": "北國之春和風汽車旅館",
				"biz_area": "新北市鶯歌區陶瓷藝術商圈",
				"min_price": 1680.0,
				"price_color": "#1a9850"
			},
			"geometry": {
				"type": "LineString",
				"coordinates": [
					[121.333863, 24.963037],
					[121.346063964959029, 24.953820012575143]
				]
			}
		},
		{
			"type": "Feature",
			"properties": {
				"hotel_name": "馥都飯店",
				"biz_area": "新北市板橋區府中商圈",
				"min_price": 11600.0,
				"price_color": "#d73027"
			},
			"geometry": {
				"type": "LineString",
				"coordinates": [
					[121.4582219, 25.0076129],
					[121.457102049214882, 25.005508689350538]
				]
			}
		},
		{
			"type": "Feature",
			"properties": {
				"hotel_name": "安盛商務旅館",
				"biz_area": "新北市中和華新街商圈",
				"min_price": 3400.0,
				"price_color": "#fee08b"
			},
			"geometry": {
				"type": "LineString",
				"coordinates": [
					[121.538401, 24.981689],
					[121.513034080809632, 24.983706882931635]
				]
			}
		},
		{
			"type": "Feature",
			"properties": {
				"hotel_name": "帝苑旅店",
				"biz_area": "新北市板橋區江子翠商圈",
				"min_price": 8880.0,
				"price_color": "#d73027"
			},
			"geometry": {
				"type": "LineString",
				"coordinates": [
					[121.4667039, 25.020321],
					[121.466366688450407, 25.021319531373408]
				]
			}
		},
		{
			"type": "Feature",
			"properties": {
				"hotel_name": "探索汽車旅館永和館",
				"biz_area": "新北市永和中興街韓國商圈",
				"min_price": 4980.0,
				"price_color": "#fc8d59"
			},
			"geometry": {
				"type": "LineString",
				"coordinates": [
					[121.5041684, 25.0098812],
					[121.514968428563733, 25.011725389898558]
				]
			}
		},
		{
			"type": "Feature",
			"properties": {
				"hotel_name": "日暉商務旅館",
				"biz_area": "新北市中和華新街商圈",
				"min_price": 1980.0,
				"price_color": "#1a9850"
			},
			"geometry": {
				"type": "LineString",
				"coordinates": [
					[121.5035418, 24.9933862],
					[121.505873824837352, 24.98812701261491]
				]
			}
		},
		{
			"type": "Feature",
			"properties": {
				"hotel_name": "福格大飯店",
				"biz_area": "新北市淡水區商圈",
				"min_price": 5000.0,
				"price_color": "#d73027"
			},
			"geometry": {
				"type": "LineString",
				"coordinates": [
					[121.445757, 25.17041],
					[121.443891706148165, 25.170647558019766]
				]
			}
		},
		{
			"type": "Feature",
			"properties": {
				"hotel_name": "萬里仙境溫泉會館",
				"biz_area": "新北市金山商圈",
				"min_price": 5280.0,
				"price_color": "#d73027"
			},
			"geometry": {
				"type": "LineString",
				"coordinates": [
					[121.642884, 25.215917],
					[121.641398703937185, 25.21837200462544]
				]
			}
		},
		{
			"type": "Feature",
			"properties": {
				"hotel_name": "藏愛旅店",
				"biz_area": "新北市三重碧華布街商圈",
				"min_price": 12000.0,
				"price_color": "#d73027"
			},
			"geometry": {
				"type": "LineString",
				"coordinates": [
					[121.489257, 25.051607],
					[121.489955378871088, 25.075386076335128]
				]
			}
		},
		{
			"type": "Feature",
			"properties": {
				"hotel_name": "全家旅店",
				"biz_area": "新北市中和華新街商圈",
				"min_price": 6600.0,
				"price_color": "#d73027"
			},
			"geometry": {
				"type": "LineString",
				"coordinates": [
					[121.5005038, 25.001258],
					[121.506154320199883, 24.988251389653467]
				]
			}
		},
		{
			"type": "Feature",
			"properties": {
				"hotel_name": "大觀商旅",
				"biz_area": "新北市新莊廟街商圈",
				"min_price": 12000.0,
				"price_color": "#d73027"
			},
			"geometry": {
				"type": "LineString",
				"coordinates": [
					[121.453804, 25.036103],
					[121.455371866618563, 25.037410047485782]
				]
			}
		},
		{
			"type": "Feature",
			"properties": {
				"hotel_name": "璞石麗緻溫泉會館",
				"biz_area": "新北市烏來區溫泉社區商圈",
				"min_price": 7920.0,
				"price_color": "#d73027"
			},
			"geometry": {
				"type": "LineString",
				"coordinates": [
					[121.548002, 24.871593],
					[121.5481708377568, 24.868499085956]
				]
			}
		},
		{
			"type": "Feature",
			"properties": {
				"hotel_name": "正點旅店",
				"biz_area": "新北市板橋區新板商圈",
				"min_price": 2980.0,
				"price_color": "#91cf60"
			},
			"geometry": {
				"type": "LineString",
				"coordinates": [
					[121.460759, 25.013618],
					[121.460805681719648, 25.013600323581198]
				]
			}
		},
		{
			"type": "Feature",
			"properties": {
				"hotel_name": "景安精品旅館",
				"biz_area": "新北市中和華新街商圈",
				"min_price": 3250.0,
				"price_color": "#fee08b"
			},
			"geometry": {
				"type": "LineString",
				"coordinates": [
					[121.5044463, 24.9961865],
					[121.506610145991914, 24.98840522065348]
				]
			}
		},
		{
			"type": "Feature",
			"properties": {
				"hotel_name": "沃客新舍旅社",
				"biz_area": "新北市三重碧華布街商圈",
				"min_price": 16800.0,
				"price_color": "#d73027"
			},
			"geometry": {
				"type": "LineString",
				"coordinates": [
					[121.488093, 25.051517],
					[121.489469317278378, 25.07540286824576]
				]
			}
		},
		{
			"type": "Feature",
			"properties": {
				"hotel_name": "挪威森林森森休閒旅館",
				"biz_area": "新北市淡水區商圈",
				"min_price": 1980.0,
				"price_color": "#1a9850"
			},
			"geometry": {
				"type": "LineString",
				"coordinates": [
					[121.4613146, 25.1548826],
					[121.443105919331074, 25.168573728899894]
				]
			}
		},
		{
			"type": "Feature",
			"properties": {
				"hotel_name": "福容大飯店 福隆貝悅",
				"biz_area": "新北市雙溪低碳商圈",
				"min_price": 14080.0,
				"price_color": "#d73027"
			},
			"geometry": {
				"type": "LineString",
				"coordinates": [
					[121.943978, 25.018408],
					[121.863868375938367, 25.037456483548834]
				]
			}
		},
		{
			"type": "Feature",
			"properties": {
				"hotel_name": "紫虹汽車旅館",
				"biz_area": "新北市蘆洲區商圈",
				"min_price": 980.0,
				"price_color": "#1a9850"
			},
			"geometry": {
				"type": "LineString",
				"coordinates": [
					[121.4649854, 25.0902313],
					[121.476845555573959, 25.082623758921919]
				]
			}
		},
		{
			"type": "Feature",
			"properties": {
				"hotel_name": "香奈爾汽車旅館 (新莊店)",
				"biz_area": "新北市新莊廟街商圈",
				"min_price": 13800.0,
				"price_color": "#d73027"
			},
			"geometry": {
				"type": "LineString",
				"coordinates": [
					[121.4336972, 25.0284124],
					[121.446775352125982, 25.033240207503649]
				]
			}
		},
		{
			"type": "Feature",
			"properties": {
				"hotel_name": "月圓汽車旅館",
				"biz_area": "新北市板橋區府中商圈",
				"min_price": 1380.0,
				"price_color": "#1a9850"
			},
			"geometry": {
				"type": "LineString",
				"coordinates": [
					[121.417222, 24.9734399],
					[121.4558267068319, 25.006486697835076]
				]
			}
		},
		{
			"type": "Feature",
			"properties": {
				"hotel_name": "新八里汽車旅館",
				"biz_area": "新北市八里區左岸觀光商圈",
				"min_price": 3440.0,
				"price_color": "#fee08b"
			},
			"geometry": {
				"type": "LineString",
				"coordinates": [
					[121.451993, 25.124454],
					[121.433303321985221, 25.157176138522004]
				]
			}
		},
		{
			"type": "Feature",
			"properties": {
				"hotel_name": "金莎旗艦汽車旅館",
				"biz_area": "新北市三峽民權老街商圈",
				"min_price": 6980.0,
				"price_color": "#d73027"
			},
			"geometry": {
				"type": "LineString",
				"coordinates": [
					[121.378884, 24.944468],
					[121.373394602590508, 24.937323494139573]
				]
			}
		},
		{
			"type": "Feature",
			"properties": {
				"hotel_name": "莫瑞納海灣會館",
				"biz_area": "新北市雙溪低碳商圈",
				"min_price": 6500.0,
				"price_color": "#d73027"
			},
			"geometry": {
				"type": "LineString",
				"coordinates": [
					[121.929664, 25.053531],
					[121.863852147019784, 25.039218005222605]
				]
			}
		},
		{
			"type": "Feature",
			"properties": {
				"hotel_name": "雅緹汽車旅館",
				"biz_area": "新北市新莊廟街商圈",
				"min_price": 5900.0,
				"price_color": "#d73027"
			},
			"geometry": {
				"type": "LineString",
				"coordinates": [
					[121.460677, 25.0443789],
					[121.454963371189521, 25.037828262769555]
				]
			}
		},
		{
			"type": "Feature",
			"properties": {
				"hotel_name": "美芙精品旅館",
				"biz_area": "新北市板橋區新板商圈",
				"min_price": 3980.0,
				"price_color": "#fee08b"
			},
			"geometry": {
				"type": "LineString",
				"coordinates": [
					[121.4809741, 25.0101816],
					[121.470456117772088, 25.011760814806884]
				]
			}
		},
		{
			"type": "Feature",
			"properties": {
				"hotel_name": "Q汽車旅館",
				"biz_area": "新北市板橋區府中商圈",
				"min_price": 5500.0,
				"price_color": "#d73027"
			},
			"geometry": {
				"type": "LineString",
				"coordinates": [
					[121.444601, 24.98979],
					[121.456521150881102, 25.005868122891979]
				]
			}
		},
		{
			"type": "Feature",
			"properties": {
				"hotel_name": "海灣假日酒店",
				"biz_area": "新北市深坑商圈",
				"min_price": 8000.0,
				"price_color": "#d73027"
			},
			"geometry": {
				"type": "LineString",
				"coordinates": [
					[121.5990502, 25.0044941],
					[121.612839096257858, 24.992328145090372]
				]
			}
		},
		{
			"type": "Feature",
			"properties": {
				"hotel_name": "艾蔓精緻旅館-土城館",
				"biz_area": "新北市板橋區府中商圈",
				"min_price": 4300.0,
				"price_color": "#fc8d59"
			},
			"geometry": {
				"type": "LineString",
				"coordinates": [
					[121.4375887, 24.9769637],
					[121.456619793309642, 25.005803028683911]
				]
			}
		},
		{
			"type": "Feature",
			"properties": {
				"hotel_name": "薇城精緻旅店",
				"biz_area": "新北市三重碧華布街商圈",
				"min_price": 1380.0,
				"price_color": "#1a9850"
			},
			"geometry": {
				"type": "LineString",
				"coordinates": [
					[121.498171, 25.062548],
					[121.492242132376518, 25.075923739957968]
				]
			}
		},
		{
			"type": "Feature",
			"properties": {
				"hotel_name": "唯愛汽車旅館",
				"biz_area": "新北市中和華新街商圈",
				"min_price": 4980.0,
				"price_color": "#fc8d59"
			},
			"geometry": {
				"type": "LineString",
				"coordinates": [
					[121.531446, 24.954004],
					[121.511283920196462, 24.980642079089989]
				]
			}
		},
		{
			"type": "Feature",
			"properties": {
				"hotel_name": "美麗殿精品汽車旅館",
				"biz_area": "新北市板橋區新板商圈",
				"min_price": 8888.0,
				"price_color": "#d73027"
			},
			"geometry": {
				"type": "LineString",
				"coordinates": [
					[121.487976, 25.006308],
					[121.470296572464804, 25.011018526187815]
				]
			}
		},
		{
			"type": "Feature",
			"properties": {
				"hotel_name": "慕朵微風時尚休閒汽車旅館",
				"biz_area": "新北市板橋區府中商圈",
				"min_price": 3280.0,
				"price_color": "#fee08b"
			},
			"geometry": {
				"type": "LineString",
				"coordinates": [
					[121.4171343, 25.0061048],
					[121.454695894276554, 25.008896409424864]
				]
			}
		},
		{
			"type": "Feature",
			"properties": {
				"hotel_name": "挪威森林頂級汽車旅館",
				"biz_area": "新北市板橋區府中商圈",
				"min_price": 20000.0,
				"price_color": "#d73027"
			},
			"geometry": {
				"type": "LineString",
				"coordinates": [
					[121.460704, 24.993067],
					[121.46005151651552, 25.00489679229274]
				]
			}
		},
		{
			"type": "Feature",
			"properties": {
				"hotel_name": "貝爾頌精緻汽車旅館",
				"biz_area": "新北市板橋區府中商圈",
				"min_price": 2900.0,
				"price_color": "#91cf60"
			},
			"geometry": {
				"type": "LineString",
				"coordinates": [
					[121.4187769, 25.0066047],
					[121.454689567238034, 25.008991604208209]
				]
			}
		},
		{
			"type": "Feature",
			"properties": {
				"hotel_name": "金湧泉溫泉會館",
				"biz_area": "新北市金山商圈",
				"min_price": 6200.0,
				"price_color": "#d73027"
			},
			"geometry": {
				"type": "LineString",
				"coordinates": [
					[121.643152, 25.216053],
					[121.641504118021572, 25.218444636876448]
				]
			}
		},
		{
			"type": "Feature",
			"properties": {
				"hotel_name": "悅池精品旅館",
				"biz_area": "新北市板橋區新板商圈",
				"min_price": 3980.0,
				"price_color": "#fee08b"
			},
			"geometry": {
				"type": "LineString",
				"coordinates": [
					[121.4833081, 25.009619],
					[121.470424964960074, 25.011553328959042]
				]
			}
		},
		{
			"type": "Feature",
			"properties": {
				"hotel_name": "君迪商旅",
				"biz_area": "新北市中和華新街商圈",
				"min_price": 4600.0,
				"price_color": "#fc8d59"
			},
			"geometry": {
				"type": "LineString",
				"coordinates": [
					[121.4847931, 24.9939553],
					[121.503503486210974, 24.985781489909819]
				]
			}
		},
		{
			"type": "Feature",
			"properties": {
				"hotel_name": "大板根太子會館",
				"biz_area": "新北市三峽民權老街商圈",
				"min_price": 8140.0,
				"price_color": "#d73027"
			},
			"geometry": {
				"type": "LineString",
				"coordinates": [
					[121.407251, 24.870591],
					[121.373099500672552, 24.93007699949229]
				]
			}
		},
		{
			"type": "Feature",
			"properties": {
				"hotel_name": "有馬溫泉MOTEL",
				"biz_area": "新北市板橋區府中商圈",
				"min_price": 2580.0,
				"price_color": "#91cf60"
			},
			"geometry": {
				"type": "LineString",
				"coordinates": [
					[121.439199, 24.97144],
					[121.457279837343862, 25.005414071363564]
				]
			}
		},
		{
			"type": "Feature",
			"properties": {
				"hotel_name": "芬多精加香汽車旅館",
				"biz_area": "新北市深坑商圈",
				"min_price": 3580.0,
				"price_color": "#fee08b"
			},
			"geometry": {
				"type": "LineString",
				"coordinates": [
					[121.6363737, 25.0622109],
					[121.618089488532988, 24.993833211641352]
				]
			}
		},
		{
			"type": "Feature",
			"properties": {
				"hotel_name": "慾望精緻汽車旅館",
				"biz_area": "新北市深坑商圈",
				"min_price": 10000.0,
				"price_color": "#d73027"
			},
			"geometry": {
				"type": "LineString",
				"coordinates": [
					[121.630749, 25.054608],
					[121.61761676481143, 24.993936472335196]
				]
			}
		},
		{
			"type": "Feature",
			"properties": {
				"hotel_name": "挪威森林精品SPA汽車旅館",
				"biz_area": "新北市中和華新街商圈",
				"min_price": 20000.0,
				"price_color": "#d73027"
			},
			"geometry": {
				"type": "LineString",
				"coordinates": [
					[121.5507933, 24.9808276],
					[121.513034080809632, 24.983706882931635]
				]
			}
		},
		{
			"type": "Feature",
			"properties": {
				"hotel_name": "雪?花園汽車旅館",
				"biz_area": "新北市板橋區府中商圈",
				"min_price": 1580.0,
				"price_color": "#1a9850"
			},
			"geometry": {
				"type": "LineString",
				"coordinates": [
					[121.436956, 24.971006],
					[121.456914886756337, 25.005608296310609]
				]
			}
		},
		{
			"type": "Feature",
			"properties": {
				"hotel_name": "富悅渡假休閒旅館",
				"biz_area": "新北市淡水區商圈",
				"min_price": 7000.0,
				"price_color": "#d73027"
			},
			"geometry": {
				"type": "LineString",
				"coordinates": [
					[121.420339, 25.183911],
					[121.434793917381427, 25.173502145532776]
				]
			}
		},
		{
			"type": "Feature",
			"properties": {
				"hotel_name": "金國旅社",
				"biz_area": "新北市三重碧華布街商圈",
				"min_price": 900.0,
				"price_color": "#1a9850"
			},
			"geometry": {
				"type": "LineString",
				"coordinates": [
					[121.497388, 25.062499],
					[121.491847835096024, 25.075748965598738]
				]
			}
		},
		{
			"type": "Feature",
			"properties": {
				"hotel_name": "九閣商旅",
				"biz_area": "新北市中和華新街商圈",
				"min_price": 6000.0,
				"price_color": "#d73027"
			},
			"geometry": {
				"type": "LineString",
				"coordinates": [
					[121.5291849, 24.9725868],
					[121.512493413718829, 24.982015830450695]
				]
			}
		},
		{
			"type": "Feature",
			"properties": {
				"hotel_name": "福容大飯店 台北二館",
				"biz_area": "新北市深坑商圈",
				"min_price": 6050.0,
				"price_color": "#d73027"
			},
			"geometry": {
				"type": "LineString",
				"coordinates": [
					[121.600619, 25.004084],
					[121.612839096257858, 24.992328145090372]
				]
			}
		},
		{
			"type": "Feature",
			"properties": {
				"hotel_name": "翰品酒店",
				"biz_area": "新北市新莊廟街商圈",
				"min_price": 5800.0,
				"price_color": "#d73027"
			},
			"geometry": {
				"type": "LineString",
				"coordinates": [
					[121.458087, 25.037679],
					[121.455965031368279, 25.03654470703993]
				]
			}
		},
		{
			"type": "Feature",
			"properties": {
				"hotel_name": "歐悅精品汽車旅館-林口館",
				"biz_area": "新北市林口建成商圈",
				"min_price": 15800.0,
				"price_color": "#d73027"
			},
			"geometry": {
				"type": "LineString",
				"coordinates": [
					[121.374467, 25.081484],
					[121.384740146222455, 25.078758708318382]
				]
			}
		},
		{
			"type": "Feature",
			"properties": {
				"hotel_name": "白宮行館",
				"biz_area": "新北市萬里商圈",
				"min_price": 12000.0,
				"price_color": "#d73027"
			},
			"geometry": {
				"type": "LineString",
				"coordinates": [
					[121.690402, 25.180397],
					[121.691364742685039, 25.183447128155311]
				]
			}
		},
		{
			"type": "Feature",
			"properties": {
				"hotel_name": "金湯溫泉會館",
				"biz_area": "新北市金山商圈",
				"min_price": 3420.0,
				"price_color": "#fee08b"
			},
			"geometry": {
				"type": "LineString",
				"coordinates": [
					[121.6442351, 25.2149574],
					[121.641726672458347, 25.218597980993692]
				]
			}
		},
		{
			"type": "Feature",
			"properties": {
				"hotel_name": "府中棧精品商旅",
				"biz_area": "新北市板橋區新板商圈",
				"min_price": 5500.0,
				"price_color": "#d73027"
			},
			"geometry": {
				"type": "LineString",
				"coordinates": [
					[121.459856, 25.009502],
					[121.461151254041326, 25.010194138524867]
				]
			}
		},
		{
			"type": "Feature",
			"properties": {
				"hotel_name": "美麗海精品汽車旅館",
				"biz_area": "新北市蘆洲區商圈",
				"min_price": 11180.0,
				"price_color": "#d73027"
			},
			"geometry": {
				"type": "LineString",
				"coordinates": [
					[121.4620831, 25.060504],
					[121.477749769416562, 25.077269278141831]
				]
			}
		},
		{
			"type": "Feature",
			"properties": {
				"hotel_name": "遠東金山海灣溫泉HOTEL",
				"biz_area": "新北市金山商圈",
				"min_price": 5200.0,
				"price_color": "#d73027"
			},
			"geometry": {
				"type": "LineString",
				"coordinates": [
					[121.646519, 25.229704],
					[121.642143752500829, 25.225255224706107]
				]
			}
		},
		{
			"type": "Feature",
			"properties": {
				"hotel_name": "矽谷溫泉會館",
				"biz_area": "新北市中和華新街商圈",
				"min_price": 3000.0,
				"price_color": "#fee08b"
			},
			"geometry": {
				"type": "LineString",
				"coordinates": [
					[121.5335311, 24.982458],
					[121.513034080809632, 24.983706882931635]
				]
			}
		},
		{
			"type": "Feature",
			"properties": {
				"hotel_name": "成旅晶贊飯店台北蘆洲",
				"biz_area": "新北市蘆洲區商圈",
				"min_price": 7200.0,
				"price_color": "#d73027"
			},
			"geometry": {
				"type": "LineString",
				"coordinates": [
					[121.480455, 25.080429],
					[121.477269615656255, 25.077773423406235]
				]
			}
		},
		{
			"type": "Feature",
			"properties": {
				"hotel_name": "集璦飯店",
				"biz_area": "新北市板橋區新板商圈",
				"min_price": 10000.0,
				"price_color": "#d73027"
			},
			"geometry": {
				"type": "LineString",
				"coordinates": [
					[121.485301, 25.000404],
					[121.469935090237911, 25.010197176609871]
				]
			}
		},
		{
			"type": "Feature",
			"properties": {
				"hotel_name": "台北集賢商旅",
				"biz_area": "新北市蘆洲區商圈",
				"min_price": 6000.0,
				"price_color": "#d73027"
			},
			"geometry": {
				"type": "LineString",
				"coordinates": [
					[121.4806581, 25.0831617],
					[121.480398624558902, 25.084944145009171]
				]
			}
		},
		{
			"type": "Feature",
			"properties": {
				"hotel_name": "藍色水岸海景旅店",
				"biz_area": "新北市淡水區商圈",
				"min_price": 8000.0,
				"price_color": "#d73027"
			},
			"geometry": {
				"type": "LineString",
				"coordinates": [
					[121.43819, 25.172761],
					[121.437332627625409, 25.175300847441747]
				]
			}
		},
		{
			"type": "Feature",
			"properties": {
				"hotel_name": "承億文旅 淡水吹風",
				"biz_area": "新北市淡水區商圈",
				"min_price": 6000.0,
				"price_color": "#d73027"
			},
			"geometry": {
				"type": "LineString",
				"coordinates": [
					[121.420512, 25.180962],
					[121.434548527767987, 25.173119560544983]
				]
			}
		},
		{
			"type": "Feature",
			"properties": {
				"hotel_name": "沃客商旅-正義館",
				"biz_area": "新北市三重碧華布街商圈",
				"min_price": 14800.0,
				"price_color": "#d73027"
			},
			"geometry": {
				"type": "LineString",
				"coordinates": [
					[121.498227, 25.060405],
					[121.491847835096024, 25.075748965598738]
				]
			}
		},
		{
			"type": "Feature",
			"properties": {
				"hotel_name": "歐朋侖旅店",
				"biz_area": "新北市淡水區商圈",
				"min_price": 2500.0,
				"price_color": "#91cf60"
			},
			"geometry": {
				"type": "LineString",
				"coordinates": [
					[121.442302, 25.170475],
					[121.443793368417815, 25.170084571915591]
				]
			}
		},
		{
			"type": "Feature",
			"properties": {
				"hotel_name": "清翼居旅店",
				"biz_area": "新北市板橋區府中商圈",
				"min_price": 7000.0,
				"price_color": "#d73027"
			},
			"geometry": {
				"type": "LineString",
				"coordinates": [
					[121.460461, 25.007125],
					[121.460957891490622, 25.005048531096072]
				]
			}
		},
		{
			"type": "Feature",
			"properties": {
				"hotel_name": "美麗心精品汽車旅館",
				"biz_area": "新北市新莊廟街商圈",
				"min_price": 1280.0,
				"price_color": "#1a9850"
			},
			"geometry": {
				"type": "LineString",
				"coordinates": [
					[121.432931, 25.018673],
					[121.447706168974435, 25.031696471970694]
				]
			}
		},
		{
			"type": "Feature",
			"properties": {
				"hotel_name": "富士大飯店",
				"biz_area": "新北市深坑商圈",
				"min_price": 13200.0,
				"price_color": "#d73027"
			},
			"geometry": {
				"type": "LineString",
				"coordinates": [
					[121.6286358, 25.0544102],
					[121.61761676481143, 24.993936472335196]
				]
			}
		},
		{
			"type": "Feature",
			"properties": {
				"hotel_name": "雅歌會館",
				"biz_area": "新北市淡水區商圈",
				"min_price": 5000.0,
				"price_color": "#d73027"
			},
			"geometry": {
				"type": "LineString",
				"coordinates": [
					[121.447946, 25.169145],
					[121.443825848708542, 25.170208641063585]
				]
			}
		},
		{
			"type": "Feature",
			"properties": {
				"hotel_name": "薆悅酒店野柳渡假館二館",
				"biz_area": "新北市萬里商圈",
				"min_price": 9680.0,
				"price_color": "#d73027"
			},
			"geometry": {
				"type": "LineString",
				"coordinates": [
					[121.690128, 25.204291],
					[121.689651718359457, 25.183714249625151]
				]
			}
		},
		{
			"type": "Feature",
			"properties": {
				"hotel_name": "悅客商務飯店",
				"biz_area": "新北市板橋區江子翠商圈",
				"min_price": 6000.0,
				"price_color": "#d73027"
			},
			"geometry": {
				"type": "LineString",
				"coordinates": [
					[121.479499, 25.021378],
					[121.469267098598934, 25.024239586059981]
				]
			}
		},
		{
			"type": "Feature",
			"properties": {
				"hotel_name": "探索汽車旅館中和館",
				"biz_area": "新北市板橋區新板商圈",
				"min_price": 3580.0,
				"price_color": "#fee08b"
			},
			"geometry": {
				"type": "LineString",
				"coordinates": [
					[121.485894, 24.999059],
					[121.469689884425989, 25.009814651995057]
				]
			}
		},
		{
			"type": "Feature",
			"properties": {
				"hotel_name": "薆悅酒店野柳渡假館一館",
				"biz_area": "新北市萬里商圈",
				"min_price": 14080.0,
				"price_color": "#d73027"
			},
			"geometry": {
				"type": "LineString",
				"coordinates": [
					[121.690337, 25.204077],
					[121.689651718359457, 25.183714249625151]
				]
			}
		},
		{
			"type": "Feature",
			"properties": {
				"hotel_name": "美麗殿商旅",
				"biz_area": "新北市板橋區新板商圈",
				"min_price": 3600.0,
				"price_color": "#fee08b"
			},
			"geometry": {
				"type": "LineString",
				"coordinates": [
					[121.4580337, 25.0092954],
					[121.460984980332142, 25.010505299782412]
				]
			}
		},
		{
			"type": "Feature",
			"properties": {
				"hotel_name": "清翼居旅店海洋館",
				"biz_area": "新北市板橋區府中商圈",
				"min_price": 6500.0,
				"price_color": "#d73027"
			},
			"geometry": {
				"type": "LineString",
				"coordinates": [
					[121.461804, 25.005156],
					[121.461734217990298, 25.005313261647725]
				]
			}
		},
		{
			"type": "Feature",
			"properties": {
				"hotel_name": "葛瑞絲商旅",
				"biz_area": "新北市中和華新街商圈",
				"min_price": 4800.0,
				"price_color": "#fc8d59"
			},
			"geometry": {
				"type": "LineString",
				"coordinates": [
					[121.499102, 25.003007],
					[121.505728622390393, 24.988062627057225]
				]
			}
		},
		{
			"type": "Feature",
			"properties": {
				"hotel_name": "SINGLEINN 單人房-台北館",
				"biz_area": "新北市板橋區新板商圈",
				"min_price": 2800.0,
				"price_color": "#91cf60"
			},
			"geometry": {
				"type": "LineString",
				"coordinates": [
					[121.458935, 25.010383],
					[121.460814848513806, 25.010924721981432]
				]
			}
		},
		{
			"type": "Feature",
			"properties": {
				"hotel_name": "麗京棧酒店",
				"biz_area": "新北市新莊廟街商圈",
				"min_price": 6600.0,
				"price_color": "#d73027"
			},
			"geometry": {
				"type": "LineString",
				"coordinates": [
					[121.41914, 25.032065],
					[121.446574941735562, 25.034106095144796]
				]
			}
		},
		{
			"type": "Feature",
			"properties": {
				"hotel_name": "熊旅溫泉飯店",
				"biz_area": "新北市三峽民權老街商圈",
				"min_price": 9000.0,
				"price_color": "#d73027"
			},
			"geometry": {
				"type": "LineString",
				"coordinates": [
					[121.3725414, 24.9467525],
					[121.371207542074444, 24.938237580641644]
				]
			}
		},
		{
			"type": "Feature",
			"properties": {
				"hotel_name": "白金花園酒店",
				"biz_area": "新北市中和華新街商圈",
				"min_price": 6000.0,
				"price_color": "#d73027"
			},
			"geometry": {
				"type": "LineString",
				"coordinates": [
					[121.515578, 24.975192],
					[121.511283920196462, 24.980642079089989]
				]
			}
		},
		{
			"type": "Feature",
			"properties": {
				"hotel_name": "紅浮浮逸旅館",
				"biz_area": "新北市永和中興街韓國商圈",
				"min_price": 1680.0,
				"price_color": "#1a9850"
			},
			"geometry": {
				"type": "LineString",
				"coordinates": [
					[121.5060771, 25.0063031],
					[121.515337107322793, 25.010443929150952]
				]
			}
		},
		{
			"type": "Feature",
			"properties": {
				"hotel_name": "黑熊好眠站",
				"biz_area": "新北市板橋區府中商圈",
				"min_price": 20000.0,
				"price_color": "#d73027"
			},
			"geometry": {
				"type": "LineString",
				"coordinates": [
					[121.4565846, 25.005939],
					[121.456532768872222, 25.005860456171455]
				]
			}
		},
		{
			"type": "Feature",
			"properties": {
				"hotel_name": "幸福讚精品飯店",
				"biz_area": "新北市新莊廟街商圈",
				"min_price": 3990.0,
				"price_color": "#fee08b"
			},
			"geometry": {
				"type": "LineString",
				"coordinates": [
					[121.4611437, 25.0509884],
					[121.454205526081523, 25.038381810585626]
				]
			}
		},
		{
			"type": "Feature",
			"properties": {
				"hotel_name": "板橋王旅館",
				"biz_area": "新北市板橋區府中商圈",
				"min_price": 2500.0,
				"price_color": "#91cf60"
			},
			"geometry": {
				"type": "LineString",
				"coordinates": [
					[121.457245, 25.008131],
					[121.455469651007746, 25.006932895225635]
				]
			}
		},
		{
			"type": "Feature",
			"properties": {
				"hotel_name": "台北輕旅複合式旅店",
				"biz_area": "新北市板橋區府中商圈",
				"min_price": 780.0,
				"price_color": "#1a9850"
			},
			"geometry": {
				"type": "LineString",
				"coordinates": [
					[121.459878, 25.007172],
					[121.46000363691094, 25.004894151447456]
				]
			}
		},
		{
			"type": "Feature",
			"properties": {
				"hotel_name": "樂頤飯店",
				"biz_area": "新北市蘆洲區商圈",
				"min_price": 5600.0,
				"price_color": "#d73027"
			},
			"geometry": {
				"type": "LineString",
				"coordinates": [
					[121.4799862, 25.0820839],
					[121.478699843241841, 25.084381456478258]
				]
			}
		},
		{
			"type": "Feature",
			"properties": {
				"hotel_name": "歐遊國際連鎖精品旅館",
				"biz_area": "新北市新莊廟街商圈",
				"min_price": 6600.0,
				"price_color": "#d73027"
			},
			"geometry": {
				"type": "LineString",
				"coordinates": [
					[121.460103, 25.059801],
					[121.45334369989537, 25.038790021606705]
				]
			}
		},
		{
			"type": "Feature",
			"properties": {
				"hotel_name": "晶贊都會旅店台北永和",
				"biz_area": "新北市永和中興街韓國商圈",
				"min_price": 4200.0,
				"price_color": "#fc8d59"
			},
			"geometry": {
				"type": "LineString",
				"coordinates": [
					[121.5154175, 25.0128522],
					[121.515003571609967, 25.012914501571164]
				]
			}
		},
		{
			"type": "Feature",
			"properties": {
				"hotel_name": "富信大飯店",
				"biz_area": "新北市深坑商圈",
				"min_price": 5000.0,
				"price_color": "#d73027"
			},
			"geometry": {
				"type": "LineString",
				"coordinates": [
					[121.6298303, 25.0554328],
					[121.61761676481143, 24.993936472335196]
				]
			}
		},
		{
			"type": "Feature",
			"properties": {
				"hotel_name": "蘊泉庄(鴻寬)",
				"biz_area": "新北市淡水區商圈",
				"min_price": 22800.0,
				"price_color": "#d73027"
			},
			"geometry": {
				"type": "LineString",
				"coordinates": [
					[121.454358, 25.161639],
					[121.443234604862553, 25.168774338856057]
				]
			}
		},
		{
			"type": "Feature",
			"properties": {
				"hotel_name": "睡台北複合式旅店",
				"biz_area": "新北市板橋區府中商圈",
				"min_price": 15000.0,
				"price_color": "#d73027"
			},
			"geometry": {
				"type": "LineString",
				"coordinates": [
					[121.455904, 25.006623],
					[121.455791352864253, 25.006529118646515]
				]
			}
		},
		{
			"type": "Feature",
			"properties": {
				"hotel_name": "TS MOTEL（鼎帥?泉汽車旅館)",
				"biz_area": "新北市金山商圈",
				"min_price": 5000.0,
				"price_color": "#d73027"
			},
			"geometry": {
				"type": "LineString",
				"coordinates": [
					[121.638557, 25.219365],
					[121.638494108108091, 25.217591404808839]
				]
			}
		},
		{
			"type": "Feature",
			"properties": {
				"hotel_name": "台北旅人國際青年旅館",
				"biz_area": "新北市淡水區商圈",
				"min_price": 3800.0,
				"price_color": "#fee08b"
			},
			"geometry": {
				"type": "LineString",
				"coordinates": [
					[121.438965, 25.171674],
					[121.439097139761202, 25.175544771343304]
				]
			}
		},
		{
			"type": "Feature",
			"properties": {
				"hotel_name": "慶城商旅 Urbanone Hotel",
				"biz_area": "新北市三重碧華布街商圈",
				"min_price": 4980.0,
				"price_color": "#fc8d59"
			},
			"geometry": {
				"type": "LineString",
				"coordinates": [
					[121.497863, 25.06068],
					[121.491847835096024, 25.075748965598738]
				]
			}
		},
		{
			"type": "Feature",
			"properties": {
				"hotel_name": "大埔硫磺溫泉商務旅?",
				"biz_area": "新北市金山商圈",
				"min_price": 2980.0,
				"price_color": "#91cf60"
			},
			"geometry": {
				"type": "LineString",
				"coordinates": [
					[121.64323, 25.21591],
					[121.64149019722791, 25.218435045192521]
				]
			}
		},
		{
			"type": "Feature",
			"properties": {
				"hotel_name": "趣淘漫旅-台北 Hotel Cham Cham Taipei",
				"biz_area": "新北市板橋區府中商圈",
				"min_price": 10000.0,
				"price_color": "#d73027"
			},
			"geometry": {
				"type": "LineString",
				"coordinates": [
					[121.463462, 25.011262],
					[121.463945231662791, 25.011588080412007]
				]
			}
		},
		{
			"type": "Feature",
			"properties": {
				"hotel_name": "丹鳳大旅館",
				"biz_area": "新北市新莊廟街商圈",
				"min_price": 3800.0,
				"price_color": "#fee08b"
			},
			"geometry": {
				"type": "LineString",
				"coordinates": [
					[121.414588, 25.023197],
					[121.446775352125982, 25.033240207503649]
				]
			}
		},
		{
			"type": "Feature",
			"properties": {
				"hotel_name": "少爺時尚旅館",
				"biz_area": "新北市石碇觀光商圈",
				"min_price": 4800.0,
				"price_color": "#fc8d59"
			},
			"geometry": {
				"type": "LineString",
				"coordinates": [
					[121.660383, 25.062104],
					[121.662420136247874, 24.99473431474485]
				]
			}
		},
		{
			"type": "Feature",
			"properties": {
				"hotel_name": "品川商旅",
				"biz_area": "新北市板橋區府中商圈",
				"min_price": 18000.0,
				"price_color": "#d73027"
			},
			"geometry": {
				"type": "LineString",
				"coordinates": [
					[121.460825, 25.006011],
					[121.461050038719591, 25.005070581594332]
				]
			}
		},
		{
			"type": "Feature",
			"properties": {
				"hotel_name": "富裕自由旅店正義館",
				"biz_area": "新北市永和中興街韓國商圈",
				"min_price": 20000.0,
				"price_color": "#d73027"
			},
			"geometry": {
				"type": "LineString",
				"coordinates": [
					[121.533012, 25.042385],
					[121.522072016131801, 25.01626669746182]
				]
			}
		},
		{
			"type": "Feature",
			"properties": {
				"hotel_name": "亞昕福朋喜來登酒店",
				"biz_area": "新北市林口建成商圈",
				"min_price": 18000.0,
				"price_color": "#d73027"
			},
			"geometry": {
				"type": "LineString",
				"coordinates": [
					[121.36098, 25.06618],
					[121.384864174631659, 25.075918347081362]
				]
			}
		},
		{
			"type": "Feature",
			"properties": {
				"hotel_name": "驛德世紀酒店",
				"biz_area": "新北市新莊廟街商圈",
				"min_price": 5200.0,
				"price_color": "#d73027"
			},
			"geometry": {
				"type": "LineString",
				"coordinates": [
					[121.432168, 25.028475],
					[121.446775352125982, 25.033240207503649]
				]
			}
		},
		{
			"type": "Feature",
			"properties": {
				"hotel_name": "台北新板希爾頓酒店",
				"biz_area": "新北市板橋區新板商圈",
				"min_price": 4500.0,
				"price_color": "#fc8d59"
			},
			"geometry": {
				"type": "LineString",
				"coordinates": [
					[121.460801, 25.0120576],
					[121.460598637793311, 25.012044159319778]
				]
			}
		},
		{
			"type": "Feature",
			"properties": {
				"hotel_name": "三重江月行館",
				"biz_area": "新北市板橋區江子翠商圈",
				"min_price": 6000.0,
				"price_color": "#d73027"
			},
			"geometry": {
				"type": "LineString",
				"coordinates": [
					[121.469293, 25.04517],
					[121.465894402961112, 25.029835387691652]
				]
			}
		},
		{
			"type": "Feature",
			"properties": {
				"hotel_name": "雀客快捷",
				"biz_area": "新北市淡水區商圈",
				"min_price": 22000.0,
				"price_color": "#d73027"
			},
			"geometry": {
				"type": "LineString",
				"coordinates": [
					[121.4446987, 25.1692679],
					[121.44366786173785, 25.169658492216954]
				]
			}
		},
		{
			"type": "Feature",
			"properties": {
				"hotel_name": "捷絲旅台北三重館",
				"biz_area": "新北市三重碧華布街商圈",
				"min_price": 7700.0,
				"price_color": "#d73027"
			},
			"geometry": {
				"type": "LineString",
				"coordinates": [
					[121.487504, 25.077409],
					[121.486722203675072, 25.076440311876436]
				]
			}
		},
		{
			"type": "Feature",
			"properties": {
				"hotel_name": "雀客旅館新北蘆洲",
				"biz_area": "新北市蘆洲區商圈",
				"min_price": 7600.0,
				"price_color": "#d73027"
			},
			"geometry": {
				"type": "LineString",
				"coordinates": [
					[121.480537, 25.081309],
					[121.479091248000216, 25.084570074458728]
				]
			}
		},
		{
			"type": "Feature",
			"properties": {
				"hotel_name": "將捷金鬱金香酒店",
				"biz_area": "新北市淡水區商圈",
				"min_price": 10560.0,
				"price_color": "#d73027"
			},
			"geometry": {
				"type": "LineString",
				"coordinates": [
					[121.4288468, 25.1756671],
					[121.434417010082996, 25.172858706392265]
				]
			}
		},
		{
			"type": "Feature",
			"properties": {
				"hotel_name": "私客創旅",
				"biz_area": "新北市鶯歌區陶瓷藝術商圈",
				"min_price": 2560.0,
				"price_color": "#91cf60"
			},
			"geometry": {
				"type": "LineString",
				"coordinates": [
					[121.347625, 24.9509759],
					[121.345343548870005, 24.950573478093553]
				]
			}
		},
		{
			"type": "Feature",
			"properties": {
				"hotel_name": "帝景飯店",
				"biz_area": "新北市中和華新街商圈",
				"min_price": 7650.0,
				"price_color": "#d73027"
			},
			"geometry": {
				"type": "LineString",
				"coordinates": [
					[121.5343286, 24.9574561],
					[121.511640450165373, 24.980943172113655]
				]
			}
		},
		{
			"type": "Feature",
			"properties": {
				"hotel_name": "傑仕堡有氧酒店",
				"biz_area": "新北市板橋區新板商圈",
				"min_price": 9900.0,
				"price_color": "#d73027"
			},
			"geometry": {
				"type": "LineString",
				"coordinates": [
					[121.46958, 25.01808],
					[121.468247187415514, 25.016060463287943]
				]
			}
		},
		{
			"type": "Feature",
			"properties": {
				"hotel_name": "東暘旅店",
				"biz_area": "新北市鶯歌區陶瓷藝術商圈",
				"min_price": 16800.0,
				"price_color": "#d73027"
			},
			"geometry": {
				"type": "LineString",
				"coordinates": [
					[118.363273, 24.459312],
					[121.345292847059866, 24.950860921943313]
				]
			}
		},
		{
			"type": "Feature",
			"properties": {
				"hotel_name": "淡水淶滬文旅",
				"biz_area": "新北市淡水區商圈",
				"min_price": 7000.0,
				"price_color": "#d73027"
			},
			"geometry": {
				"type": "LineString",
				"coordinates": [
					[121.4511082, 25.1652276],
					[121.443424799610042, 25.169102003257002]
				]
			}
		},
		{
			"type": "Feature",
			"properties": {
				"hotel_name": "雀客藏居新北三重水漾",
				"biz_area": "新北市蘆洲區商圈",
				"min_price": 25080.0,
				"price_color": "#d73027"
			},
			"geometry": {
				"type": "LineString",
				"coordinates": [
					[121.4832322, 25.0556913],
					[121.481756226123665, 25.076009801379257]
				]
			}
		},
		{
			"type": "Feature",
			"properties": {
				"hotel_name": "富碧酒店公寓",
				"biz_area": "新北市林口建成商圈",
				"min_price": 18800.0,
				"price_color": "#d73027"
			},
			"geometry": {
				"type": "LineString",
				"coordinates": [
					[121.375381, 25.0770812],
					[121.384543935449642, 25.077446128338451]
				]
			}
		},
		{
			"type": "Feature",
			"properties": {
				"hotel_name": "新北新莊凱悅嘉軒酒店",
				"biz_area": "新北市新莊廟街商圈",
				"min_price": 8800.0,
				"price_color": "#d73027"
			},
			"geometry": {
				"type": "LineString",
				"coordinates": [
					[121.454218, 25.060113],
					[121.45192923250282, 25.039097193172108]
				]
			}
		},
		{
			"type": "Feature",
			"properties": {
				"hotel_name": "新北林口爵怡溫德姆酒店",
				"biz_area": "新北市林口建成商圈",
				"min_price": 11800.0,
				"price_color": "#d73027"
			},
			"geometry": {
				"type": "LineString",
				"coordinates": [
					[121.3604842, 25.0655261],
					[121.38494385753124, 25.075722917582606]
				]
			}
		},
		{
			"type": "Feature",
			"properties": {
				"hotel_name": "新城九八精緻旅館",
				"biz_area": "新北市蘆洲區商圈",
				"min_price": 4680.0,
				"price_color": "#fc8d59"
			},
			"geometry": {
				"type": "LineString",
				"coordinates": [
					[121.4461377, 25.0913756],
					[121.476455795996515, 25.081758690671379]
				]
			}
		},
		{
			"type": "Feature",
			"properties": {
				"hotel_name": "陽明山家新休閒君鈺會館",
				"biz_area": "新北市金山商圈",
				"min_price": 12800.0,
				"price_color": "#d73027"
			},
			"geometry": {
				"type": "LineString",
				"coordinates": [
					[121.5973, 25.2059],
					[121.633866069714045, 25.220745254115851]
				]
			}
		}
	]
}
