{
"type": "FeatureCollection",
"crs": { "type": "name", "properties": { "name": "urn:ogc:def:crs:OGC:1.3:CRS84" } },
"features": [
{ "type": "Feature", "properties": { "hotel_name": "碧潭飯店", "biz_area": "新北市中和華新街商圈", "min_price": 4280.0, "price_color": "#fc8d59" }, "geometry": { "type": "LineString", "coordinates": [ [ 121.534224, 24.958425 ], [ 121.511640450165373, 24.980943172113655 ] ] } },
{ "type": "Feature", "properties": { "hotel_name": "長緹海景飯店", "biz_area": "新北市淡水區商圈", "min_price": 3000.0, "price_color": "#fee08b" }, "geometry": { "type": "LineString", "coordinates": [ [ 121.420539, 25.184061 ], [ 121.434793917381427, 25.173502145532776 ] ] } },
{ "type": "Feature", "properties": { "hotel_name": "冠君大飯店", "biz_area": "新北市板橋區府中商圈", "min_price": 3800.0, "price_color": "#fee08b" }, "geometry": { "type": "LineString", "coordinates": [ [ 121.4620706, 25.0061414 ], [ 121.462356826611583, 25.005630604648506 ] ] } },
{ "type": "Feature", "properties": { "hotel_name": "薇星旅館", "biz_area": "新北市石碇觀光商圈", "min_price": 4230.0, "price_color": "#fc8d59" }, "geometry": { "type": "LineString", "coordinates": [ [ 121.6636462, 25.0533748 ], [ 121.662420136247874, 24.99473431474485 ] ] } },
{ "type": "Feature", "properties": { "hotel_name": "富康精彩旅店", "biz_area": "新北市板橋區江子翠商圈", "min_price": 5600.0, "price_color": "#d73027" }, "geometry": { "type": "LineString", "coordinates": [ [ 121.470317, 25.027489 ], [ 121.469168798827738, 25.027021954074161 ] ] } },
{ "type": "Feature", "properties": { "hotel_name": "漁人碼頭休閒旅館", "biz_area": "新北市淡水區商圈", "min_price": 3690.0, "price_color": "#fee08b" }, "geometry": { "type": "LineString", "coordinates": [ [ 121.420552, 25.181656 ], [ 121.434548527767987, 25.173119560544983 ] ] } },
{ "type": "Feature", "properties": { "hotel_name": "薇薇精品旅館", "biz_area": "新北市蘆洲區商圈", "min_price": 3080.0, "price_color": "#fee08b" }, "geometry": { "type": "LineString", "coordinates": [ [ 121.482333, 25.082416 ], [ 121.483249666574679, 25.084607512266079 ] ] } },
{ "type": "Feature", "properties": { "hotel_name": "觀海樓旅店", "biz_area": "新北市淡水區商圈", "min_price": 5000.0, "price_color": "#d73027" }, "geometry": { "type": "LineString", "coordinates": [ [ 121.455955, 25.159308 ], [ 121.443105919331074, 25.168573728899894 ] ] } },
{ "type": "Feature", "properties": { "hotel_name": "名爵汽車旅館", "biz_area": "新北市三重碧華布街商圈", "min_price": 3620.0, "price_color": "#fee08b" }, "geometry": { "type": "LineString", "coordinates": [ [ 121.49728, 25.064789 ], [ 121.492285200085945, 25.075942829948414 ] ] } },
{ "type": "Feature", "properties": { "hotel_name": "皇品時尚旅店", "biz_area": "新北市板橋區新板商圈", "min_price": 4700.0, "price_color": "#fc8d59" }, "geometry": { "type": "LineString", "coordinates": [ [ 121.462457, 25.009211 ], [ 121.462229359529175, 25.008929012181873 ] ] } },
{ "type": "Feature", "properties": { "hotel_name": "億苑賓館", "biz_area": "新北市板橋區府中商圈", "min_price": 4200.0, "price_color": "#fc8d59" }, "geometry": { "type": "LineString", "coordinates": [ [ 121.456428, 25.009997 ], [ 121.454803460108153, 25.010422013630585 ] ] } },
{ "type": "Feature", "properties": { "hotel_name": "新加州景觀旅館", "biz_area": "新北市中和華新街商圈", "min_price": 3800.0, "price_color": "#fee08b" }, "geometry": { "type": "LineString", "coordinates": [ [ 121.537422, 24.958785 ], [ 121.511962886265295, 24.981274666858457 ] ] } },
{ "type": "Feature", "properties": { "hotel_name": "相見歡旅館", "biz_area": "新北市永和中興街韓國商圈", "min_price": 3380.0, "price_color": "#fee08b" }, "geometry": { "type": "LineString", "coordinates": [ [ 121.512874, 25.005893 ], [ 121.516170178766657, 25.009244292319092 ] ] } },
{ "type": "Feature", "properties": { "hotel_name": "福泰翡翠灣渡假飯店", "biz_area": "新北市萬里商圈", "min_price": 8000.0, "price_color": "#d73027" }, "geometry": { "type": "LineString", "coordinates": [ [ 121.68372, 25.18628 ], [ 121.686515466411677, 25.182661655741185 ] ] } },
{ "type": "Feature", "properties": { "hotel_name": "新莊客旅", "biz_area": "新北市板橋區府中商圈", "min_price": 4500.0, "price_color": "#fc8d59" }, "geometry": { "type": "LineString", "coordinates": [ [ 121.44481, 24.987039 ], [ 121.456914886756337, 25.005608296310609 ] ] } },
{ "type": "Feature", "properties": { "hotel_name": "極品旅館", "biz_area": "新北市新莊廟街商圈", "min_price": 4980.0, "price_color": "#fc8d59" }, "geometry": { "type": "LineString", "coordinates": [ [ 121.442574, 25.03261 ], [ 121.446651802123412, 25.03366866639022 ] ] } },
{ "type": "Feature", "properties": { "hotel_name": "仲信商務會館", "biz_area": "新北市中和華新街商圈", "min_price": 4400.0, "price_color": "#fc8d59" }, "geometry": { "type": "LineString", "coordinates": [ [ 121.543171, 24.9826349 ], [ 121.513041984585385, 24.983895749957416 ] ] } },
{ "type": "Feature", "properties": { "hotel_name": "首府大旅社", "biz_area": "新北市板橋區新板商圈", "min_price": 3000.0, "price_color": "#fee08b" }, "geometry": { "type": "LineString", "coordinates": [ [ 121.462419, 25.007451 ], [ 121.462945153698257, 25.008439575075865 ] ] } },
{ "type": "Feature", "properties": { "hotel_name": "烏來輕井澤溫泉旅館", "biz_area": "新北市烏來區溫泉社區商圈", "min_price": 8800.0, "price_color": "#d73027" }, "geometry": { "type": "LineString", "coordinates": [ [ 121.551659, 24.864752 ], [ 121.553261090441239, 24.865211735213272 ] ] } },
{ "type": "Feature", "properties": { "hotel_name": "台北薇米商旅", "biz_area": "新北市三重碧華布街商圈", "min_price": 4800.0, "price_color": "#fc8d59" }, "geometry": { "type": "LineString", "coordinates": [ [ 121.497167, 25.061757 ], [ 121.491847835096024, 25.075748965598738 ] ] } },
{ "type": "Feature", "properties": { "hotel_name": "雲仙大飯店", "biz_area": "新北市烏來區溫泉社區商圈", "min_price": 4400.0, "price_color": "#fc8d59" }, "geometry": { "type": "LineString", "coordinates": [ [ 121.552134, 24.84898 ], [ 121.549596794048995, 24.85960101588552 ] ] } },
{ "type": "Feature", "properties": { "hotel_name": "友愛金色商旅", "biz_area": "新北市板橋區府中商圈", "min_price": 3300.0, "price_color": "#fee08b" }, "geometry": { "type": "LineString", "coordinates": [ [ 121.461666, 25.0064229 ], [ 121.462168957046899, 25.005525331041838 ] ] } },
{ "type": "Feature", "properties": { "hotel_name": "君祥酒店", "biz_area": "新北市新莊廟街商圈", "min_price": 3600.0, "price_color": "#fee08b" }, "geometry": { "type": "LineString", "coordinates": [ [ 121.433046, 25.053278 ], [ 121.447956475690418, 25.037755227475138 ] ] } },
{ "type": "Feature", "properties": { "hotel_name": "雅都旅社", "biz_area": "新北市新莊廟街商圈", "min_price": 6980.0, "price_color": "#d73027" }, "geometry": { "type": "LineString", "coordinates": [ [ 121.442574, 25.03261 ], [ 121.446651802123412, 25.03366866639022 ] ] } },
{ "type": "Feature", "properties": { "hotel_name": "台麗精品旅店", "biz_area": "新北市新莊廟街商圈", "min_price": 4500.0, "price_color": "#fc8d59" }, "geometry": { "type": "LineString", "coordinates": [ [ 121.424413, 25.0384089 ], [ 121.44657788822407, 25.035084937383619 ] ] } },
{ "type": "Feature", "properties": { "hotel_name": "愛摩兒時尚旅?", "biz_area": "新北市永和中興街韓國商圈", "min_price": 3500.0, "price_color": "#fee08b" }, "geometry": { "type": "LineString", "coordinates": [ [ 121.5034069, 25.0078468 ], [ 121.515069686559144, 25.011202210752568 ] ] } },
{ "type": "Feature", "properties": { "hotel_name": "花蝶晶漾商旅", "biz_area": "新北市新莊廟街商圈", "min_price": 3980.0, "price_color": "#fee08b" }, "geometry": { "type": "LineString", "coordinates": [ [ 121.451488, 25.053349 ], [ 121.451443316330426, 25.039113867191343 ] ] } },
{ "type": "Feature", "properties": { "hotel_name": "群策翡翠灣溫泉飯店", "biz_area": "新北市萬里商圈", "min_price": 6600.0, "price_color": "#d73027" }, "geometry": { "type": "LineString", "coordinates": [ [ 121.6831496, 25.1908987 ], [ 121.687318820388583, 25.183160482294461 ] ] } },
{ "type": "Feature", "properties": { "hotel_name": "河灣渡假村", "biz_area": "新北市平溪區魅力商圈", "min_price": 4000.0, "price_color": "#fc8d59" }, "geometry": { "type": "LineString", "coordinates": [ [ 121.780458, 25.048758 ], [ 121.743913996064833, 25.026594083402973 ] ] } },
{ "type": "Feature", "properties": { "hotel_name": "儷閣經典旅館", "biz_area": "新北市中和華新街商圈", "min_price": 6960.0, "price_color": "#d73027" }, "geometry": { "type": "LineString", "coordinates": [ [ 121.484415, 24.982353 ], [ 121.503176612134354, 24.983608051616837 ] ] } },
{ "type": "Feature", "properties": { "hotel_name": "安盛商務旅館", "biz_area": "新北市中和華新街商圈", "min_price": 3400.0, "price_color": "#fee08b" }, "geometry": { "type": "LineString", "coordinates": [ [ 121.538401, 24.981689 ], [ 121.513034080809632, 24.983706882931635 ] ] } },
{ "type": "Feature", "properties": { "hotel_name": "帝苑旅店", "biz_area": "新北市板橋區江子翠商圈", "min_price": 8880.0, "price_color": "#d73027" }, "geometry": { "type": "LineString", "coordinates": [ [ 121.4667039, 25.020321 ], [ 121.466366688450407, 25.021319531373408 ] ] } },
{ "type": "Feature", "properties": { "hotel_name": "探索汽車旅館永和館", "biz_area": "新北市永和中興街韓國商圈", "min_price": 4980.0, "price_color": "#fc8d59" }, "geometry": { "type": "LineString", "coordinates": [ [ 121.5041684, 25.0098812 ], [ 121.514968428563733, 25.011725389898558 ] ] } },
{ "type": "Feature", "properties": { "hotel_name": "福格大飯店", "biz_area": "新北市淡水區商圈", "min_price": 5000.0, "price_color": "#d73027" }, "geometry": { "type": "LineString", "coordinates": [ [ 121.445757, 25.17041 ], [ 121.443891706148165, 25.170647558019766 ] ] } },
{ "type": "Feature", "properties": { "hotel_name": "萬里仙境溫泉會館", "biz_area": "新北市金山商圈", "min_price": 5280.0, "price_color": "#d73027" }, "geometry": { "type": "LineString", "coordinates": [ [ 121.642884, 25.215917 ], [ 121.641398703937185, 25.21837200462544 ] ] } },
{ "type": "Feature", "properties": { "hotel_name": "全家旅店", "biz_area": "新北市中和華新街商圈", "min_price": 6600.0, "price_color": "#d73027" }, "geometry": { "type": "LineString", "coordinates": [ [ 121.5005038, 25.001258 ], [ 121.506154320199883, 24.988251389653467 ] ] } },
{ "type": "Feature", "properties": { "hotel_name": "璞石麗緻溫泉會館", "biz_area": "新北市烏來區溫泉社區商圈", "min_price": 7920.0, "price_color": "#d73027" }, "geometry": { "type": "LineString", "coordinates": [ [ 121.548002, 24.871593 ], [ 121.5481708377568, 24.868499085956 ] ] } },
{ "type": "Feature", "properties": { "hotel_name": "景安精品旅館", "biz_area": "新北市中和華新街商圈", "min_price": 3250.0, "price_color": "#fee08b" }, "geometry": { "type": "LineString", "coordinates": [ [ 121.5044463, 24.9961865 ], [ 121.506610145991914, 24.98840522065348 ] ] } },
{ "type": "Feature", "properties": { "hotel_name": "新八里汽車旅館", "biz_area": "新北市八里區左岸觀光商圈", "min_price": 3440.0, "price_color": "#fee08b" }, "geometry": { "type": "LineString", "coordinates": [ [ 121.451993, 25.124454 ], [ 121.433303321985221, 25.157176138522004 ] ] } },
{ "type": "Feature", "properties": { "hotel_name": "金莎旗艦汽車旅館", "biz_area": "新北市三峽民權老街商圈", "min_price": 6980.0, "price_color": "#d73027" }, "geometry": { "type": "LineString", "coordinates": [ [ 121.378884, 24.944468 ], [ 121.373394602590508, 24.937323494139573 ] ] } },
{ "type": "Feature", "properties": { "hotel_name": "莫瑞納海灣會館", "biz_area": "新北市雙溪低碳商圈", "min_price": 6500.0, "price_color": "#d73027" }, "geometry": { "type": "LineString", "coordinates": [ [ 121.929664, 25.053531 ], [ 121.863852147019784, 25.039218005222605 ] ] } },
{ "type": "Feature", "properties": { "hotel_name": "雅緹汽車旅館", "biz_area": "新北市新莊廟街商圈", "min_price": 5900.0, "price_color": "#d73027" }, "geometry": { "type": "LineString", "coordinates": [ [ 121.460677, 25.0443789 ], [ 121.454963371189521, 25.037828262769555 ] ] } },
{ "type": "Feature", "properties": { "hotel_name": "美芙精品旅館", "biz_area": "新北市板橋區新板商圈", "min_price": 3980.0, "price_color": "#fee08b" }, "geometry": { "type": "LineString", "coordinates": [ [ 121.4809741, 25.0101816 ], [ 121.470456117772088, 25.011760814806884 ] ] } },
{ "type": "Feature", "properties": { "hotel_name": "Q汽車旅館", "biz_area": "新北市板橋區府中商圈", "min_price": 5500.0, "price_color": "#d73027" }, "geometry": { "type": "LineString", "coordinates": [ [ 121.444601, 24.98979 ], [ 121.456521150881102, 25.005868122891979 ] ] } },
{ "type": "Feature", "properties": { "hotel_name": "海灣假日酒店", "biz_area": "新北市深坑商圈", "min_price": 8000.0, "price_color": "#d73027" }, "geometry": { "type": "LineString", "coordinates": [ [ 121.5990502, 25.0044941 ], [ 121.612839096257858, 24.992328145090372 ] ] } },
{ "type": "Feature", "properties": { "hotel_name": "艾蔓精緻旅館-土城館", "biz_area": "新北市板橋區府中商圈", "min_price": 4300.0, "price_color": "#fc8d59" }, "geometry": { "type": "LineString", "coordinates": [ [ 121.4375887, 24.9769637 ], [ 121.456619793309642, 25.005803028683911 ] ] } },
{ "type": "Feature", "properties": { "hotel_name": "唯愛汽車旅館", "biz_area": "新北市中和華新街商圈", "min_price": 4980.0, "price_color": "#fc8d59" }, "geometry": { "type": "LineString", "coordinates": [ [ 121.531446, 24.954004 ], [ 121.511283920196462, 24.980642079089989 ] ] } },
{ "type": "Feature", "properties": { "hotel_name": "美麗殿精品汽車旅館", "biz_area": "新北市板橋區新板商圈", "min_price": 8888.0, "price_color": "#d73027" }, "geometry": { "type": "LineString", "coordinates": [ [ 121.487976, 25.006308 ], [ 121.470296572464804, 25.011018526187815 ] ] } },
{ "type": "Feature", "properties": { "hotel_name": "慕朵微風時尚休閒汽車旅館", "biz_area": "新北市板橋區府中商圈", "min_price": 3280.0, "price_color": "#fee08b" }, "geometry": { "type": "LineString", "coordinates": [ [ 121.4171343, 25.0061048 ], [ 121.454695894276554, 25.008896409424864 ] ] } },
{ "type": "Feature", "properties": { "hotel_name": "金湧泉溫泉會館", "biz_area": "新北市金山商圈", "min_price": 6200.0, "price_color": "#d73027" }, "geometry": { "type": "LineString", "coordinates": [ [ 121.643152, 25.216053 ], [ 121.641504118021572, 25.218444636876448 ] ] } },
{ "type": "Feature", "properties": { "hotel_name": "悅池精品旅館", "biz_area": "新北市板橋區新板商圈", "min_price": 3980.0, "price_color": "#fee08b" }, "geometry": { "type": "LineString", "coordinates": [ [ 121.4833081, 25.009619 ], [ 121.470424964960074, 25.011553328959042 ] ] } },
{ "type": "Feature", "properties": { "hotel_name": "君迪商旅", "biz_area": "新北市中和華新街商圈", "min_price": 4600.0, "price_color": "#fc8d59" }, "geometry": { "type": "LineString", "coordinates": [ [ 121.4847931, 24.9939553 ], [ 121.503503486210974, 24.985781489909819 ] ] } },
{ "type": "Feature", "properties": { "hotel_name": "大板根太子會館", "biz_area": "新北市三峽民權老街商圈", "min_price": 8140.0, "price_color": "#d73027" }, "geometry": { "type": "LineString", "coordinates": [ [ 121.407251, 24.870591 ], [ 121.373099500672552, 24.93007699949229 ] ] } },
{ "type": "Feature", "properties": { "hotel_name": "芬多精加香汽車旅館", "biz_area": "新北市深坑商圈", "min_price": 3580.0, "price_color": "#fee08b" }, "geometry": { "type": "LineString", "coordinates": [ [ 121.6363737, 25.0622109 ], [ 121.618089488532988, 24.993833211641352 ] ] } },
{ "type": "Feature", "properties": { "hotel_name": "富悅渡假休閒旅館", "biz_area": "新北市淡水區商圈", "min_price": 7000.0, "price_color": "#d73027" }, "geometry": { "type": "LineString", "coordinates": [ [ 121.420339, 25.183911 ], [ 121.434793917381427, 25.173502145532776 ] ] } },
{ "type": "Feature", "properties": { "hotel_name": "九閣商旅", "biz_area": "新北市中和華新街商圈", "min_price": 6000.0, "price_color": "#d73027" }, "geometry": { "type": "LineString", "coordinates": [ [ 121.5291849, 24.9725868 ], [ 121.512493413718829, 24.982015830450695 ] ] } },
{ "type": "Feature", "properties": { "hotel_name": "福容大飯店 台北二館", "biz_area": "新北市深坑商圈", "min_price": 6050.0, "price_color": "#d73027" }, "geometry": { "type": "LineString", "coordinates": [ [ 121.600619, 25.004084 ], [ 121.612839096257858, 24.992328145090372 ] ] } },
{ "type": "Feature", "properties": { "hotel_name": "翰品酒店", "biz_area": "新北市新莊廟街商圈", "min_price": 5800.0, "price_color": "#d73027" }, "geometry": { "type": "LineString", "coordinates": [ [ 121.458087, 25.037679 ], [ 121.455965031368279, 25.03654470703993 ] ] } },
{ "type": "Feature", "properties": { "hotel_name": "金湯溫泉會館", "biz_area": "新北市金山商圈", "min_price": 3420.0, "price_color": "#fee08b" }, "geometry": { "type": "LineString", "coordinates": [ [ 121.6442351, 25.2149574 ], [ 121.641726672458347, 25.218597980993692 ] ] } },
{ "type": "Feature", "properties": { "hotel_name": "府中棧精品商旅", "biz_area": "新北市板橋區新板商圈", "min_price": 5500.0, "price_color": "#d73027" }, "geometry": { "type": "LineString", "coordinates": [ [ 121.459856, 25.009502 ], [ 121.461151254041326, 25.010194138524867 ] ] } },
{ "type": "Feature", "properties": { "hotel_name": "遠東金山海灣溫泉HOTEL", "biz_area": "新北市金山商圈", "min_price": 5200.0, "price_color": "#d73027" }, "geometry": { "type": "LineString", "coordinates": [ [ 121.646519, 25.229704 ], [ 121.642143752500829, 25.225255224706107 ] ] } },
{ "type": "Feature", "properties": { "hotel_name": "矽谷溫泉會館", "biz_area": "新北市中和華新街商圈", "min_price": 3000.0, "price_color": "#fee08b" }, "geometry": { "type": "LineString", "coordinates": [ [ 121.5335311, 24.982458 ], [ 121.513034080809632, 24.983706882931635 ] ] } },
{ "type": "Feature", "properties": { "hotel_name": "成旅晶贊飯店台北蘆洲", "biz_area": "新北市蘆洲區商圈", "min_price": 7200.0, "price_color": "#d73027" }, "geometry": { "type": "LineString", "coordinates": [ [ 121.480455, 25.080429 ], [ 121.477269615656255, 25.077773423406235 ] ] } },
{ "type": "Feature", "properties": { "hotel_name": "台北集賢商旅", "biz_area": "新北市蘆洲區商圈", "min_price": 6000.0, "price_color": "#d73027" }, "geometry": { "type": "LineString", "coordinates": [ [ 121.4806581, 25.0831617 ], [ 121.480398624558902, 25.084944145009171 ] ] } },
{ "type": "Feature", "properties": { "hotel_name": "藍色水岸海景旅店", "biz_area": "新北市淡水區商圈", "min_price": 8000.0, "price_color": "#d73027" }, "geometry": { "type": "LineString", "coordinates": [ [ 121.43819, 25.172761 ], [ 121.437332627625409, 25.175300847441747 ] ] } },
{ "type": "Feature", "properties": { "hotel_name": "承億文旅 淡水吹風", "biz_area": "新北市淡水區商圈", "min_price": 6000.0, "price_color": "#d73027" }, "geometry": { "type": "LineString", "coordinates": [ [ 121.420512, 25.180962 ], [ 121.434548527767987, 25.173119560544983 ] ] } },
{ "type": "Feature", "properties": { "hotel_name": "清翼居旅店", "biz_area": "新北市板橋區府中商圈", "min_price": 7000.0, "price_color": "#d73027" }, "geometry": { "type": "LineString", "coordinates": [ [ 121.460461, 25.007125 ], [ 121.460957891490622, 25.005048531096072 ] ] } },
{ "type": "Feature", "properties": { "hotel_name": "雅歌會館", "biz_area": "新北市淡水區商圈", "min_price": 5000.0, "price_color": "#d73027" }, "geometry": { "type": "LineString", "coordinates": [ [ 121.447946, 25.169145 ], [ 121.443825848708542, 25.170208641063585 ] ] } },
{ "type": "Feature", "properties": { "hotel_name": "悅客商務飯店", "biz_area": "新北市板橋區江子翠商圈", "min_price": 6000.0, "price_color": "#d73027" }, "geometry": { "type": "LineString", "coordinates": [ [ 121.479499, 25.021378 ], [ 121.469267098598934, 25.024239586059981 ] ] } },
{ "type": "Feature", "properties": { "hotel_name": "探索汽車旅館中和館", "biz_area": "新北市板橋區新板商圈", "min_price": 3580.0, "price_color": "#fee08b" }, "geometry": { "type": "LineString", "coordinates": [ [ 121.485894, 24.999059 ], [ 121.469689884425989, 25.009814651995057 ] ] } },
{ "type": "Feature", "properties": { "hotel_name": "美麗殿商旅", "biz_area": "新北市板橋區新板商圈", "min_price": 3600.0, "price_color": "#fee08b" }, "geometry": { "type": "LineString", "coordinates": [ [ 121.4580337, 25.0092954 ], [ 121.460984980332142, 25.010505299782412 ] ] } },
{ "type": "Feature", "properties": { "hotel_name": "清翼居旅店海洋館", "biz_area": "新北市板橋區府中商圈", "min_price": 6500.0, "price_color": "#d73027" }, "geometry": { "type": "LineString", "coordinates": [ [ 121.461804, 25.005156 ], [ 121.461734217990298, 25.005313261647725 ] ] } },
{ "type": "Feature", "properties": { "hotel_name": "葛瑞絲商旅", "biz_area": "新北市中和華新街商圈", "min_price": 4800.0, "price_color": "#fc8d59" }, "geometry": { "type": "LineString", "coordinates": [ [ 121.499102, 25.003007 ], [ 121.505728622390393, 24.988062627057225 ] ] } },
{ "type": "Feature", "properties": { "hotel_name": "麗京棧酒店", "biz_area": "新北市新莊廟街商圈", "min_price": 6600.0, "price_color": "#d73027" }, "geometry": { "type": "LineString", "coordinates": [ [ 121.41914, 25.032065 ], [ 121.446574941735562, 25.034106095144796 ] ] } },
{ "type": "Feature", "properties": { "hotel_name": "熊旅溫泉飯店", "biz_area": "新北市三峽民權老街商圈", "min_price": 9000.0, "price_color": "#d73027" }, "geometry": { "type": "LineString", "coordinates": [ [ 121.3725414, 24.9467525 ], [ 121.371207542074444, 24.938237580641644 ] ] } },
{ "type": "Feature", "properties": { "hotel_name": "白金花園酒店", "biz_area": "新北市中和華新街商圈", "min_price": 6000.0, "price_color": "#d73027" }, "geometry": { "type": "LineString", "coordinates": [ [ 121.515578, 24.975192 ], [ 121.511283920196462, 24.980642079089989 ] ] } },
{ "type": "Feature", "properties": { "hotel_name": "幸福讚精品飯店", "biz_area": "新北市新莊廟街商圈", "min_price": 3990.0, "price_color": "#fee08b" }, "geometry": { "type": "LineString", "coordinates": [ [ 121.4611437, 25.0509884 ], [ 121.454205526081523, 25.038381810585626 ] ] } },
{ "type": "Feature", "properties": { "hotel_name": "樂頤飯店", "biz_area": "新北市蘆洲區商圈", "min_price": 5600.0, "price_color": "#d73027" }, "geometry": { "type": "LineString", "coordinates": [ [ 121.4799862, 25.0820839 ], [ 121.478699843241841, 25.084381456478258 ] ] } },
{ "type": "Feature", "properties": { "hotel_name": "歐遊國際連鎖精品旅館", "biz_area": "新北市新莊廟街商圈", "min_price": 6600.0, "price_color": "#d73027" }, "geometry": { "type": "LineString", "coordinates": [ [ 121.460103, 25.059801 ], [ 121.45334369989537, 25.038790021606705 ] ] } },
{ "type": "Feature", "properties": { "hotel_name": "晶贊都會旅店台北永和", "biz_area": "新北市永和中興街韓國商圈", "min_price": 4200.0, "price_color": "#fc8d59" }, "geometry": { "type": "LineString", "coordinates": [ [ 121.5154175, 25.0128522 ], [ 121.515003571609967, 25.012914501571164 ] ] } },
{ "type": "Feature", "properties": { "hotel_name": "富信大飯店", "biz_area": "新北市深坑商圈", "min_price": 5000.0, "price_color": "#d73027" }, "geometry": { "type": "LineString", "coordinates": [ [ 121.6298303, 25.0554328 ], [ 121.61761676481143, 24.993936472335196 ] ] } },
{ "type": "Feature", "properties": { "hotel_name": "TS MOTEL（鼎帥?泉汽車旅館)", "biz_area": "新北市金山商圈", "min_price": 5000.0, "price_color": "#d73027" }, "geometry": { "type": "LineString", "coordinates": [ [ 121.638557, 25.219365 ], [ 121.638494108108091, 25.217591404808839 ] ] } },
{ "type": "Feature", "properties": { "hotel_name": "台北旅人國際青年旅館", "biz_area": "新北市淡水區商圈", "min_price": 3800.0, "price_color": "#fee08b" }, "geometry": { "type": "LineString", "coordinates": [ [ 121.438965, 25.171674 ], [ 121.439097139761202, 25.175544771343304 ] ] } },
{ "type": "Feature", "properties": { "hotel_name": "慶城商旅 Urbanone Hotel", "biz_area": "新北市三重碧華布街商圈", "min_price": 4980.0, "price_color": "#fc8d59" }, "geometry": { "type": "LineString", "coordinates": [ [ 121.497863, 25.06068 ], [ 121.491847835096024, 25.075748965598738 ] ] } },
{ "type": "Feature", "properties": { "hotel_name": "丹鳳大旅館", "biz_area": "新北市新莊廟街商圈", "min_price": 3800.0, "price_color": "#fee08b" }, "geometry": { "type": "LineString", "coordinates": [ [ 121.414588, 25.023197 ], [ 121.446775352125982, 25.033240207503649 ] ] } },
{ "type": "Feature", "properties": { "hotel_name": "少爺時尚旅館", "biz_area": "新北市石碇觀光商圈", "min_price": 4800.0, "price_color": "#fc8d59" }, "geometry": { "type": "LineString", "coordinates": [ [ 121.660383, 25.062104 ], [ 121.662420136247874, 24.99473431474485 ] ] } },
{ "type": "Feature", "properties": { "hotel_name": "驛德世紀酒店", "biz_area": "新北市新莊廟街商圈", "min_price": 5200.0, "price_color": "#d73027" }, "geometry": { "type": "LineString", "coordinates": [ [ 121.432168, 25.028475 ], [ 121.446775352125982, 25.033240207503649 ] ] } },
{ "type": "Feature", "properties": { "hotel_name": "台北新板希爾頓酒店", "biz_area": "新北市板橋區新板商圈", "min_price": 4500.0, "price_color": "#fc8d59" }, "geometry": { "type": "LineString", "coordinates": [ [ 121.460801, 25.0120576 ], [ 121.460598637793311, 25.012044159319778 ] ] } },
{ "type": "Feature", "properties": { "hotel_name": "三重江月行館", "biz_area": "新北市板橋區江子翠商圈", "min_price": 6000.0, "price_color": "#d73027" }, "geometry": { "type": "LineString", "coordinates": [ [ 121.469293, 25.04517 ], [ 121.465894402961112, 25.029835387691652 ] ] } },
{ "type": "Feature", "properties": { "hotel_name": "捷絲旅台北三重館", "biz_area": "新北市三重碧華布街商圈", "min_price": 7700.0, "price_color": "#d73027" }, "geometry": { "type": "LineString", "coordinates": [ [ 121.487504, 25.077409 ], [ 121.486722203675072, 25.076440311876436 ] ] } },
{ "type": "Feature", "properties": { "hotel_name": "雀客旅館新北蘆洲", "biz_area": "新北市蘆洲區商圈", "min_price": 7600.0, "price_color": "#d73027" }, "geometry": { "type": "LineString", "coordinates": [ [ 121.480537, 25.081309 ], [ 121.479091248000216, 25.084570074458728 ] ] } },
{ "type": "Feature", "properties": { "hotel_name": "帝景飯店", "biz_area": "新北市中和華新街商圈", "min_price": 7650.0, "price_color": "#d73027" }, "geometry": { "type": "LineString", "coordinates": [ [ 121.5343286, 24.9574561 ], [ 121.511640450165373, 24.980943172113655 ] ] } },
{ "type": "Feature", "properties": { "hotel_name": "淡水淶滬文旅", "biz_area": "新北市淡水區商圈", "min_price": 7000.0, "price_color": "#d73027" }, "geometry": { "type": "LineString", "coordinates": [ [ 121.4511082, 25.1652276 ], [ 121.443424799610042, 25.169102003257002 ] ] } },
{ "type": "Feature", "properties": { "hotel_name": "新北新莊凱悅嘉軒酒店", "biz_area": "新北市新莊廟街商圈", "min_price": 8800.0, "price_color": "#d73027" }, "geometry": { "type": "LineString", "coordinates": [ [ 121.454218, 25.060113 ], [ 121.45192923250282, 25.039097193172108 ] ] } },
{ "type": "Feature", "properties": { "hotel_name": "新城九八精緻旅館", "biz_area": "新北市蘆洲區商圈", "min_price": 4680.0, "price_color": "#fc8d59" }, "geometry": { "type": "LineString", "coordinates": [ [ 121.4461377, 25.0913756 ], [ 121.476455795996515, 25.081758690671379 ] ] } }
]
}
