{
"type": "FeatureCollection",
"crs": { "type": "name", "properties": { "name": "urn:ogc:def:crs:OGC:1.3:CRS84" } },
"features": [
{ "type": "Feature", "properties": { "hotel_name": "慕居行旅", "biz_area": "士林觀光夜市商圈", "min_price": 600.0, "price_color": "#fc8d59" }, "geometry": { "type": "LineString", "coordinates": [ [ 121.5374406, 25.08378805 ], [ 121.527368, 25.088202 ] ] } },
{ "type": "Feature", "properties": { "hotel_name": "大來商旅", "biz_area": "士林捷運站周邊", "min_price": 2000.0, "price_color": "#fc8d59" }, "geometry": { "type": "LineString", "coordinates": [ [ 121.5305181, 25.09504055 ], [ 121.5284692, 25.0950609 ] ] } },
{ "type": "Feature", "properties": { "hotel_name": "華麗大飯店", "biz_area": "承德路中古汽車商圈", "min_price": 1900.0, "price_color": "#91cf60" }, "geometry": { "type": "LineString", "coordinates": [ [ 121.504065185491626, 25.088363324922724 ], [ 121.5148975573196, 25.092966835828626 ] ] } },
{ "type": "Feature", "properties": { "hotel_name": "麗雅精品旅館", "biz_area": "士林捷運站周邊", "min_price": 1980.0, "price_color": "#fee08b" }, "geometry": { "type": "LineString", "coordinates": [ [ 121.521206099999986, 25.09523055 ], [ 121.52432413432598, 25.096073137709102 ] ] } },
{ "type": "Feature", "properties": { "hotel_name": "國際大旅館", "biz_area": "行義路溫泉美食商圈", "min_price": 2310.0, "price_color": "#fee08b" }, "geometry": { "type": "LineString", "coordinates": [ [ 121.531887749999981, 25.1468997 ], [ 121.528661, 25.144568 ] ] } },
{ "type": "Feature", "properties": { "hotel_name": "麗都大飯店", "biz_area": "士林觀光夜市商圈", "min_price": 2700.0, "price_color": "#d73027" }, "geometry": { "type": "LineString", "coordinates": [ [ 121.5249526, 25.08471155 ], [ 121.525587, 25.085588 ] ] } },
{ "type": "Feature", "properties": { "hotel_name": "黛芬旅館", "biz_area": "承德路中古汽車商圈", "min_price": 1000.0, "price_color": "#fc8d59" }, "geometry": { "type": "LineString", "coordinates": [ [ 121.50609505, 25.0905088 ], [ 121.514435783258847, 25.094053421356257 ] ] } },
{ "type": "Feature", "properties": { "hotel_name": "小雅旅店", "biz_area": "大直商圈", "min_price": 1100.0, "price_color": "#fee08b" }, "geometry": { "type": "LineString", "coordinates": [ [ 121.5448791, 25.09272905 ], [ 121.549527, 25.084809 ] ] } },
{ "type": "Feature", "properties": { "hotel_name": "迪樂商旅", "biz_area": "承德路中古汽車商圈", "min_price": 1580.0, "price_color": "#91cf60" }, "geometry": { "type": "LineString", "coordinates": [ [ 121.50928955, 25.0940588 ], [ 121.513646591350138, 25.095910443175782 ] ] } },
{ "type": "Feature", "properties": { "hotel_name": "富粧商務旅店", "biz_area": "承德路中古汽車商圈", "min_price": 1680.0, "price_color": "#1a9850" }, "geometry": { "type": "LineString", "coordinates": [ [ 121.504783639700406, 25.090568170166542 ], [ 121.514213796322224, 25.094575771598834 ] ] } },
{ "type": "Feature", "properties": { "hotel_name": "長虹大飯店", "biz_area": "承德路中古汽車商圈", "min_price": 2380.0, "price_color": "#fee08b" }, "geometry": { "type": "LineString", "coordinates": [ [ 121.50703755, 25.0898628 ], [ 121.514812501822561, 25.093166977153111 ] ] } },
{ "type": "Feature", "properties": { "hotel_name": "梅樓商務驛站", "biz_area": "承德路中古汽車商圈", "min_price": 1490.0, "price_color": "#d73027" }, "geometry": { "type": "LineString", "coordinates": [ [ 121.510480050000012, 25.0924828 ], [ 121.51439601606684, 25.094146996242713 ] ] } },
{ "type": "Feature", "properties": { "hotel_name": "南港安樂旅社", "biz_area": "西湖商圈", "min_price": 1400.0, "price_color": "#91cf60" }, "geometry": { "type": "LineString", "coordinates": [ [ 121.563438600000012, 25.09529305 ], [ 121.5625798, 25.0869093 ] ] } },
{ "type": "Feature", "properties": { "hotel_name": "凱統大飯店", "biz_area": "士林觀光夜市商圈", "min_price": 2580.0, "price_color": "#91cf60" }, "geometry": { "type": "LineString", "coordinates": [ [ 121.5248391, 25.08882505 ], [ 121.523838564023336, 25.0881393969516 ] ] } },
{ "type": "Feature", "properties": { "hotel_name": "華宮旅社", "biz_area": "承德路中古汽車商圈", "min_price": 700.0, "price_color": "#fc8d59" }, "geometry": { "type": "LineString", "coordinates": [ [ 121.502959, 25.0872925 ], [ 121.515113796219779, 25.092458011103698 ] ] } },
{ "type": "Feature", "properties": { "hotel_name": "美觀園旅社", "biz_area": "承德路中古汽車商圈", "min_price": 1800.0, "price_color": "#fc8d59" }, "geometry": { "type": "LineString", "coordinates": [ [ 121.506044050000014, 25.0887018 ], [ 121.515078438930232, 25.092541209192085 ] ] } },
{ "type": "Feature", "properties": { "hotel_name": "北門文旅", "biz_area": "承德路中古汽車商圈", "min_price": 1400.0, "price_color": "#fee08b" }, "geometry": { "type": "LineString", "coordinates": [ [ 121.515560599999986, 25.09367905 ], [ 121.515504929564699, 25.093655160628273 ] ] } },
{ "type": "Feature", "properties": { "hotel_name": "福來旅社", "biz_area": "承德路中古汽車商圈", "min_price": 500.0, "price_color": "#fee08b" }, "geometry": { "type": "LineString", "coordinates": [ [ 121.50943655, 25.0943333 ], [ 121.513570268476101, 25.096090036049027 ] ] } },
{ "type": "Feature", "properties": { "hotel_name": "一加一旅館", "biz_area": "承德路中古汽車商圈", "min_price": 1200.0, "price_color": "#1a9850" }, "geometry": { "type": "LineString", "coordinates": [ [ 121.506271550000022, 25.0911278 ], [ 121.514239965123849, 25.094514194642635 ] ] } },
{ "type": "Feature", "properties": { "hotel_name": "帥客旅店", "biz_area": "承德路中古汽車商圈", "min_price": 1500.0, "price_color": "#fc8d59" }, "geometry": { "type": "LineString", "coordinates": [ [ 121.5179076, 25.08287855 ], [ 121.521906730254472, 25.081639717708484 ] ] } },
{ "type": "Feature", "properties": { "hotel_name": "客來思樂行旅", "biz_area": "承德路中古汽車商圈", "min_price": 1280.0, "price_color": "#fee08b" }, "geometry": { "type": "LineString", "coordinates": [ [ 121.5230241, 25.07750955 ], [ 121.521784, 25.078548 ] ] } },
{ "type": "Feature", "properties": { "hotel_name": "蒲園飯店", "biz_area": "天母商圈", "min_price": 2800.0, "price_color": "#1a9850" }, "geometry": { "type": "LineString", "coordinates": [ [ 121.539788100000024, 25.09210805 ], [ 121.5337008, 25.1010561 ] ] } },
{ "type": "Feature", "properties": { "hotel_name": "香城大飯店松山分店", "biz_area": "大直商圈", "min_price": 1800.0, "price_color": "#d73027" }, "geometry": { "type": "LineString", "coordinates": [ [ 121.5451551, 25.09262805 ], [ 121.549527, 25.084809 ] ] } },
{ "type": "Feature", "properties": { "hotel_name": "景美大旅社", "biz_area": "中山商圈", "min_price": 1000.0, "price_color": "#fc8d59" }, "geometry": { "type": "LineString", "coordinates": [ [ 121.5285336, 25.06284905 ], [ 121.528017249511649, 25.062855844668622 ] ] } },
{ "type": "Feature", "properties": { "hotel_name": "城美行旅", "biz_area": "承德路中古汽車商圈", "min_price": 1820.0, "price_color": "#fee08b" }, "geometry": { "type": "LineString", "coordinates": [ [ 121.509304050000011, 25.0901758 ], [ 121.51504655522011, 25.092616233713663 ] ] } },
{ "type": "Feature", "properties": { "hotel_name": "大榮大旅社", "biz_area": "承德路中古汽車商圈", "min_price": 900.0, "price_color": "#d73027" }, "geometry": { "type": "LineString", "coordinates": [ [ 121.50636805, 25.0883713 ], [ 121.515246972076341, 25.092144639325888 ] ] } },
{ "type": "Feature", "properties": { "hotel_name": "晶樺商務旅店", "biz_area": "承德路中古汽車商圈", "min_price": 2000.0, "price_color": "#fc8d59" }, "geometry": { "type": "LineString", "coordinates": [ [ 121.5022305, 25.0860605 ], [ 121.515445829800413, 25.091676713681309 ] ] } },
{ "type": "Feature", "properties": { "hotel_name": "紅菱閣賓館", "biz_area": "承德路中古汽車商圈", "min_price": 1130.0, "price_color": "#fee08b" }, "geometry": { "type": "LineString", "coordinates": [ [ 121.50538255, 25.0897013 ], [ 121.514617459154692, 25.093625925712978 ] ] } },
{ "type": "Feature", "properties": { "hotel_name": "乃晶旅社", "biz_area": "承德路中古汽車商圈", "min_price": 2000.0, "price_color": "#d73027" }, "geometry": { "type": "LineString", "coordinates": [ [ 121.5022305, 25.0860605 ], [ 121.515445829800413, 25.091676713681309 ] ] } },
{ "type": "Feature", "properties": { "hotel_name": "千慧旅館", "biz_area": "承德路中古汽車商圈", "min_price": 2200.0, "price_color": "#1a9850" }, "geometry": { "type": "LineString", "coordinates": [ [ 121.5180731, 25.09410905 ], [ 121.51573981838159, 25.093107789067851 ] ] } },
{ "type": "Feature", "properties": { "hotel_name": "柯達大飯店台北一店", "biz_area": "承德路中古汽車商圈", "min_price": 1000.0, "price_color": "#d73027" }, "geometry": { "type": "LineString", "coordinates": [ [ 121.519681600000013, 25.09423905 ], [ 121.518128329778705, 25.090793874391419 ] ] } },
{ "type": "Feature", "properties": { "hotel_name": "富玉莊旅社", "biz_area": "石牌捷運商圈", "min_price": 1900.0, "price_color": "#fee08b" }, "geometry": { "type": "LineString", "coordinates": [ [ 121.517637600000015, 25.11163305 ], [ 121.516956, 25.112927 ] ] } },
{ "type": "Feature", "properties": { "hotel_name": "東龍大飯店", "biz_area": "承德路中古汽車商圈", "min_price": 1920.0, "price_color": "#fc8d59" }, "geometry": { "type": "LineString", "coordinates": [ [ 121.50730605, 25.0903728 ], [ 121.514669993809846, 25.093502308124119 ] ] } },
{ "type": "Feature", "properties": { "hotel_name": "銀河旅館", "biz_area": "承德路中古汽車商圈", "min_price": 2000.0, "price_color": "#d73027" }, "geometry": { "type": "LineString", "coordinates": [ [ 121.507094550000019, 25.0883453 ], [ 121.515367469032228, 25.091861101856992 ] ] } },
{ "type": "Feature", "properties": { "hotel_name": "西門大飯店", "biz_area": "承德路中古汽車商圈", "min_price": 2180.0, "price_color": "#91cf60" }, "geometry": { "type": "LineString", "coordinates": [ [ 121.50775205, 25.0904108 ], [ 121.514724542905796, 25.093373950420141 ] ] } },
{ "type": "Feature", "properties": { "hotel_name": "泉都溫泉會館", "biz_area": "新北投溫泉商圈", "min_price": 1800.0, "price_color": "#91cf60" }, "geometry": { "type": "LineString", "coordinates": [ [ 121.504246590549059, 25.136096673585556 ], [ 121.503967181098105, 25.13595334717111 ] ] } },
{ "type": "Feature", "properties": { "hotel_name": "洛碁大飯店", "biz_area": "天母商圈", "min_price": 1537.0, "price_color": "#1a9850" }, "geometry": { "type": "LineString", "coordinates": [ [ 121.519441599999979, 25.09944905 ], [ 121.521140375763778, 25.101588163901937 ] ] } },
{ "type": "Feature", "properties": { "hotel_name": "友華賓館", "biz_area": "大直商圈", "min_price": 1400.0, "price_color": "#91cf60" }, "geometry": { "type": "LineString", "coordinates": [ [ 121.5457916, 25.09274705 ], [ 121.549685596201812, 25.084887576896872 ] ] } },
{ "type": "Feature", "properties": { "hotel_name": "一等好旅店", "biz_area": "大直商圈", "min_price": 1500.0, "price_color": "#d73027" }, "geometry": { "type": "LineString", "coordinates": [ [ 121.5450826, 25.09262505 ], [ 121.549527, 25.084809 ] ] } },
{ "type": "Feature", "properties": { "hotel_name": "柯達大飯店台北二店", "biz_area": "天母商圈", "min_price": 1000.0, "price_color": "#fee08b" }, "geometry": { "type": "LineString", "coordinates": [ [ 121.5196086, 25.09873505 ], [ 121.521590510493681, 25.101230689730549 ] ] } },
{ "type": "Feature", "properties": { "hotel_name": "國州大旅社", "biz_area": "至聖花博商圈", "min_price": 1000.0, "price_color": "#d73027" }, "geometry": { "type": "LineString", "coordinates": [ [ 121.5265996, 25.07307005 ], [ 121.5257161, 25.0714465 ] ] } },
{ "type": "Feature", "properties": { "hotel_name": "欣和大旅社", "biz_area": "承德路中古汽車商圈", "min_price": 1100.0, "price_color": "#d73027" }, "geometry": { "type": "LineString", "coordinates": [ [ 121.5196716, 25.08103155 ], [ 121.521539125563365, 25.080453036466828 ] ] } },
{ "type": "Feature", "properties": { "hotel_name": "夜光商旅", "biz_area": "承德路中古汽車商圈", "min_price": 2000.0, "price_color": "#fee08b" }, "geometry": { "type": "LineString", "coordinates": [ [ 121.50597605, 25.0887238 ], [ 121.515060117249078, 25.09258432134428 ] ] } },
{ "type": "Feature", "properties": { "hotel_name": "苓旅站前", "biz_area": "承德路中古汽車商圈", "min_price": 1280.0, "price_color": "#d73027" }, "geometry": { "type": "LineString", "coordinates": [ [ 121.51036005, 25.0910393 ], [ 121.514897268891133, 25.092967514520282 ] ] } },
{ "type": "Feature", "properties": { "hotel_name": "新秀閣大飯店", "biz_area": "新北投溫泉商圈", "min_price": 1500.0, "price_color": "#fee08b" }, "geometry": { "type": "LineString", "coordinates": [ [ 121.507287931274206, 25.135727988279577 ], [ 121.507352862548402, 25.135381976559152 ] ] } },
{ "type": "Feature", "properties": { "hotel_name": "台北馥敦飯店復南館", "biz_area": "士林觀光夜市商圈", "min_price": 2800.0, "price_color": "#1a9850" }, "geometry": { "type": "LineString", "coordinates": [ [ 121.5299611, 25.08354955 ], [ 121.526025222905687, 25.086231186229906 ] ] } },
{ "type": "Feature", "properties": { "hotel_name": "新榮大旅社", "biz_area": "天母商圈", "min_price": 1200.0, "price_color": "#d73027" }, "geometry": { "type": "LineString", "coordinates": [ [ 121.521275099999983, 25.11193355 ], [ 121.5228668, 25.1106253 ] ] } },
{ "type": "Feature", "properties": { "hotel_name": "上賓大飯店", "biz_area": "天母商圈", "min_price": 1680.0, "price_color": "#fee08b" }, "geometry": { "type": "LineString", "coordinates": [ [ 121.520622099999983, 25.09814705 ], [ 121.522731847484039, 25.100269826574177 ] ] } },
{ "type": "Feature", "properties": { "hotel_name": "士林町旅店", "biz_area": "天母商圈", "min_price": 1680.0, "price_color": "#1a9850" }, "geometry": { "type": "LineString", "coordinates": [ [ 121.5207716, 25.11207255 ], [ 121.5228668, 25.1106253 ] ] } },
{ "type": "Feature", "properties": { "hotel_name": "帝華旅社", "biz_area": "承德路中古汽車商圈", "min_price": 1680.0, "price_color": "#d73027" }, "geometry": { "type": "LineString", "coordinates": [ [ 121.503365, 25.086907 ], [ 121.51531467158496, 25.091985337813441 ] ] } },
{ "type": "Feature", "properties": { "hotel_name": "立建賓館", "biz_area": "大直商圈", "min_price": 1100.0, "price_color": "#91cf60" }, "geometry": { "type": "LineString", "coordinates": [ [ 121.5457916, 25.09274705 ], [ 121.549685596201812, 25.084887576896872 ] ] } },
{ "type": "Feature", "properties": { "hotel_name": "華大HOTEL", "biz_area": "大直商圈", "min_price": 1200.0, "price_color": "#fc8d59" }, "geometry": { "type": "LineString", "coordinates": [ [ 121.5424051, 25.08912855 ], [ 121.549527, 25.084809 ] ] } },
{ "type": "Feature", "properties": { "hotel_name": "台北星辰旅館", "biz_area": "承德路中古汽車商圈", "min_price": 2580.0, "price_color": "#91cf60" }, "geometry": { "type": "LineString", "coordinates": [ [ 121.5218816, 25.08603905 ], [ 121.522363257741333, 25.086265615077167 ] ] } },
{ "type": "Feature", "properties": { "hotel_name": "華冠商旅HOTEL", "biz_area": "承德路中古汽車商圈", "min_price": 1100.0, "price_color": "#91cf60" }, "geometry": { "type": "LineString", "coordinates": [ [ 121.5029745, 25.0875515 ], [ 121.515022936322467, 25.092671810573744 ] ] } },
{ "type": "Feature", "properties": { "hotel_name": "嘉榮旅社", "biz_area": "承德路中古汽車商圈", "min_price": 1800.0, "price_color": "#fc8d59" }, "geometry": { "type": "LineString", "coordinates": [ [ 121.510693050000015, 25.0926693 ], [ 121.514361466637098, 25.094228293382464 ] ] } },
{ "type": "Feature", "properties": { "hotel_name": "仙渡莊旅社", "biz_area": "承德路中古汽車商圈", "min_price": 2000.0, "price_color": "#fc8d59" }, "geometry": { "type": "LineString", "coordinates": [ [ 121.4848192, 25.12991515 ], [ 121.500112, 25.121253 ] ] } },
{ "type": "Feature", "properties": { "hotel_name": "美代溫泉飯店", "biz_area": "新北投溫泉商圈", "min_price": 2000.0, "price_color": "#fee08b" }, "geometry": { "type": "LineString", "coordinates": [ [ 121.5109195, 25.13659205 ], [ 121.511014, 25.1360481 ] ] } },
{ "type": "Feature", "properties": { "hotel_name": "真珠賓館", "biz_area": "承德路中古汽車商圈", "min_price": 700.0, "price_color": "#91cf60" }, "geometry": { "type": "LineString", "coordinates": [ [ 121.50863655, 25.1079228 ], [ 121.510770159107565, 25.108282627783037 ] ] } },
{ "type": "Feature", "properties": { "hotel_name": "在家行旅 ", "biz_area": "士林捷運站周邊", "min_price": 1000.0, "price_color": "#fee08b" }, "geometry": { "type": "LineString", "coordinates": [ [ 121.519994100000019, 25.09620205 ], [ 121.52399698939908, 25.097283752462484 ] ] } },
{ "type": "Feature", "properties": { "hotel_name": "葫蘆商旅", "biz_area": "承德路中古汽車商圈", "min_price": 1000.0, "price_color": "#91cf60" }, "geometry": { "type": "LineString", "coordinates": [ [ 121.509168050000014, 25.1102608 ], [ 121.510401464621651, 25.110468812258336 ] ] } },
{ "type": "Feature", "properties": { "hotel_name": "松林旅社", "biz_area": "承德路中古汽車商圈", "min_price": 850.0, "price_color": "#fc8d59" }, "geometry": { "type": "LineString", "coordinates": [ [ 121.501236, 25.0868635 ], [ 121.515004641858084, 25.092714858683003 ] ] } },
{ "type": "Feature", "properties": { "hotel_name": "龍山旅社", "biz_area": "承德路中古汽車商圈", "min_price": 2600.0, "price_color": "#fee08b" }, "geometry": { "type": "LineString", "coordinates": [ [ 121.502511500000011, 25.086451 ], [ 121.515348249868282, 25.091906325846765 ] ] } },
{ "type": "Feature", "properties": { "hotel_name": "美上美旅館", "biz_area": "承德路中古汽車商圈", "min_price": 1500.0, "price_color": "#fee08b" }, "geometry": { "type": "LineString", "coordinates": [ [ 121.5022305, 25.0860605 ], [ 121.515445829800413, 25.091676713681309 ] ] } },
{ "type": "Feature", "properties": { "hotel_name": "唐門客棧", "biz_area": "承德路中古汽車商圈", "min_price": 2000.0, "price_color": "#91cf60" }, "geometry": { "type": "LineString", "coordinates": [ [ 121.5210016, 25.08528255 ], [ 121.522495199487281, 25.085985118346876 ] ] } },
{ "type": "Feature", "properties": { "hotel_name": "力歐時尚旅館西門館", "biz_area": "承德路中古汽車商圈", "min_price": 800.0, "price_color": "#d73027" }, "geometry": { "type": "LineString", "coordinates": [ [ 121.50535905000001, 25.0894168 ], [ 121.514716274353361, 25.093393406882015 ] ] } },
{ "type": "Feature", "properties": { "hotel_name": "古山園旅社", "biz_area": "承德路中古汽車商圈", "min_price": 1000.0, "price_color": "#d73027" }, "geometry": { "type": "LineString", "coordinates": [ [ 121.501589, 25.086278 ], [ 121.515269402520332, 25.092091858977479 ] ] } },
{ "type": "Feature", "properties": { "hotel_name": "銀座飯店", "biz_area": "士林捷運站周邊", "min_price": 1680.0, "price_color": "#fc8d59" }, "geometry": { "type": "LineString", "coordinates": [ [ 121.5208656, 25.09561455 ], [ 121.524204255128026, 25.096516756159932 ] ] } },
{ "type": "Feature", "properties": { "hotel_name": "星美飯店", "biz_area": "天母商圈", "min_price": 1900.0, "price_color": "#d73027" }, "geometry": { "type": "LineString", "coordinates": [ [ 121.51871460000001, 25.11016455 ], [ 121.5214506, 25.1087212 ] ] } },
{ "type": "Feature", "properties": { "hotel_name": "瑪奇商務旅店", "biz_area": "中山商圈", "min_price": 2380.0, "price_color": "#1a9850" }, "geometry": { "type": "LineString", "coordinates": [ [ 121.5290646, 25.06407055 ], [ 121.528033412408973, 25.064084119422564 ] ] } },
{ "type": "Feature", "properties": { "hotel_name": "富順大飯店", "biz_area": "承德路中古汽車商圈", "min_price": 1600.0, "price_color": "#fc8d59" }, "geometry": { "type": "LineString", "coordinates": [ [ 121.50965205, 25.0946498 ], [ 121.513489305985274, 25.096280546253681 ] ] } },
{ "type": "Feature", "properties": { "hotel_name": "新月商旅", "biz_area": "士林觀光夜市商圈", "min_price": 2000.0, "price_color": "#91cf60" }, "geometry": { "type": "LineString", "coordinates": [ [ 121.521946100000022, 25.09321955 ], [ 121.523949643851623, 25.09096007901406 ] ] } },
{ "type": "Feature", "properties": { "hotel_name": "雅莊旅館", "biz_area": "天母商圈", "min_price": 2880.0, "price_color": "#fee08b" }, "geometry": { "type": "LineString", "coordinates": [ [ 121.5278181, 25.10179555 ], [ 121.5275425, 25.1006481 ] ] } },
{ "type": "Feature", "properties": { "hotel_name": "鴨川旅館", "biz_area": "士林捷運站周邊", "min_price": 2000.0, "price_color": "#91cf60" }, "geometry": { "type": "LineString", "coordinates": [ [ 121.5204996, 25.09611755 ], [ 121.524052671580122, 25.097077698006718 ] ] } },
{ "type": "Feature", "properties": { "hotel_name": "瑞沂國際飯店", "biz_area": "士林捷運站周邊", "min_price": 1650.0, "price_color": "#fee08b" }, "geometry": { "type": "LineString", "coordinates": [ [ 121.5246826, 25.09327655 ], [ 121.525090273159748, 25.093558727458955 ] ] } },
{ "type": "Feature", "properties": { "hotel_name": "百悅旅社", "biz_area": "承德路中古汽車商圈", "min_price": 1380.0, "price_color": "#91cf60" }, "geometry": { "type": "LineString", "coordinates": [ [ 121.50705705, 25.0907358 ], [ 121.51450123506946, 25.093899408828889 ] ] } },
{ "type": "Feature", "properties": { "hotel_name": "緒遠旅館", "biz_area": "天母商圈", "min_price": 980.0, "price_color": "#91cf60" }, "geometry": { "type": "LineString", "coordinates": [ [ 121.5201381, 25.09794755 ], [ 121.522298741084555, 25.100668248917152 ] ] } },
{ "type": "Feature", "properties": { "hotel_name": "貴族商務旅館", "biz_area": "行義路溫泉美食商圈", "min_price": 2280.0, "price_color": "#fee08b" }, "geometry": { "type": "LineString", "coordinates": [ [ 121.5236496, 25.12241155 ], [ 121.523281964258757, 25.122668430776507 ] ] } },
{ "type": "Feature", "properties": { "hotel_name": "香榭峇里賓館", "biz_area": "士林觀光夜市商圈", "min_price": 880.0, "price_color": "#d73027" }, "geometry": { "type": "LineString", "coordinates": [ [ 121.529847600000025, 25.08876305 ], [ 121.52737911376488, 25.088808298619657 ] ] } },
{ "type": "Feature", "properties": { "hotel_name": "高雅賓館", "biz_area": "士林觀光夜市商圈", "min_price": 1680.0, "price_color": "#d73027" }, "geometry": { "type": "LineString", "coordinates": [ [ 121.5343371, 25.08023705 ], [ 121.525871203749077, 25.08600513003935 ] ] } },
{ "type": "Feature", "properties": { "hotel_name": "情覓汽車旅館 ", "biz_area": "天母商圈", "min_price": 2200.0, "price_color": "#1a9850" }, "geometry": { "type": "LineString", "coordinates": [ [ 121.538031600000011, 25.10969255 ], [ 121.537896010143413, 25.11040654026322 ] ] } },
{ "type": "Feature", "properties": { "hotel_name": "百樂匯大飯店", "biz_area": "新北投溫泉商圈", "min_price": 2500.0, "price_color": "#fee08b" }, "geometry": { "type": "LineString", "coordinates": [ [ 121.508949897141008, 25.136105682451301 ], [ 121.509012794282015, 25.135957364902602 ] ] } },
{ "type": "Feature", "properties": { "hotel_name": "馥麗精品旅館", "biz_area": "天母商圈", "min_price": 2180.0, "price_color": "#1a9850" }, "geometry": { "type": "LineString", "coordinates": [ [ 121.5421116, 25.10896405 ], [ 121.5400532, 25.1108162 ] ] } },
{ "type": "Feature", "properties": { "hotel_name": "溫拿旅館", "biz_area": "承德路中古汽車商圈", "min_price": 1980.0, "price_color": "#fc8d59" }, "geometry": { "type": "LineString", "coordinates": [ [ 121.503904, 25.1271115 ], [ 121.500112, 25.121253 ] ] } },
{ "type": "Feature", "properties": { "hotel_name": "友徠精品旅館", "biz_area": "西湖商圈", "min_price": 2280.0, "price_color": "#1a9850" }, "geometry": { "type": "LineString", "coordinates": [ [ 121.5563101, 25.09593405 ], [ 121.5612709, 25.0866178 ] ] } },
{ "type": "Feature", "properties": { "hotel_name": "多郎明哥旅館", "biz_area": "士林觀光夜市商圈", "min_price": 2580.0, "price_color": "#fee08b" }, "geometry": { "type": "LineString", "coordinates": [ [ 121.5265501, 25.08468055 ], [ 121.525587, 25.085588 ] ] } },
{ "type": "Feature", "properties": { "hotel_name": "台北青年國際旅館", "biz_area": "承德路中古汽車商圈", "min_price": 2200.0, "price_color": "#d73027" }, "geometry": { "type": "LineString", "coordinates": [ [ 121.5163466, 25.09064605 ], [ 121.516472675532441, 25.090924464720334 ] ] } },
{ "type": "Feature", "properties": { "hotel_name": "東鑫商務旅館", "biz_area": "士林觀光夜市商圈", "min_price": 1780.0, "price_color": "#91cf60" }, "geometry": { "type": "LineString", "coordinates": [ [ 121.534085099999984, 25.08865555 ], [ 121.527378567251034, 25.088778484187458 ] ] } },
{ "type": "Feature", "properties": { "hotel_name": "正二旅館", "biz_area": "承德路中古汽車商圈", "min_price": 2000.0, "price_color": "#fee08b" }, "geometry": { "type": "LineString", "coordinates": [ [ 121.510742550000018, 25.0901668 ], [ 121.515269852451283, 25.092090800259566 ] ] } },
{ "type": "Feature", "properties": { "hotel_name": "豪爵旅館", "biz_area": "天母商圈", "min_price": 1780.0, "price_color": "#d73027" }, "geometry": { "type": "LineString", "coordinates": [ [ 121.5238401, 25.10041355 ], [ 121.523970560691566, 25.099801039571641 ] ] } },
{ "type": "Feature", "properties": { "hotel_name": "安庭台北商務旅館", "biz_area": "士林觀光夜市商圈", "min_price": 1000.0, "price_color": "#d73027" }, "geometry": { "type": "LineString", "coordinates": [ [ 121.5338871, 25.08865905 ], [ 121.527378564879101, 25.088778354789312 ] ] } },
{ "type": "Feature", "properties": { "hotel_name": "新驛旅店西門捷運店", "biz_area": "承德路中古汽車商圈", "min_price": 2200.0, "price_color": "#1a9850" }, "geometry": { "type": "LineString", "coordinates": [ [ 121.50804305, 25.0886708 ], [ 121.51539539905886, 25.091795380619466 ] ] } },
{ "type": "Feature", "properties": { "hotel_name": "東門大旅社", "biz_area": "承德路中古汽車商圈", "min_price": 650.0, "price_color": "#fee08b" }, "geometry": { "type": "LineString", "coordinates": [ [ 121.521971600000015, 25.08504955 ], [ 121.522760682905115, 25.085420723582278 ] ] } },
{ "type": "Feature", "properties": { "hotel_name": "西門航棧旅館", "biz_area": "承德路中古汽車商圈", "min_price": 2280.0, "price_color": "#91cf60" }, "geometry": { "type": "LineString", "coordinates": [ [ 121.50740505, 25.0892003 ], [ 121.515107197989451, 25.092473537184933 ] ] } },
{ "type": "Feature", "properties": { "hotel_name": " Happ& Tomorrow 本來", "biz_area": "承德路中古汽車商圈", "min_price": 800.0, "price_color": "#d73027" }, "geometry": { "type": "LineString", "coordinates": [ [ 121.5179131, 25.09241105 ], [ 121.517343518275453, 25.091147709573086 ] ] } },
{ "type": "Feature", "properties": { "hotel_name": "俞美飯店", "biz_area": "承德路中古汽車商圈", "min_price": 1500.0, "price_color": "#91cf60" }, "geometry": { "type": "LineString", "coordinates": [ [ 121.505879550000017, 25.0901583 ], [ 121.514528984573758, 25.093834112372615 ] ] } },
{ "type": "Feature", "properties": { "hotel_name": "西門邑居自由旅行會館", "biz_area": "承德路中古汽車商圈", "min_price": 2300.0, "price_color": "#1a9850" }, "geometry": { "type": "LineString", "coordinates": [ [ 121.50684155, 25.0907268 ], [ 121.514471508195513, 25.093969358169385 ] ] } },
{ "type": "Feature", "properties": { "hotel_name": "柯達大飯店台北松江 ", "biz_area": "士林捷運站周邊", "min_price": 2000.0, "price_color": "#fee08b" }, "geometry": { "type": "LineString", "coordinates": [ [ 121.5247731, 25.09750805 ], [ 121.524772353220101, 25.097442387259662 ] ] } },
{ "type": "Feature", "properties": { "hotel_name": "三隻老虎青年旅館", "biz_area": "承德路中古汽車商圈", "min_price": 1700.0, "price_color": "#91cf60" }, "geometry": { "type": "LineString", "coordinates": [ [ 121.50561405, 25.0894508 ], [ 121.514743044686966, 25.093330414480452 ] ] } },
{ "type": "Feature", "properties": { "hotel_name": "龍蝦先生的秘密巢穴", "biz_area": "承德路中古汽車商圈", "min_price": 640.0, "price_color": "#1a9850" }, "geometry": { "type": "LineString", "coordinates": [ [ 121.51005255, 25.0928613 ], [ 121.514194371452149, 25.094621479628998 ] ] } },
{ "type": "Feature", "properties": { "hotel_name": "途中‧台北國際青年旅舍", "biz_area": "新北投溫泉商圈", "min_price": 2000.0, "price_color": "#fee08b" }, "geometry": { "type": "LineString", "coordinates": [ [ 121.502372699999981, 25.1343417 ], [ 121.5041154, 25.1356644 ] ] } },
{ "type": "Feature", "properties": { "hotel_name": "安庭澔思青年旅舍", "biz_area": "承德路中古汽車商圈", "min_price": 2500.0, "price_color": "#1a9850" }, "geometry": { "type": "LineString", "coordinates": [ [ 121.516651100000018, 25.09384455 ], [ 121.515614536633151, 25.093399738540139 ] ] } },
{ "type": "Feature", "properties": { "hotel_name": "卡樂町旅店", "biz_area": "承德路中古汽車商圈", "min_price": 2288.0, "price_color": "#fee08b" }, "geometry": { "type": "LineString", "coordinates": [ [ 121.50595805, 25.0888988 ], [ 121.514994369714046, 25.092739029731163 ] ] } },
{ "type": "Feature", "properties": { "hotel_name": "台北西門窩青年旅館", "biz_area": "承德路中古汽車商圈", "min_price": 1400.0, "price_color": "#d73027" }, "geometry": { "type": "LineString", "coordinates": [ [ 121.50700205, 25.0897383 ], [ 121.514851886829931, 25.093074301572884 ] ] } },
{ "type": "Feature", "properties": { "hotel_name": "沃田旅店", "biz_area": "行義路溫泉美食商圈", "min_price": 2400.0, "price_color": "#d73027" }, "geometry": { "type": "LineString", "coordinates": [ [ 121.5239521, 25.12918805 ], [ 121.526562822273675, 25.12736384117137 ] ] } },
{ "type": "Feature", "properties": { "hotel_name": "瘋台北青旅", "biz_area": "承德路中古汽車商圈", "min_price": 1000.0, "price_color": "#d73027" }, "geometry": { "type": "LineString", "coordinates": [ [ 121.50869355, 25.0904918 ], [ 121.514839413636508, 25.093103651838746 ] ] } },
{ "type": "Feature", "properties": { "hotel_name": "品格子旅店西門館", "biz_area": "承德路中古汽車商圈", "min_price": 750.0, "price_color": "#91cf60" }, "geometry": { "type": "LineString", "coordinates": [ [ 121.50669505, 25.0905708 ], [ 121.514505251656558, 25.093889957528404 ] ] } },
{ "type": "Feature", "properties": { "hotel_name": "台北叙美精品旅店", "biz_area": "承德路中古汽車商圈", "min_price": 2053.0, "price_color": "#91cf60" }, "geometry": { "type": "LineString", "coordinates": [ [ 121.50998955, 25.0889933 ], [ 121.515577080116515, 25.091367872830116 ] ] } },
{ "type": "Feature", "properties": { "hotel_name": "朵兒旅館", "biz_area": "士林觀光夜市商圈", "min_price": 2000.0, "price_color": "#1a9850" }, "geometry": { "type": "LineString", "coordinates": [ [ 121.5232781, 25.09133555 ], [ 121.523760088148833, 25.090791994021938 ] ] } },
{ "type": "Feature", "properties": { "hotel_name": "東楓商旅", "biz_area": "士林觀光夜市商圈", "min_price": 2000.0, "price_color": "#fc8d59" }, "geometry": { "type": "LineString", "coordinates": [ [ 121.534085099999984, 25.08865555 ], [ 121.527378567251034, 25.088778484187458 ] ] } },
{ "type": "Feature", "properties": { "hotel_name": "璞邸旅店", "biz_area": "承德路中古汽車商圈", "min_price": 2790.0, "price_color": "#91cf60" }, "geometry": { "type": "LineString", "coordinates": [ [ 121.51001755, 25.0908153 ], [ 121.514925506490883, 25.092901069542471 ] ] } },
{ "type": "Feature", "properties": { "hotel_name": "浩室物業1館", "biz_area": "承德路中古汽車商圈", "min_price": 2400.0, "price_color": "#91cf60" }, "geometry": { "type": "LineString", "coordinates": [ [ 121.50497305, 25.0855213 ], [ 121.515597, 25.091321 ] ] } },
{ "type": "Feature", "properties": { "hotel_name": "約克旅店", "biz_area": "承德路中古汽車商圈", "min_price": 2280.0, "price_color": "#1a9850" }, "geometry": { "type": "LineString", "coordinates": [ [ 121.5161541, 25.09033855 ], [ 121.516428483746083, 25.090944476244825 ] ] } },
{ "type": "Feature", "properties": { "hotel_name": "福爾摩莎壹零壹旅館", "biz_area": "士林觀光夜市商圈", "min_price": 1650.0, "price_color": "#d73027" }, "geometry": { "type": "LineString", "coordinates": [ [ 121.5366336, 25.08213705 ], [ 121.527368, 25.088202 ] ] } },
{ "type": "Feature", "properties": { "hotel_name": "沃客商旅-西門館", "biz_area": "承德路中古汽車商圈", "min_price": 980.0, "price_color": "#91cf60" }, "geometry": { "type": "LineString", "coordinates": [ [ 121.50740505, 25.0892003 ], [ 121.515107197989451, 25.092473537184933 ] ] } },
{ "type": "Feature", "properties": { "hotel_name": "天使青旅", "biz_area": "承德路中古汽車商圈", "min_price": 399.0, "price_color": "#d73027" }, "geometry": { "type": "LineString", "coordinates": [ [ 121.50942105, 25.0888158 ], [ 121.515554006502413, 25.091422166601209 ] ] } },
{ "type": "Feature", "properties": { "hotel_name": "丰居旅店忠孝館", "biz_area": "士林觀光夜市商圈", "min_price": 2420.0, "price_color": "#91cf60" }, "geometry": { "type": "LineString", "coordinates": [ [ 121.529576600000013, 25.08947505 ], [ 121.527392069678939, 25.089515093562007 ] ] } },
{ "type": "Feature", "properties": { "hotel_name": "怡品商旅", "biz_area": "士林觀光夜市商圈", "min_price": 1000.0, "price_color": "#fee08b" }, "geometry": { "type": "LineString", "coordinates": [ [ 121.5318886, 25.08869905 ], [ 121.527378626567483, 25.088781720127788 ] ] } },
{ "type": "Feature", "properties": { "hotel_name": "姆提文創旅店", "biz_area": "士林觀光夜市商圈", "min_price": 2380.0, "price_color": "#91cf60" }, "geometry": { "type": "LineString", "coordinates": [ [ 121.5292336, 25.08474105 ], [ 121.526349009118206, 25.086706412035369 ] ] } },
{ "type": "Feature", "properties": { "hotel_name": "米尼旅店", "biz_area": "承德路中古汽車商圈", "min_price": 1000.0, "price_color": "#1a9850" }, "geometry": { "type": "LineString", "coordinates": [ [ 121.5175571, 25.09083055 ], [ 121.517639856230545, 25.091014104505195 ] ] } },
{ "type": "Feature", "properties": { "hotel_name": "綺樂文旅 開封館", "biz_area": "承德路中古汽車商圈", "min_price": 2300.0, "price_color": "#d73027" }, "geometry": { "type": "LineString", "coordinates": [ [ 121.50969955, 25.0906573 ], [ 121.514933734311995, 25.092881708924146 ] ] } },
{ "type": "Feature", "properties": { "hotel_name": "獅城旅館", "biz_area": "承德路中古汽車商圈", "min_price": 600.0, "price_color": "#d73027" }, "geometry": { "type": "LineString", "coordinates": [ [ 121.515771599999979, 25.09296905 ], [ 121.515795038238764, 25.092979107848411 ] ] } },
{ "type": "Feature", "properties": { "hotel_name": "日日吉旅店", "biz_area": "天母商圈", "min_price": 980.0, "price_color": "#d73027" }, "geometry": { "type": "LineString", "coordinates": [ [ 121.517025100000012, 25.10079355 ], [ 121.519270375452891, 25.103273051840251 ] ] } },
{ "type": "Feature", "properties": { "hotel_name": "背包棧旅店-台北長春店", "biz_area": "士林捷運站周邊", "min_price": 2500.0, "price_color": "#91cf60" }, "geometry": { "type": "LineString", "coordinates": [ [ 121.5275356, 25.09489755 ], [ 121.528458055190782, 25.094849027485676 ] ] } },
{ "type": "Feature", "properties": { "hotel_name": "台北北門窩泊旅", "biz_area": "承德路中古汽車商圈", "min_price": 540.0, "price_color": "#fc8d59" }, "geometry": { "type": "LineString", "coordinates": [ [ 121.5157716, 25.09393855 ], [ 121.515443701962653, 25.09379784195519 ] ] } },
{ "type": "Feature", "properties": { "hotel_name": "斯格加旅店", "biz_area": "承德路中古汽車商圈", "min_price": 1500.0, "price_color": "#fee08b" }, "geometry": { "type": "LineString", "coordinates": [ [ 121.5203491, 25.09256305 ], [ 121.519311050135215, 25.090260640525102 ] ] } },
{ "type": "Feature", "properties": { "hotel_name": "卡夫人背包客棧", "biz_area": "承德路中古汽車商圈", "min_price": 300.0, "price_color": "#fc8d59" }, "geometry": { "type": "LineString", "coordinates": [ [ 121.51078305, 25.0899583 ], [ 121.515351100812182, 25.091899617383355 ] ] } },
{ "type": "Feature", "properties": { "hotel_name": "福爾摩沙正旅館", "biz_area": "承德路中古汽車商圈", "min_price": 1600.0, "price_color": "#fee08b" }, "geometry": { "type": "LineString", "coordinates": [ [ 121.51002055, 25.0910223 ], [ 121.514851452581468, 25.09307532338881 ] ] } },
{ "type": "Feature", "properties": { "hotel_name": "大安公園旅店", "biz_area": "承德路中古汽車商圈", "min_price": 650.0, "price_color": "#fc8d59" }, "geometry": { "type": "LineString", "coordinates": [ [ 121.5240706, 25.08472555 ], [ 121.523723966451726, 25.084664527128968 ] ] } },
{ "type": "Feature", "properties": { "hotel_name": "帛堯初見輕旅", "biz_area": "承德路中古汽車商圈", "min_price": 1600.0, "price_color": "#d73027" }, "geometry": { "type": "LineString", "coordinates": [ [ 121.507269549999975, 25.0917898 ], [ 121.514154339154601, 25.094715678326693 ] ] } },
{ "type": "Feature", "properties": { "hotel_name": "旅樂序精品旅館二館", "biz_area": "承德路中古汽車商圈", "min_price": 2488.0, "price_color": "#fc8d59" }, "geometry": { "type": "LineString", "coordinates": [ [ 121.51052955, 25.0902358 ], [ 121.515212430717781, 25.092225917473598 ] ] } },
{ "type": "Feature", "properties": { "hotel_name": "東門3號膠囊旅店", "biz_area": "承德路中古汽車商圈", "min_price": 650.0, "price_color": "#fc8d59" }, "geometry": { "type": "LineString", "coordinates": [ [ 121.5219301, 25.08471955 ], [ 121.522779296988361, 25.084456489638345 ] ] } },
{ "type": "Feature", "properties": { "hotel_name": "柯達大飯店台北天津 ", "biz_area": "承德路中古汽車商圈", "min_price": 1500.0, "price_color": "#fee08b" }, "geometry": { "type": "LineString", "coordinates": [ [ 121.5196506, 25.09224255 ], [ 121.518850636585825, 25.090468219684194 ] ] } },
{ "type": "Feature", "properties": { "hotel_name": "愛玩客旅店", "biz_area": "承德路中古汽車商圈", "min_price": 500.0, "price_color": "#d73027" }, "geometry": { "type": "LineString", "coordinates": [ [ 121.50669505, 25.0905708 ], [ 121.514505251656558, 25.093889957528404 ] ] } },
{ "type": "Feature", "properties": { "hotel_name": "柯達大飯店 台北長安", "biz_area": "士林觀光夜市商圈", "min_price": 1000.0, "price_color": "#91cf60" }, "geometry": { "type": "LineString", "coordinates": [ [ 121.524663599999982, 25.09214555 ], [ 121.524803368939942, 25.091308768537356 ] ] } },
{ "type": "Feature", "properties": { "hotel_name": "慕誠行旅", "biz_area": "士林觀光夜市商圈", "min_price": 100.0, "price_color": "#91cf60" }, "geometry": { "type": "LineString", "coordinates": [ [ 121.5373096, 25.08357355 ], [ 121.527368, 25.088202 ] ] } },
{ "type": "Feature", "properties": { "hotel_name": "旅晨行旅", "biz_area": "承德路中古汽車商圈", "min_price": 1300.0, "price_color": "#fee08b" }, "geometry": { "type": "LineString", "coordinates": [ [ 121.51002055, 25.0910223 ], [ 121.514851452581468, 25.09307532338881 ] ] } },
{ "type": "Feature", "properties": { "hotel_name": "台灣柒天精品旅店", "biz_area": "臺北大橋頭延三商圈", "min_price": 2000.0, "price_color": "#91cf60" }, "geometry": { "type": "LineString", "coordinates": [ [ 121.4981085, 25.0837085 ], [ 121.509182, 25.068713 ] ] } },
{ "type": "Feature", "properties": { "hotel_name": "台北這地方微旅店", "biz_area": "天母商圈", "min_price": 1500.0, "price_color": "#fee08b" }, "geometry": { "type": "LineString", "coordinates": [ [ 121.5231516, 25.09839105 ], [ 121.5233389, 25.0996665 ] ] } },
{ "type": "Feature", "properties": { "hotel_name": "文舺行旅", "biz_area": "承德路中古汽車商圈", "min_price": 2600.0, "price_color": "#fc8d59" }, "geometry": { "type": "LineString", "coordinates": [ [ 121.502441500000018, 25.0864485 ], [ 121.51533844138558, 25.091929405868456 ] ] } },
{ "type": "Feature", "properties": { "hotel_name": "漫映旅舍", "biz_area": "士林捷運站周邊", "min_price": 1500.0, "price_color": "#fee08b" }, "geometry": { "type": "LineString", "coordinates": [ [ 121.5230551, 25.09361505 ], [ 121.524861065434976, 25.094064250853233 ] ] } },
{ "type": "Feature", "properties": { "hotel_name": "合星旅館", "biz_area": "士林觀光夜市商圈", "min_price": 1000.0, "price_color": "#fc8d59" }, "geometry": { "type": "LineString", "coordinates": [ [ 121.5329466, 25.08884255 ], [ 121.527381611489346, 25.088944559095669 ] ] } },
{ "type": "Feature", "properties": { "hotel_name": "慶爾喜旅館長沙一館", "biz_area": "承德路中古汽車商圈", "min_price": 2200.0, "price_color": "#fc8d59" }, "geometry": { "type": "LineString", "coordinates": [ [ 121.506797049999989, 25.0879793 ], [ 121.515453705689751, 25.091658181182193 ] ] } },
{ "type": "Feature", "properties": { "hotel_name": "泊居旅店二館 ", "biz_area": "承德路中古汽車商圈", "min_price": 1500.0, "price_color": "#1a9850" }, "geometry": { "type": "LineString", "coordinates": [ [ 121.5204091, 25.09277905 ], [ 121.519279981105626, 25.090274648112505 ] ] } },
{ "type": "Feature", "properties": { "hotel_name": "睡覺盒子旅館", "biz_area": "承德路中古汽車商圈", "min_price": 1300.0, "price_color": "#1a9850" }, "geometry": { "type": "LineString", "coordinates": [ [ 121.50960955, 25.0887258 ], [ 121.515597, 25.091321 ] ] } },
{ "type": "Feature", "properties": { "hotel_name": "謙匯普樂室行旅", "biz_area": "大直商圈", "min_price": 580.0, "price_color": "#fc8d59" }, "geometry": { "type": "LineString", "coordinates": [ [ 121.5446381, 25.08446505 ], [ 121.548974001860572, 25.083079038779829 ] ] } },
{ "type": "Feature", "properties": { "hotel_name": "米窩飯店-大安", "biz_area": "士林觀光夜市商圈", "min_price": 2000.0, "price_color": "#fc8d59" }, "geometry": { "type": "LineString", "coordinates": [ [ 121.5322211, 25.08869355 ], [ 121.527378637468559, 25.088782314823629 ] ] } },
{ "type": "Feature", "properties": { "hotel_name": "福爾摩莎北驛旅館", "biz_area": "承德路中古汽車商圈", "min_price": 2000.0, "price_color": "#fc8d59" }, "geometry": { "type": "LineString", "coordinates": [ [ 121.509622549999989, 25.0902463 ], [ 121.515069900861249, 25.092561299844572 ] ] } },
{ "type": "Feature", "properties": { "hotel_name": "陽明山美國渡假村", "biz_area": "行義路溫泉美食商圈", "min_price": 2880.0, "price_color": "#fee08b" }, "geometry": { "type": "LineString", "coordinates": [ [ 121.52888425, 25.1369898 ], [ 121.528897869589642, 25.136990225727466 ] ] } },
{ "type": "Feature", "properties": { "hotel_name": "五月家青旅 北車館", "biz_area": "承德路中古汽車商圈", "min_price": 600.0, "price_color": "#91cf60" }, "geometry": { "type": "LineString", "coordinates": [ [ 121.508823049999975, 25.0913113 ], [ 121.514564232512839, 25.093751171593262 ] ] } },
{ "type": "Feature", "properties": { "hotel_name": "拉開門輕旅", "biz_area": "承德路中古汽車商圈", "min_price": 700.0, "price_color": "#fee08b" }, "geometry": { "type": "LineString", "coordinates": [ [ 121.5207106, 25.09043005 ], [ 121.520410696926035, 25.089764860684472 ] ] } },
{ "type": "Feature", "properties": { "hotel_name": "松河璞旅", "biz_area": "大直商圈", "min_price": 2600.0, "price_color": "#d73027" }, "geometry": { "type": "LineString", "coordinates": [ [ 121.5456286, 25.09331105 ], [ 121.549779082956988, 25.08493389515063 ] ] } },
{ "type": "Feature", "properties": { "hotel_name": "碩城文旅", "biz_area": "承德路中古汽車商圈", "min_price": 1280.0, "price_color": "#fee08b" }, "geometry": { "type": "LineString", "coordinates": [ [ 121.5200291, 25.09308155 ], [ 121.518850830834367, 25.090468132106515 ] ] } },
{ "type": "Feature", "properties": { "hotel_name": "野趣旅舍 T.O.HOTEL", "biz_area": "承德路中古汽車商圈", "min_price": 2680.0, "price_color": "#fee08b" }, "geometry": { "type": "LineString", "coordinates": [ [ 121.517059100000012, 25.09568005 ], [ 121.515012818994805, 25.094801947155254 ] ] } },
{ "type": "Feature", "properties": { "hotel_name": "小角落旅店", "biz_area": "天母商圈", "min_price": 600.0, "price_color": "#1a9850" }, "geometry": { "type": "LineString", "coordinates": [ [ 121.5178281, 25.10213905 ], [ 121.51913339546401, 25.103399856293922 ] ] } },
{ "type": "Feature", "properties": { "hotel_name": "丹居青旅", "biz_area": "承德路中古汽車商圈", "min_price": 1500.0, "price_color": "#fc8d59" }, "geometry": { "type": "LineString", "coordinates": [ [ 121.50667805, 25.0882813 ], [ 121.51532679186117, 25.091956817985576 ] ] } },
{ "type": "Feature", "properties": { "hotel_name": "華達大飯店 ", "biz_area": "承德路中古汽車商圈", "min_price": 2000.0, "price_color": "#91cf60" }, "geometry": { "type": "LineString", "coordinates": [ [ 121.51002055, 25.0910223 ], [ 121.514851452581468, 25.09307532338881 ] ] } },
{ "type": "Feature", "properties": { "hotel_name": "野趣光延旅館", "biz_area": "承德路中古汽車商圈", "min_price": 1480.0, "price_color": "#91cf60" }, "geometry": { "type": "LineString", "coordinates": [ [ 121.51052405, 25.0905828 ], [ 121.515086681345167, 25.092521814233507 ] ] } },
{ "type": "Feature", "properties": { "hotel_name": "大昌旺商旅", "biz_area": "承德路中古汽車商圈", "min_price": 1000.0, "price_color": "#91cf60" }, "geometry": { "type": "LineString", "coordinates": [ [ 121.5196026, 25.09281455 ], [ 121.518596422186107, 25.090582833190666 ] ] } },
{ "type": "Feature", "properties": { "hotel_name": "所在行旅", "biz_area": "承德路中古汽車商圈", "min_price": 800.0, "price_color": "#91cf60" }, "geometry": { "type": "LineString", "coordinates": [ [ 121.515988099999987, 25.09097155 ], [ 121.516052864016913, 25.091114569468669 ] ] } },
{ "type": "Feature", "properties": { "hotel_name": "瑞絲逸旅店", "biz_area": "承德路中古汽車商圈", "min_price": 1580.0, "price_color": "#1a9850" }, "geometry": { "type": "LineString", "coordinates": [ [ 121.5204091, 25.09277905 ], [ 121.519279981105626, 25.090274648112505 ] ] } },
{ "type": "Feature", "properties": { "hotel_name": "柯達大飯店台北林森", "biz_area": "承德路中古汽車商圈", "min_price": 1000.0, "price_color": "#1a9850" }, "geometry": { "type": "LineString", "coordinates": [ [ 121.5203591, 25.09259905 ], [ 121.519305871963624, 25.090262975122997 ] ] } },
{ "type": "Feature", "properties": { "hotel_name": "陸號行旅萬年館", "biz_area": "承德路中古汽車商圈", "min_price": 1880.0, "price_color": "#d73027" }, "geometry": { "type": "LineString", "coordinates": [ [ 121.506352549999988, 25.0893688 ], [ 121.514885535431091, 25.092995124143581 ] ] } },
{ "type": "Feature", "properties": { "hotel_name": "西門希爾商旅", "biz_area": "承德路中古汽車商圈", "min_price": 600.0, "price_color": "#91cf60" }, "geometry": { "type": "LineString", "coordinates": [ [ 121.50675705, 25.0893448 ], [ 121.514956053833515, 25.092829189583785 ] ] } },
{ "type": "Feature", "properties": { "hotel_name": "希爾商旅台北館", "biz_area": "士林捷運站周邊", "min_price": 2000.0, "price_color": "#fc8d59" }, "geometry": { "type": "LineString", "coordinates": [ [ 121.522288099999983, 25.09398805 ], [ 121.5247290063311, 25.094595180781891 ] ] } },
{ "type": "Feature", "properties": { "hotel_name": "苓旅旅館萬年館", "biz_area": "承德路中古汽車商圈", "min_price": 1280.0, "price_color": "#d73027" }, "geometry": { "type": "LineString", "coordinates": [ [ 121.506352549999988, 25.0893688 ], [ 121.514885535431091, 25.092995124143581 ] ] } },
{ "type": "Feature", "properties": { "hotel_name": "客憩旅宿", "biz_area": "承德路中古汽車商圈", "min_price": 1000.0, "price_color": "#fc8d59" }, "geometry": { "type": "LineString", "coordinates": [ [ 121.51000105, 25.0898493 ], [ 121.515270708958738, 25.092088784839724 ] ] } },
{ "type": "Feature", "properties": { "hotel_name": "豐宿創新壹旅", "biz_area": "承德路中古汽車商圈", "min_price": 2500.0, "price_color": "#fc8d59" }, "geometry": { "type": "LineString", "coordinates": [ [ 121.50977855, 25.0946648 ], [ 121.513503258105814, 25.096247715972485 ] ] } },
{ "type": "Feature", "properties": { "hotel_name": "日初青旅", "biz_area": "承德路中古汽車商圈", "min_price": 1000.0, "price_color": "#fee08b" }, "geometry": { "type": "LineString", "coordinates": [ [ 121.51000505, 25.0900283 ], [ 121.515206887058014, 25.092238962079147 ] ] } },
{ "type": "Feature", "properties": { "hotel_name": "金通商旅", "biz_area": "承德路中古汽車商圈", "min_price": 2000.0, "price_color": "#1a9850" }, "geometry": { "type": "LineString", "coordinates": [ [ 121.51017855, 25.0924013 ], [ 121.514379230655763, 25.094186493447754 ] ] } },
{ "type": "Feature", "properties": { "hotel_name": "美好行旅", "biz_area": "承德路中古汽車商圈", "min_price": 800.0, "price_color": "#91cf60" }, "geometry": { "type": "LineString", "coordinates": [ [ 121.51052405, 25.0905828 ], [ 121.515086681345167, 25.092521814233507 ] ] } },
{ "type": "Feature", "properties": { "hotel_name": "頭等艙飯店西門館", "biz_area": "承德路中古汽車商圈", "min_price": 1200.0, "price_color": "#1a9850" }, "geometry": { "type": "LineString", "coordinates": [ [ 121.50759355, 25.0882933 ], [ 121.51546252280113, 25.091637433924092 ] ] } },
{ "type": "Feature", "properties": { "hotel_name": "日光樂居成都館", "biz_area": "承德路中古汽車商圈", "min_price": 2800.0, "price_color": "#fc8d59" }, "geometry": { "type": "LineString", "coordinates": [ [ 121.50555605, 25.0892283 ], [ 121.514814264320407, 25.093162829876743 ] ] } },
{ "type": "Feature", "properties": { "hotel_name": "享住青旅", "biz_area": "承德路中古汽車商圈", "min_price": 600.0, "price_color": "#d73027" }, "geometry": { "type": "LineString", "coordinates": [ [ 121.51077655, 25.0905328 ], [ 121.515143306330827, 25.092388571820941 ] ] } },
{ "type": "Feature", "properties": { "hotel_name": "古奈堡精品旅館", "biz_area": "承德路中古汽車商圈", "min_price": 2000.0, "price_color": "#fee08b" }, "geometry": { "type": "LineString", "coordinates": [ [ 121.50675705, 25.0893448 ], [ 121.514956053833515, 25.092829189583785 ] ] } },
{ "type": "Feature", "properties": { "hotel_name": "美好行旅北車漢口館", "biz_area": "承德路中古汽車商圈", "min_price": 350.0, "price_color": "#d73027" }, "geometry": { "type": "LineString", "coordinates": [ [ 121.509622549999989, 25.0902463 ], [ 121.515069900861249, 25.092561299844572 ] ] } }
]
}
