{
"type": "FeatureCollection",
"name": "metro_g_line_car_route_2",
"crs": { "type": "name", "properties": { "name": "urn:ogc:def:crs:OGC:1.3:CRS84" } },
"features": [
{ "type": "Feature", "properties": { "mrtid": "G", "mrtsys": "臺北捷運", "mrtcode": "松山新店線", "mrttype": null, "definition": null, "_ctime": "2024-05-01T08:00:24.435+08:00", "_mtime": "2024-09-23T16:32:17.213+08:00", "ogc_fid": 115, "tdx_update_time": "2024-04-12T00:05:10+08:00", "data_time": "2023-07-14T00:00:00+08:00" }, "geometry": { "type": "MultiLineString", "coordinates": [ [ [ 121.542529030000082, 24.970695961000047 ], [ 121.542528932000096, 24.970695829000078 ], [ 121.542518873000063, 24.970682164000038 ], [ 121.542504817, 24.970663578000028 ], [ 121.542490507000025, 24.970645159000071 ], [ 121.542475953, 24.970626897000045 ], [ 121.542461149000019, 24.970608812000023 ], [ 121.542446092000091, 24.970590886000025 ], [ 121.542430801000023, 24.97057314500006 ], [ 121.542415258, 24.97055557300007 ], [ 121.542399472000056, 24.970538174000069 ], [ 121.54238345400006, 24.97052096300007 ], [ 121.542367203000026, 24.970503939000025 ], [ 121.542350720000059, 24.970487099000025 ], [ 121.542334004000054, 24.970470445000046 ], [ 121.54231706600001, 24.970453985000063 ], [ 121.542299896000031, 24.970437712000034 ], [ 121.542282514000021, 24.970421652000027 ], [ 121.542264898000099, 24.970405778000043 ], [ 121.542247082000017, 24.97039010900005 ], [ 121.54222904300002, 24.970374642000024 ], [ 121.542210802000113, 24.970359390000056 ], [ 121.542192349000061, 24.970344342000033 ], [ 121.54217368500008, 24.970329507000031 ], [ 121.542154828000093, 24.970314876000032 ], [ 121.542135769000083, 24.970300467000072 ], [ 121.542116510000028, 24.970286282000075 ], [ 121.542097057000092, 24.97027231900006 ], [ 121.542077422000034, 24.970258570000055 ], [ 121.542057588000034, 24.970245052000053 ], [ 121.542038527000045, 24.970232371000066 ], [ 121.542037580000056, 24.970231756000032 ], [ 121.542017392000048, 24.97021869200006 ], [ 121.54199703300003, 24.970205842000041 ], [ 121.54197651000004, 24.970193215000052 ], [ 121.541955848000043, 24.970180790000029 ], [ 121.541935034000062, 24.970168561000037 ], [ 121.541914090000091, 24.970156526000039 ], [ 121.541893024000046, 24.970144667000056 ], [ 121.54187183800002, 24.970132985000077 ], [ 121.541850540000041, 24.97012146000003 ], [ 121.541829152000105, 24.970110092000027 ], [ 121.541807674000097, 24.97009887300004 ], [ 121.541786105000028, 24.970087783000054 ], [ 121.54176445500002, 24.970076824000046 ], [ 121.541742735000071, 24.97006598400003 ], [ 121.541720953000095, 24.970055246000072 ], [ 121.541699122000068, 24.970044611000048 ], [ 121.541677231000108, 24.970034059000056 ], [ 121.541655299000013, 24.970023591000029 ], [ 121.541641457000082, 24.970017040000073 ], [ 121.541284039000061, 24.969849285000066 ], [ 121.5412811220001, 24.969847862000051 ], [ 121.54126906800002, 24.969841916000064 ], [ 121.541259352000111, 24.969837098000028 ], [ 121.541237652000063, 24.96982623100007 ], [ 121.541216012000064, 24.969815271000073 ], [ 121.541194433000101, 24.969804199000066 ], [ 121.541172914000072, 24.969793026000048 ], [ 121.541151465000098, 24.969781752000074 ], [ 121.541130078000037, 24.969770375000053 ], [ 121.541108761000032, 24.969758895000041 ], [ 121.541087503000085, 24.969747314000074 ], [ 121.541066318000048, 24.969735641000057 ], [ 121.541045201000088, 24.969723857000076 ], [ 121.541024135000043, 24.969711980000056 ], [ 121.541003161000049, 24.9697 ], [ 121.540982246000112, 24.969687919000023 ], [ 121.540968357000111, 24.969679825000071 ], [ 121.540961392000099, 24.969675745000075 ], [ 121.54094061, 24.969663470000057 ], [ 121.540919897000094, 24.969651111000076 ], [ 121.540899234000108, 24.969638676000045 ], [ 121.540878624000015, 24.969626169000037 ], [ 121.5408580510001, 24.969613606000053 ], [ 121.540837509000085, 24.969600997000043 ], [ 121.540817010000069, 24.969588341000076 ], [ 121.540796528000101, 24.969575656000075 ], [ 121.540776067000024, 24.969562955000072 ], [ 121.540755618000048, 24.969550234000053 ], [ 121.540746089000095, 24.969544306000046 ], [ 121.540735157000086, 24.969537504000073 ], [ 121.540714705000028, 24.969524784000043 ], [ 121.540694255000062, 24.969512062000035 ], [ 121.540673805000097, 24.969499341000073 ], [ 121.540653354000028, 24.969486612000026 ], [ 121.540632904000063, 24.969473891000064 ], [ 121.540612453000108, 24.969461170000045 ], [ 121.540592003000029, 24.969448439000075 ], [ 121.540571552000074, 24.969435719000046 ], [ 121.540551092000101, 24.969422999000074 ], [ 121.540530652000029, 24.969410277000065 ], [ 121.540510200000085, 24.969397548000074 ], [ 121.540489751000109, 24.969384826000066 ], [ 121.540469290000033, 24.969372106000037 ], [ 121.540448839000078, 24.969359375000067 ], [ 121.540428390000102, 24.969346655000038 ], [ 121.540407948000052, 24.969333925000058 ], [ 121.540387487000089, 24.96932120300005 ], [ 121.540367038000113, 24.969308483000077 ], [ 121.540346587000045, 24.969295762000058 ], [ 121.540326137000079, 24.969283033000067 ], [ 121.540305687000114, 24.96927031000007 ], [ 121.540285236000045, 24.969257590000041 ], [ 121.54026478600008, 24.96924486000006 ], [ 121.540244335000011, 24.969232140000031 ], [ 121.540223885000046, 24.969219418000023 ], [ 121.540203434000091, 24.969206688000043 ], [ 121.540182973000014, 24.96919396800007 ], [ 121.540162523000049, 24.969181237000043 ], [ 121.540142083000092, 24.969168517000071 ], [ 121.540121632000023, 24.969155796000052 ], [ 121.54010117200005, 24.969143076000023 ], [ 121.540080721000095, 24.969130345000053 ], [ 121.540060269000037, 24.969117625000024 ], [ 121.540039819000071, 24.969104904000062 ], [ 121.540019368000117, 24.969092174000025 ], [ 121.539998918000038, 24.969079453000063 ], [ 121.539978467000083, 24.969066732000044 ], [ 121.539958016000014, 24.969054003000053 ], [ 121.539937566000049, 24.969041281000045 ], [ 121.539917115000094, 24.969028561000073 ], [ 121.539896665000015, 24.969015840000054 ], [ 121.53987621400006, 24.969003111000063 ], [ 121.539855763000105, 24.968990389000055 ], [ 121.539835313000026, 24.968977660000064 ], [ 121.539814862000071, 24.968964939000045 ], [ 121.539794401000108, 24.968952209000065 ], [ 121.539602424, 24.968832767000038 ], [ 121.539326955000092, 24.968661386000065 ], [ 121.539320101000044, 24.968657120000046 ], [ 121.539313247000109, 24.968652865000024 ], [ 121.539306393000061, 24.968648600000051 ], [ 121.539299538000023, 24.968644335000079 ], [ 121.539292685000078, 24.968640080000057 ], [ 121.539285831000029, 24.968635815000027 ], [ 121.539278966000097, 24.968631560000063 ], [ 121.539272102000041, 24.968627304000051 ], [ 121.539265238000098, 24.968623058000048 ], [ 121.539258374000042, 24.968618803000027 ], [ 121.53925150900011, 24.968614565000053 ], [ 121.539244635000045, 24.968610319000049 ], [ 121.539237760000105, 24.968606082000065 ], [ 121.539230886000041, 24.968601854000042 ], [ 121.539224002000083, 24.968597627000065 ], [ 121.539217117000021, 24.968593408000061 ], [ 121.539210223000055, 24.968589189000056 ], [ 121.539203329000088, 24.96858498000006 ], [ 121.539196434000019, 24.968580771000063 ], [ 121.539189530000044, 24.968576581000036 ], [ 121.539182615000072, 24.968572390000077 ], [ 121.539175711000098, 24.968568208000079 ], [ 121.539168786000118, 24.968564036000032 ], [ 121.539161861000025, 24.968559864000042 ], [ 121.539154926000037, 24.968555711000079 ], [ 121.539147992000039, 24.968551557000069 ], [ 121.539141047000044, 24.968547422000029 ], [ 121.53913409200004, 24.968543287000045 ], [ 121.539127126000039, 24.968539171000032 ], [ 121.539120162000017, 24.968535063000047 ], [ 121.539113186, 24.96853096500007 ], [ 121.539106201000095, 24.968526877000045 ], [ 121.539099217000057, 24.968522806000067 ], [ 121.539092221000033, 24.968518737000068 ], [ 121.539085206000095, 24.968514685000059 ], [ 121.539078190000055, 24.968510652000077 ], [ 121.539071164, 24.968506619000038 ], [ 121.539064129000053, 24.968502614000045 ], [ 121.539057083000102, 24.968498608000061 ], [ 121.539050038000028, 24.968494631000056 ], [ 121.539042972000061, 24.968490662000079 ], [ 121.539035896000087, 24.968486704000043 ], [ 121.539028810000104, 24.968482763000054 ], [ 121.539021714000114, 24.968478841000035 ], [ 121.539014619000113, 24.968474938000043 ], [ 121.539007502000118, 24.968471044000069 ], [ 121.539000365000106, 24.968467168000075 ], [ 121.538993230000074, 24.96846331200004 ], [ 121.538986083000054, 24.968459473000053 ], [ 121.538978917, 24.968455653000035 ], [ 121.538971750000087, 24.968451852000044 ], [ 121.538964563000036, 24.968448069000033 ], [ 121.538957366000091, 24.968444305000048 ], [ 121.538950150000119, 24.968440559000044 ], [ 121.538942932000054, 24.968436831000076 ], [ 121.538935695000077, 24.96843313200003 ], [ 121.538928448000092, 24.968429442000058 ], [ 121.538921191000099, 24.968425779000029 ], [ 121.538913914000091, 24.968422144000044 ], [ 121.538906627000074, 24.968418529000076 ], [ 121.53889932900006, 24.968414931000041 ], [ 121.538892012000019, 24.968411361000051 ], [ 121.538884684000095, 24.968407810000031 ], [ 121.538877336000041, 24.968404286000066 ], [ 121.538869988000101, 24.968400781000071 ], [ 121.538862610000024, 24.968397304000064 ], [ 121.53885523100007, 24.968393855000045 ], [ 121.538847833000091, 24.968390433000025 ], [ 121.538840415000095, 24.968387030000031 ], [ 121.538832987000092, 24.968383664000044 ], [ 121.538825548000091, 24.968380316000037 ], [ 121.538818090000063, 24.968376996000075 ], [ 121.538810621000039, 24.968373705000033 ], [ 121.538803133000101, 24.968370440000058 ], [ 121.538702147000095, 24.968329768000046 ], [ 121.538598841000066, 24.968294290000074 ], [ 121.538493519000099, 24.968264117000047 ], [ 121.538386517000049, 24.968239330000074 ], [ 121.538278170000012, 24.968220020000047 ], [ 121.538168814000073, 24.968206243000054 ], [ 121.538058781000018, 24.968198043000029 ], [ 121.53794842700006, 24.968195445000049 ], [ 121.53783807800005, 24.968198450000045 ], [ 121.5377280780001, 24.968207057000029 ], [ 121.537618781000106, 24.968221236000034 ], [ 121.537510523000037, 24.968240939000054 ], [ 121.537403637000011, 24.968266119000077 ], [ 121.537298448000115, 24.968296683000062 ], [ 121.537195301000111, 24.968332545000067 ], [ 121.537121850000062, 24.968361838000078 ], [ 121.537049748000072, 24.968393817000049 ], [ 121.53704032600001, 24.968398242000035 ], [ 121.537030933000096, 24.968402723000054 ], [ 121.53702359600004, 24.968406254000058 ], [ 121.537016269000105, 24.968409811000072 ], [ 121.537008962000073, 24.968413397000063 ], [ 121.537001676000045, 24.968417019000071 ], [ 121.536994399000037, 24.968420652000077 ], [ 121.536987143000033, 24.968424320000054 ], [ 121.536979898000027, 24.968428017000065 ], [ 121.536972673000037, 24.968431731000067 ], [ 121.536965458000054, 24.968435474000046 ], [ 121.536958263000088, 24.968439235000062 ], [ 121.536951090000116, 24.968443032000039 ], [ 121.536943917000031, 24.968446839000023 ], [ 121.536936763000085, 24.968450674000053 ], [ 121.536929630000031, 24.968454536000024 ], [ 121.536922507000099, 24.968458416000033 ], [ 121.536915394000061, 24.968462316000057 ], [ 121.536908302000029, 24.968466243000023 ], [ 121.536901220000118, 24.968470188000026 ], [ 121.536894158000109, 24.968474152000056 ], [ 121.536887106000108, 24.968478134000065 ], [ 121.536880065000105, 24.968482135000045 ], [ 121.536873035000099, 24.968486163000023 ], [ 121.536866023000016, 24.968490201000066 ], [ 121.536859023000034, 24.96849426600005 ], [ 121.53685203200007, 24.968498340000053 ], [ 121.536845053000093, 24.968502443000034 ], [ 121.536838093000028, 24.968506554000044 ], [ 121.536831144000075, 24.968510683000034 ], [ 121.536824204000027, 24.96851483100005 ], [ 121.536817275000089, 24.968518989000074 ], [ 121.536810356000046, 24.96852317500003 ], [ 121.536803447000011, 24.968527369000071 ], [ 121.536796559000095, 24.968531572000074 ], [ 121.536789671000065, 24.968535804000055 ], [ 121.536782803000051, 24.968540035000046 ], [ 121.536775936000026, 24.968544284000075 ], [ 121.536769088000028, 24.968548552000073 ], [ 121.536762241000019, 24.968552829000032 ], [ 121.536755403000029, 24.968557125000075 ], [ 121.536748587000034, 24.968561430000022 ], [ 121.536741770000049, 24.968565744000045 ], [ 121.536734962000082, 24.968570068000076 ], [ 121.536728166000103, 24.968574410000031 ], [ 121.536721371000112, 24.968578751000052 ], [ 121.536714595000035, 24.968583111000044 ], [ 121.536707819000071, 24.968587481000043 ], [ 121.536701053000115, 24.968591859000071 ], [ 121.536694297000054, 24.968596257000058 ], [ 121.536687542000095, 24.968600654000056 ], [ 121.536680796000041, 24.968605060000073 ], [ 121.536674061000099, 24.96860947600004 ], [ 121.536667325000053, 24.968613891000075 ], [ 121.536660601000108, 24.968618325000023 ], [ 121.536653885000078, 24.968622759000027 ], [ 121.536647171000027, 24.968627212000058 ], [ 121.536640455000111, 24.968631655000024 ], [ 121.536633762000065, 24.968636117000074 ], [ 121.536627056000043, 24.968640578000077 ], [ 121.536620363000111, 24.968645049000031 ], [ 121.536613668000086, 24.968649520000042 ], [ 121.53660698300007, 24.968654 ], [ 121.536600299000042, 24.968658489000063 ], [ 121.536593625000023, 24.968662970000025 ], [ 121.53658694100011, 24.968667468000035 ], [ 121.53658026700009, 24.968671957000026 ], [ 121.536573603000079, 24.968676456000026 ], [ 121.53656692800007, 24.968680954000035 ], [ 121.536560265000048, 24.968685462000053 ], [ 121.536553601000037, 24.968689969000025 ], [ 121.536546937000026, 24.968694467000034 ], [ 121.536540273000014, 24.96869898500006 ], [ 121.536533609000116, 24.968703492000031 ], [ 121.536526945000105, 24.968708 ], [ 121.536520281000094, 24.968712508000067 ], [ 121.53484744800005, 24.969845144000033 ], [ 121.534843292000119, 24.969847960000038 ], [ 121.534839136000073, 24.969850775000054 ], [ 121.534834980000028, 24.96985359200005 ], [ 121.534830815000078, 24.969856408000055 ], [ 121.534826658000043, 24.969859224000061 ], [ 121.534822502000111, 24.969862040000066 ], [ 121.534818336000058, 24.969864856000072 ], [ 121.534814180000012, 24.969867673000067 ], [ 121.534810014000072, 24.969870479000065 ], [ 121.534805857000038, 24.96987329600006 ], [ 121.534801691000098, 24.969876112000065 ], [ 121.534797535000052, 24.969878919000053 ], [ 121.534793369000113, 24.969881735000058 ], [ 121.534789212000078, 24.969884541000056 ], [ 121.534785046000025, 24.969887358000051 ], [ 121.534780879000095, 24.969890164000049 ], [ 121.534776714000031, 24.969892972000025 ], [ 121.534772547000102, 24.969895778000023 ], [ 121.534768391000057, 24.969898594000028 ], [ 121.534764224000014, 24.969901392000054 ], [ 121.534760048000066, 24.969904199000041 ], [ 121.534758844000066, 24.969905008000069 ], [ 121.534755882000013, 24.969907006000028 ], [ 121.534751715000084, 24.969909813000072 ], [ 121.534747539000023, 24.969912611000041 ], [ 121.534743372000094, 24.969915408000077 ], [ 121.534739196000032, 24.969918215000064 ], [ 121.534735030000093, 24.969921013000032 ], [ 121.534730853000042, 24.96992380100005 ], [ 121.534726677000094, 24.969926599000075 ], [ 121.534722500000044, 24.969929396000055 ], [ 121.534718324000096, 24.969932185000062 ], [ 121.534714137000037, 24.969934973000079 ], [ 121.5347099600001, 24.969937762000029 ], [ 121.534705774000031, 24.969940550000047 ], [ 121.534701597000094, 24.969943339000054 ], [ 121.534697410000035, 24.969946118000053 ], [ 121.53469391100009, 24.96994845100005 ], [ 121.53469322400008, 24.96994890700006 ], [ 121.534689037000021, 24.969951686000059 ], [ 121.534684850000076, 24.969954465000058 ], [ 121.534680654000113, 24.969957235000038 ], [ 121.534676466000064, 24.969960015000026 ], [ 121.534672270000101, 24.969962784000074 ], [ 121.534668073000034, 24.969965555000044 ], [ 121.534663876000081, 24.969968324000035 ], [ 121.534659679000015, 24.969971086000044 ], [ 121.534655472000054, 24.969973846000073 ], [ 121.534651274000112, 24.969976607000035 ], [ 121.534647068000027, 24.969979367000064 ], [ 121.534642861000066, 24.969982119000065 ], [ 121.534638654000105, 24.969984880000027 ], [ 121.534634436000033, 24.969987632000027 ], [ 121.534630229000072, 24.96999037300003 ], [ 121.534626012000103, 24.969993116000069 ], [ 121.534621795000021, 24.969995868000069 ], [ 121.534617578000052, 24.969998601000043 ], [ 121.534613350000086, 24.970001344000025 ], [ 121.534609123000109, 24.970004076000066 ], [ 121.534604906000027, 24.970006810000029 ], [ 121.534600668000053, 24.970009534000042 ], [ 121.534596440000087, 24.970012257000064 ], [ 121.534592203000102, 24.970014982000066 ], [ 121.534587975000022, 24.97001769600007 ], [ 121.534583738000038, 24.970020411000064 ], [ 121.534579490000056, 24.970023126000058 ], [ 121.534575252000081, 24.970025840000062 ], [ 121.534470696000085, 24.97009102100003 ], [ 121.534364642000014, 24.970154155000046 ], [ 121.534360272000072, 24.970156695000071 ], [ 121.534355902000016, 24.970159225000032 ], [ 121.534351531000084, 24.970161755000049 ], [ 121.53434715100002, 24.970164285000067 ], [ 121.534342780000088, 24.970166806000066 ], [ 121.534338399000035, 24.970169327000065 ], [ 121.534334009000077, 24.970171848000064 ], [ 121.534329628000023, 24.970174369000063 ], [ 121.534325238000065, 24.970176882000032 ], [ 121.534320857000012, 24.970179385000051 ], [ 121.534316466000064, 24.970181897000032 ], [ 121.534312066000098, 24.970184399000061 ], [ 121.534307675000036, 24.970186902000023 ], [ 121.534303274000081, 24.970189395000034 ], [ 121.534298883000019, 24.970191888000045 ], [ 121.534294482000064, 24.970194382000045 ], [ 121.534290081000108, 24.970196875000056 ], [ 121.534285670000031, 24.970199359000048 ], [ 121.534281269000076, 24.970201843000041 ], [ 121.534276857, 24.970204327000033 ], [ 121.534272447000035, 24.970206803000053 ], [ 121.53426804500009, 24.970209287000046 ], [ 121.534263625000108, 24.970211762000076 ], [ 121.534259213000041, 24.970214227000042 ], [ 121.534254802000078, 24.970216702000073 ], [ 121.534250380000117, 24.970219168000028 ], [ 121.53424596900004, 24.970221633000051 ], [ 121.534241548000068, 24.970224099000063 ], [ 121.534237126000107, 24.970226566000065 ], [ 121.534232705000022, 24.970229022000069 ], [ 121.534228283000061, 24.970231478000073 ], [ 121.534223852000082, 24.970233935000067 ], [ 121.53421943, 24.970236391000071 ], [ 121.534214999000028, 24.970238847000076 ], [ 121.534210577000067, 24.970241295000051 ], [ 121.534206146000088, 24.970243752000044 ], [ 121.534201715000108, 24.97024619900003 ], [ 121.534197283000026, 24.970248646000073 ], [ 121.534192852000047, 24.97025108400004 ], [ 121.534188420000078, 24.970253531000026 ], [ 121.534183988000109, 24.970255970000039 ], [ 121.534179546000018, 24.970258417000025 ], [ 121.534175115000039, 24.970260855000049 ], [ 121.534170673000062, 24.970263293000073 ], [ 121.534166241000094, 24.97026573100004 ], [ 121.534161799000117, 24.970268169000065 ], [ 121.534157369000013, 24.970270607000032 ], [ 121.534152927000036, 24.970273036000037 ], [ 121.53414848500006, 24.970275474000061 ], [ 121.534144044000072, 24.970277903000067 ], [ 121.534139602000096, 24.970280331000026 ], [ 121.534135160000119, 24.97028277000004 ], [ 121.534130718000029, 24.970285199000045 ], [ 121.534126276000052, 24.970287627000062 ], [ 121.534121834000075, 24.970290056000067 ], [ 121.534117393000088, 24.970292485000073 ], [ 121.53411295, 24.970294914000078 ], [ 121.534108509000021, 24.970297343000027 ], [ 121.534104057000036, 24.970299771000043 ], [ 121.534099615000059, 24.97030219100003 ], [ 121.534095174000072, 24.970304620000036 ], [ 121.534090731000106, 24.970307049000041 ], [ 121.53408628000011, 24.970309478000047 ], [ 121.534081837000031, 24.970311897000045 ], [ 121.534077396000043, 24.97031432600005 ], [ 121.533636684000044, 24.970554884000023 ], [ 121.53363188700007, 24.970557507000024 ], [ 121.533627081000077, 24.970560123000041 ], [ 121.533622285000092, 24.970562747000031 ], [ 121.5336174790001, 24.970565362000059 ], [ 121.533612684000104, 24.970567987000038 ], [ 121.533607887000016, 24.970570601000077 ], [ 121.533603081000024, 24.970573216000048 ], [ 121.533598275000031, 24.970575831000076 ], [ 121.533593479000047, 24.970578446000047 ], [ 121.533588673000054, 24.970581061000075 ], [ 121.533583867000061, 24.970583676000047 ], [ 121.533579060000079, 24.970586292000064 ], [ 121.533574254000087, 24.970588897000027 ], [ 121.533569448000094, 24.970591512000055 ], [ 121.533564642000101, 24.970594117000076 ], [ 121.533559836000109, 24.970596724000075 ], [ 121.533555020000108, 24.970599321000066 ], [ 121.533550213000012, 24.970601926000029 ], [ 121.533545397000012, 24.970604523000077 ], [ 121.533540580000022, 24.970607119000078 ], [ 121.533535764000021, 24.97060971600007 ], [ 121.533530948000021, 24.970612303000053 ], [ 121.533526121000023, 24.970614890000036 ], [ 121.533521305000022, 24.970617478000065 ], [ 121.533516479000014, 24.970620065000048 ], [ 121.533511651000026, 24.97062264300007 ], [ 121.533506825000018, 24.970625221000034 ], [ 121.53350199800002, 24.970627790000037 ], [ 121.533497161000014, 24.97063035900004 ], [ 121.533492325000111, 24.970632928000043 ], [ 121.533487488000105, 24.970635487000038 ], [ 121.533482651000099, 24.970638047000023 ], [ 121.533477804000086, 24.970640598000045 ], [ 121.533472968000069, 24.970643148000079 ], [ 121.533468110000058, 24.970645698000055 ], [ 121.533463263000044, 24.97064824000006 ], [ 121.53345841600003, 24.970650772000056 ], [ 121.533453559, 24.970653303000063 ], [ 121.533448702000101, 24.970655836000049 ], [ 121.533443835000071, 24.970658359000026 ], [ 121.533438967000052, 24.970660872000053 ], [ 121.533434100000022, 24.970663385000023 ], [ 121.533429233000106, 24.970665899000039 ], [ 121.533424356000069, 24.970668394000029 ], [ 121.533419478000042, 24.970670899000027 ], [ 121.533414600000015, 24.970673384000065 ], [ 121.533409712000093, 24.970675870000036 ], [ 121.533404824000058, 24.970678347000046 ], [ 121.533399926000016, 24.970680824000056 ], [ 121.533395028000086, 24.970683291000057 ], [ 121.533390130000043, 24.97068574900004 ], [ 121.533385232000114, 24.970688207000023 ], [ 121.533380323000074, 24.970690647000026 ], [ 121.533375405000015, 24.970693096000048 ], [ 121.53337048700007, 24.970695527000032 ], [ 121.533365568000022, 24.970697957000027 ], [ 121.533360650000077, 24.970700369000042 ], [ 121.533355721000021, 24.970702781000057 ], [ 121.53335078200007, 24.970705193000072 ], [ 121.533345843, 24.97070758600006 ], [ 121.533340903000067, 24.970709980000038 ], [ 121.533335955000098, 24.970712364000065 ], [ 121.533331006000026, 24.970714740000062 ], [ 121.53332604600007, 24.970717106000052 ], [ 121.533321086000115, 24.970719462000034 ], [ 121.533316127000035, 24.970721810000043 ], [ 121.53331115800006, 24.970724148000045 ], [ 121.533306178000089, 24.970726486000046 ], [ 121.533301198000117, 24.970728806000068 ], [ 121.533296218000032, 24.970731126000032 ], [ 121.533291228000053, 24.970733427000027 ], [ 121.533286228000065, 24.970735729000069 ], [ 121.533281227000089, 24.970738012000027 ], [ 121.533276228000091, 24.970740295000041 ], [ 121.533169002000022, 24.970786302000079 ], [ 121.533059650000041, 24.970827943000074 ], [ 121.532948380000107, 24.970865117000073 ], [ 121.532835408000096, 24.970897767000054 ], [ 121.532830039000032, 24.970899191000058 ], [ 121.532824659000084, 24.970900607000033 ], [ 121.532819280000012, 24.970902013000057 ], [ 121.532813900000065, 24.970903419000024 ], [ 121.532808521000106, 24.970904806000078 ], [ 121.532803132000026, 24.970906184000057 ], [ 121.53279774300006, 24.970907553000075 ], [ 121.532792353000104, 24.970908913000073 ], [ 121.532786963000035, 24.970910264000054 ], [ 121.532781563000071, 24.970911605000026 ], [ 121.532776163000108, 24.970912937000037 ], [ 121.53277076300003, 24.970914260000029 ], [ 121.532765353000059, 24.97091557400006 ], [ 121.532759943000087, 24.970916887000044 ], [ 121.532754532000013, 24.970918182000048 ], [ 121.532749122000041, 24.970919468000034 ], [ 121.53274371200007, 24.970920754000076 ], [ 121.532738291000101, 24.970922031000043 ], [ 121.532732871, 24.970923298000059 ], [ 121.532727450000039, 24.970924556000057 ], [ 121.532722030000059, 24.970925805000036 ], [ 121.532716599000082, 24.970927045000053 ], [ 121.532711168000105, 24.970928284000024 ], [ 121.532705747000023, 24.970929515000023 ], [ 121.532700317000035, 24.970930736000071 ], [ 121.53269487600005, 24.970931948000043 ], [ 121.532689445000074, 24.970933160000072 ], [ 121.532684003000099, 24.970934363000026 ], [ 121.532678573000112, 24.970935557000075 ], [ 121.532673132000014, 24.970936751000067 ], [ 121.532667691000029, 24.970937935000052 ], [ 121.532662239000047, 24.970939110000074 ], [ 121.532656798000062, 24.97094028500004 ], [ 121.532651347000069, 24.970941451000044 ], [ 121.532645906000084, 24.97094260700004 ], [ 121.532640454000102, 24.970943764000026 ], [ 121.532635003000109, 24.970944911000061 ], [ 121.532629552000117, 24.970946058000038 ], [ 121.532624099000031, 24.970947196000054 ], [ 121.532618648000039, 24.970948326000041 ], [ 121.532613187000038, 24.970949455000039 ], [ 121.532607735000056, 24.970950584000036 ], [ 121.532602273000066, 24.970951703000026 ], [ 121.532596811000076, 24.970952823000061 ], [ 121.532591350000075, 24.970953933000033 ], [ 121.532585899000082, 24.970955034000042 ], [ 121.532580426000095, 24.97095614400007 ], [ 121.532574965000094, 24.970957245000022 ], [ 121.532569502000115, 24.970958338000059 ], [ 121.532564041000114, 24.97095943000005 ], [ 121.532558569000116, 24.970960522000041 ], [ 121.532553107000012, 24.970961604000024 ], [ 121.532547646000012, 24.970962687000053 ], [ 121.532542173000024, 24.970963770000026 ], [ 121.532536701000026, 24.970964843000047 ], [ 121.532531239000036, 24.970965916000068 ], [ 121.532525767000038, 24.970966990000079 ], [ 121.53252029500004, 24.970968064000033 ], [ 121.532514823000042, 24.970969128000036 ], [ 121.532509351000044, 24.970970192000038 ], [ 121.532503879000046, 24.970971256000041 ], [ 121.532498406000059, 24.970972320000044 ], [ 121.53249293500005, 24.970973375000028 ], [ 121.532487462000063, 24.970974439000031 ], [ 121.532481991000054, 24.970975494000072 ], [ 121.532476518000067, 24.970976549000056 ], [ 121.532471046000069, 24.97097760500003 ], [ 121.532465574000071, 24.970978660000071 ], [ 121.532460092000065, 24.970979706000037 ], [ 121.532454619000077, 24.970980760000032 ], [ 121.532449148000069, 24.970981806000054 ], [ 121.532443675000081, 24.970982861000039 ], [ 121.532438205000062, 24.970983916000023 ], [ 121.532432722000067, 24.970984961000056 ], [ 121.532427250000069, 24.970986008000068 ], [ 121.532421778000071, 24.970987063000052 ], [ 121.532416306000073, 24.970988118000037 ], [ 121.532410823000077, 24.97098916300007 ], [ 121.532405351000079, 24.970990218000054 ], [ 121.532399879000081, 24.970991264000077 ], [ 121.532394406000094, 24.970992319000061 ], [ 121.532388935000085, 24.970993374000045 ], [ 121.53238345200009, 24.97099442800004 ], [ 121.532377980000092, 24.970995483000024 ], [ 121.532372508000094, 24.970996547000027 ], [ 121.532367036000096, 24.970997602000068 ], [ 121.532361563000109, 24.970998666000071 ], [ 121.5323560920001, 24.970999731000063 ], [ 121.532350619000113, 24.971000795000066 ], [ 121.532345148000104, 24.971001859000069 ], [ 121.532339685000011, 24.971002932000033 ], [ 121.532334214000116, 24.971004006000044 ], [ 121.532328742000118, 24.971005080000054 ], [ 121.532323269000017, 24.971006153000076 ], [ 121.532317808000016, 24.971007236000048 ], [ 121.532312336000018, 24.971008318000031 ], [ 121.532306874000028, 24.97100940100006 ], [ 121.532301412000038, 24.971010493000051 ], [ 121.53229594000004, 24.971011585000042 ], [ 121.53229047800005, 24.971012676000043 ], [ 121.53228501600006, 24.971013778000042 ], [ 121.532279555000059, 24.97101488900006 ], [ 121.532274093000069, 24.971015990000069 ], [ 121.532268631000079, 24.97101710000004 ], [ 121.532263169000089, 24.971018220000076 ], [ 121.532257718000096, 24.971019339000065 ], [ 121.532252257000096, 24.971020468000063 ], [ 121.53224680400001, 24.97102159700006 ], [ 121.532241353000018, 24.971022726000058 ], [ 121.532235892000017, 24.971023864000074 ], [ 121.532230440000035, 24.971025011000052 ], [ 121.53222499900005, 24.971026158000029 ], [ 121.532219547000068, 24.971027315000072 ], [ 121.532214096000075, 24.971028472000057 ], [ 121.53220865500009, 24.971029638000061 ], [ 121.532203204000098, 24.971030813000027 ], [ 121.53219776200001, 24.97103198800005 ], [ 121.532192321000025, 24.971033172000034 ], [ 121.53218688000004, 24.971034366000026 ], [ 121.532181439000055, 24.971035559000029 ], [ 121.532176008000079, 24.97103676200004 ], [ 121.532170567000094, 24.97103796500005 ], [ 121.532165136000117, 24.971039186000041 ], [ 121.532159705000026, 24.971040407000032 ], [ 121.532154275000039, 24.971041637000042 ], [ 121.532148843000073, 24.971042877000059 ], [ 121.532143423000093, 24.971044117000076 ], [ 121.532137992000116, 24.971045366000055 ], [ 121.532132572000023, 24.971046624000053 ], [ 121.532127161000062, 24.971047891000069 ], [ 121.532121741000083, 24.971049168000036 ], [ 121.532116321000103, 24.971050454000078 ], [ 121.532110910000029, 24.971051739000075 ], [ 121.532105499000068, 24.971053035000068 ], [ 121.532100089000096, 24.971054348000052 ], [ 121.532094689000019, 24.971055662000026 ], [ 121.532089289000055, 24.971056985000075 ], [ 121.532083889000091, 24.971058317000029 ], [ 121.532078490000117, 24.971059658000058 ], [ 121.53207309000004, 24.971061009000039 ], [ 121.532067700000084, 24.971062368000048 ], [ 121.532062310000015, 24.971063737000065 ], [ 121.532056931000056, 24.971065116000034 ], [ 121.532053750000046, 24.971065941000063 ], [ 121.532051541000101, 24.971066503000031 ], [ 121.532046162000029, 24.971067909000055 ], [ 121.53204078400006, 24.971069315000022 ], [ 121.532035415000109, 24.971070730000065 ], [ 121.532030046000045, 24.971072155000059 ], [ 121.531980013000066, 24.971085997000046 ], [ 121.531930290000105, 24.971100726000032 ], [ 121.531814471000075, 24.97113889600007 ], [ 121.531700701000091, 24.971181892000061 ], [ 121.531589222000093, 24.971229623000056 ], [ 121.531584211000109, 24.971231897000052 ], [ 121.531579212000111, 24.971234189000029 ], [ 121.531574221000028, 24.97123649100007 ], [ 121.531569231000049, 24.971238792000065 ], [ 121.531564241000069, 24.97124111200003 ], [ 121.531559262000087, 24.971243432000051 ], [ 121.53155429200001, 24.971245769000063 ], [ 121.531549322000046, 24.971248107000065 ], [ 121.531544352000083, 24.971250455000074 ], [ 121.531539392000013, 24.971252811000056 ], [ 121.531534433000047, 24.971255177000046 ], [ 121.531529484000089, 24.971257552000054 ], [ 121.531524535000017, 24.97125993700007 ], [ 121.531519596000066, 24.971262330000059 ], [ 121.531514657000116, 24.971264724000036 ], [ 121.53150972800006, 24.971267127000033 ], [ 121.531504799000118, 24.971269539000048 ], [ 121.531499870000061, 24.971271960000024 ], [ 121.531494951000013, 24.971274390000076 ], [ 121.531490033000068, 24.97127682100006 ], [ 121.531485124000028, 24.971279261000063 ], [ 121.531480216000091, 24.971281710000028 ], [ 121.53147530800004, 24.971284167000078 ], [ 121.531470409, 24.971286626000051 ], [ 121.531465511000079, 24.971289093000053 ], [ 121.531460623000044, 24.971291570000062 ], [ 121.531455735, 24.971294046000025 ], [ 121.531450848000077, 24.971296532000054 ], [ 121.531445960000042, 24.971299018000025 ], [ 121.531441083000118, 24.971301513000071 ], [ 121.531436215000099, 24.971304017000023 ], [ 121.531431338000061, 24.971306531000039 ], [ 121.531426470000042, 24.971309035000047 ], [ 121.531421603000013, 24.971311557000035 ], [ 121.531416746000104, 24.97131408000007 ], [ 121.531411889000083, 24.971316603000048 ], [ 121.531407031000072, 24.971319144000063 ], [ 121.53140217400005, 24.971321676000059 ], [ 121.531397327000036, 24.971324217000074 ], [ 121.531392480000022, 24.97132676700005 ], [ 121.531387632000019, 24.971329318000073 ], [ 121.531382795000013, 24.97133186800005 ], [ 121.531377949000102, 24.971334428000034 ], [ 121.531373112000097, 24.971336988000076 ], [ 121.531368285000099, 24.971339556000032 ], [ 121.531363449000082, 24.971342125000035 ], [ 121.531358621000095, 24.971344693000049 ], [ 121.531353784000089, 24.97134727200006 ], [ 121.531348958000081, 24.971349850000024 ], [ 121.53134414200008, 24.971352437000064 ], [ 121.531339315000082, 24.971355025000037 ], [ 121.531334499000081, 24.97135761100003 ], [ 121.531329682000091, 24.97136019900006 ], [ 121.531324865000101, 24.971362795000061 ], [ 121.531320049000101, 24.971365392000052 ], [ 121.5313152330001, 24.971367988000054 ], [ 121.5313104170001, 24.971370594000064 ], [ 121.531305610000118, 24.971373190000065 ], [ 121.531300804000011, 24.971375796000075 ], [ 121.531295987000021, 24.971378402000028 ], [ 121.531291181000029, 24.971381017000056 ], [ 121.531286374000047, 24.971383623000065 ], [ 121.531281568000054, 24.971386238000036 ], [ 121.531276773000059, 24.971388853000065 ], [ 121.531271967000066, 24.971391467000046 ], [ 121.531267160000084, 24.971394083000064 ], [ 121.531262364000099, 24.971396697000046 ], [ 121.531257558000107, 24.971399313000063 ], [ 121.531252752000114, 24.971401927000045 ], [ 121.531247955000026, 24.971404552000024 ], [ 121.531243159000041, 24.971407166000063 ], [ 121.531238353000049, 24.971409791000042 ], [ 121.531233557000064, 24.971412405000024 ], [ 121.531228751000071, 24.97141503000006 ], [ 121.529775820000054, 24.972208057000046 ] ], [ [ 121.542529030000082, 24.970695961000047 ], [ 121.542625043000044, 24.970970523000062 ], [ 121.542696852000063, 24.971184678000043 ], [ 121.542754353000078, 24.971380839000062 ], [ 121.542803204000052, 24.971579288000044 ], [ 121.542831018000015, 24.971712350000075 ], [ 121.542879439000103, 24.972025907000045 ], [ 121.542893968000044, 24.972161283000048 ], [ 121.54290650300004, 24.972339543000032 ], [ 121.542914141000097, 24.972599083000034 ], [ 121.54292926700009, 24.974562693000053 ], [ 121.542907738000054, 24.97663927800005 ], [ 121.54289868, 24.976833425000052 ], [ 121.542885731000069, 24.976986947000057 ], [ 121.542856021000034, 24.97719922400006 ], [ 121.542807241000105, 24.977438650000067 ], [ 121.542692807000094, 24.97788145100003 ], [ 121.542420820000075, 24.978889104000075 ], [ 121.542326904000106, 24.979214457000069 ], [ 121.54220573900011, 24.979605372000037 ], [ 121.541665162000072, 24.981270801000051 ], [ 121.541596265000067, 24.98151256400007 ], [ 121.541547324000021, 24.981715870000073 ], [ 121.541484968000077, 24.982038862000024 ], [ 121.54119731000003, 24.983712402000037 ], [ 121.54114701200001, 24.983960864000039 ], [ 121.541090673000099, 24.984173228000031 ], [ 121.54102251900008, 24.984372101000076 ], [ 121.540947765000055, 24.984550678000062 ], [ 121.540839463000111, 24.984770007000066 ], [ 121.540745812000068, 24.984944141000028 ], [ 121.539853734000076, 24.986581492000028 ], [ 121.539800338000077, 24.98668777000006 ], [ 121.53971295100007, 24.986879936000037 ], [ 121.539664857000048, 24.986995217000072 ], [ 121.539609173000031, 24.987144390000026 ], [ 121.539559359, 24.98729353300007 ], [ 121.539510569000072, 24.98746073600006 ], [ 121.53947314100003, 24.987609834000068 ], [ 121.539452161000099, 24.987731690000032 ], [ 121.539452156000038, 24.987731717000031 ], [ 121.539451781000025, 24.987733518000027 ], [ 121.539446436000048, 24.987759175000065 ], [ 121.539421684000104, 24.987901453000063 ], [ 121.539400375000014, 24.988055013000064 ], [ 121.539384662000089, 24.988213065000025 ], [ 121.539375117000077, 24.988366582000026 ], [ 121.539371465000045, 24.988522333000049 ], [ 121.539373381000019, 24.988678065000045 ], [ 121.539381485000035, 24.988833764000049 ], [ 121.539393881000024, 24.988978180000061 ], [ 121.539412495000079, 24.989129329000036 ], [ 121.539436687000034, 24.98928046900005 ], [ 121.539466447000109, 24.989431588000059 ], [ 121.539501767000047, 24.989580422000074 ], [ 121.539542655000105, 24.989729245000035 ], [ 121.539588799000057, 24.989875784000048 ], [ 121.539646158000096, 24.990038092000077 ], [ 121.539716266000028, 24.990213886000049 ], [ 121.540089341000112, 24.991074734000051 ], [ 121.540270524000107, 24.991523232000077 ], [ 121.540949661000013, 24.993418950000034 ], [ 121.541000130000043, 24.993563225000059 ], [ 121.541061030000037, 24.993754853000041 ], [ 121.54108618600003, 24.993845046000047 ], [ 121.541125941000018, 24.994014173000039 ], [ 121.541162189000033, 24.994232987000032 ], [ 121.54118234900011, 24.994454105000045 ], [ 121.541189003000113, 24.994630129000029 ], [ 121.541190796000024, 24.994826484000043 ], [ 121.541191185000116, 24.99540881300004 ], [ 121.541186644000049, 24.99564581900006 ], [ 121.541177150000067, 24.995810615000039 ], [ 121.541163296000036, 24.995968660000074 ], [ 121.541123112000037, 24.996264483000061 ], [ 121.541094092000094, 24.996424847000071 ], [ 121.541054641000073, 24.996605551000073 ], [ 121.541013864000092, 24.996765949000064 ], [ 121.540928105000035, 24.997048393000057 ], [ 121.540860533000114, 24.997240497000064 ], [ 121.540766521000023, 24.997475563000023 ], [ 121.539453636000076, 25.000599582000063 ], [ 121.539378046000024, 25.000798472000042 ], [ 121.539283882000063, 25.001071922000051 ], [ 121.538748312000052, 25.002705716000037 ], [ 121.53869768800007, 25.002881949000027 ], [ 121.538668801000085, 25.003001680000068 ], [ 121.538640965000013, 25.003148487000033 ], [ 121.538621204000037, 25.003304297000057 ], [ 121.53861001700011, 25.00350747300007 ], [ 121.538611471000081, 25.00362709500007 ], [ 121.538622080000096, 25.003787306000049 ], [ 121.538639074000116, 25.003922663000026 ], [ 121.538676235000025, 25.004136952000067 ], [ 121.538918068000044, 25.005280418000041 ], [ 121.538958088000072, 25.005512743000054 ], [ 121.538983600000051, 25.005754160000038 ], [ 121.538988826000036, 25.005887304000055 ], [ 121.538988169000049, 25.006020478000039 ], [ 121.538980451000043, 25.006167212000037 ], [ 121.538966483000081, 25.006300433000035 ], [ 121.538948746000074, 25.006420116000072 ], [ 121.538923305000026, 25.006551123000065 ], [ 121.538891678000027, 25.006682144000024 ], [ 121.538849274000086, 25.006826748000037 ], [ 121.538804945000038, 25.006955568000024 ], [ 121.538754418000053, 25.007082146000073 ], [ 121.538652881000075, 25.007296927000027 ], [ 121.538482977000058, 25.007597729000054 ], [ 121.53805081500002, 25.00831478200007 ], [ 121.537937430000056, 25.008511550000037 ], [ 121.537847442000043, 25.008678901000053 ], [ 121.537762730000054, 25.008848489000059 ], [ 121.537624452000045, 25.009158198000023 ], [ 121.53754269600006, 25.009368406000078 ], [ 121.537491312000043, 25.009513041000048 ], [ 121.537393632000089, 25.009831636000058 ], [ 121.537323023000113, 25.010111768000058 ], [ 121.537184221000075, 25.010730698000032 ], [ 121.537135173000024, 25.01091370000006 ], [ 121.537058239000089, 25.011162255000045 ], [ 121.536942275000115, 25.011478661000069 ], [ 121.536807401000033, 25.011790623000024 ], [ 121.536715032000075, 25.011980546000075 ], [ 121.536645022000016, 25.012113961000068 ], [ 121.536551927000119, 25.012279066000076 ], [ 121.536452956000062, 25.01244418400006 ], [ 121.536349310000105, 25.012604805000024 ], [ 121.536239779000084, 25.012763193000069 ], [ 121.536124659000052, 25.012919345000057 ], [ 121.53600550200008, 25.013071001000071 ], [ 121.535881372000063, 25.013220409000041 ], [ 121.535752273000071, 25.013365323000073 ], [ 121.535547002000044, 25.013580484000045 ], [ 121.533404660000087, 25.015635276000069 ], [ 121.532849988000066, 25.016174438000064 ], [ 121.532489883000039, 25.016530078000073 ], [ 121.530458819000046, 25.018561892000037 ], [ 121.530037654000012, 25.018976429000077 ], [ 121.529284864000033, 25.019678788000078 ], [ 121.52728881400003, 25.021511841000063 ], [ 121.526770906000024, 25.021974112000066 ], [ 121.525845092000054, 25.022776379000049 ], [ 121.525484855000059, 25.023111694000079 ], [ 121.525322356000061, 25.023272517000066 ], [ 121.525183815000105, 25.023415832000069 ], [ 121.52504212000008, 25.023562407000043 ], [ 121.524852895000095, 25.02377073100007 ], [ 121.524670769000068, 25.023979021000059 ], [ 121.524494253000057, 25.024191803000065 ], [ 121.524321147000023, 25.024406836000026 ], [ 121.52401226500001, 25.024807420000059 ], [ 121.52371821700001, 25.025198928000066 ], [ 121.523639710000111, 25.025305280000055 ], [ 121.523576853, 25.025391291000062 ], [ 121.521853694000015, 25.02774241700007 ], [ 121.521768421000047, 25.027860088000068 ], [ 121.521665608000035, 25.028004897000073 ], [ 121.521548331000076, 25.028170069000055 ], [ 121.521408922000091, 25.028375949000065 ], [ 121.520975116000045, 25.029041052000025 ], [ 121.520781551000027, 25.029326117000039 ], [ 121.520467525000072, 25.029758311000023 ], [ 121.520186606000038, 25.030113647000064 ], [ 121.519777128000101, 25.030602601000055 ], [ 121.519497053, 25.030937623000057 ], [ 121.519250049000107, 25.031256728000074 ], [ 121.517659560000084, 25.033389415000045 ], [ 121.517472978000114, 25.033639600000072 ], [ 121.517077932, 25.034178152000038 ], [ 121.516990175000046, 25.034298085000046 ], [ 121.51698525200004, 25.034304869000039 ], [ 121.516924570000015, 25.034381821000068 ], [ 121.516884524000034, 25.034431614000027 ], [ 121.516856478000022, 25.034463310000035 ], [ 121.516809613000078, 25.034513127000025 ], [ 121.516732237000042, 25.03459691300003 ], [ 121.516648946000032, 25.034673934000068 ], [ 121.516559760000064, 25.034748729000057 ], [ 121.516385351000054, 25.034880241000053 ], [ 121.516290215000026, 25.034939257000076 ], [ 121.516191668000033, 25.03499602100004 ], [ 121.51607578100004, 25.035052853000025 ], [ 121.515969456000107, 25.035100620000037 ], [ 121.515860613000086, 25.035141619000058 ], [ 121.515749908000089, 25.035178123000037 ], [ 121.515608536000059, 25.035214723000024 ], [ 121.515470852000021, 25.035242288000063 ], [ 121.515250792000074, 25.035272383000063 ], [ 121.514896352000051, 25.035305210000047 ], [ 121.514851460000045, 25.035307622000062 ], [ 121.51290055100003, 25.035465572000078 ], [ 121.512608011000111, 25.035491413000045 ], [ 121.512498446000109, 25.035505325000031 ], [ 121.512283347000107, 25.035535409000033 ], [ 121.51204881000001, 25.035583614000075 ], [ 121.511817728000096, 25.035643087000039 ], [ 121.511505335000038, 25.035734447000038 ], [ 121.509966337000037, 25.036204672000054 ], [ 121.509750166000117, 25.036275387000046 ], [ 121.509539631000052, 25.036361873000033 ], [ 121.509444757000097, 25.036409596000055 ], [ 121.509352996000075, 25.036461820000056 ], [ 121.509211501000095, 25.036554830000057 ], [ 121.50912999600007, 25.036616051000067 ], [ 121.509001310000031, 25.036724831000072 ], [ 121.508834846000013, 25.036908216000029 ], [ 121.508773547000033, 25.036987422000038 ], [ 121.5087172100001, 25.037068867000073 ], [ 121.508665834000112, 25.037152561000028 ], [ 121.508618514000091, 25.037240742000051 ], [ 121.508559286000036, 25.037371860000064 ], [ 121.508502017000069, 25.037527794000027 ], [ 121.508457092000071, 25.037672397000051 ], [ 121.508061554000051, 25.039079891000029 ], [ 121.508012506000114, 25.039278682000031 ], [ 121.507990982000024, 25.039389351000068 ], [ 121.507977135000033, 25.039486450000027 ], [ 121.507968554000058, 25.03958354100007 ], [ 121.507965858000034, 25.039680601000043 ], [ 121.507968753000114, 25.039782154000022 ], [ 121.507977514000117, 25.039879176000056 ], [ 121.507991847000085, 25.039976187000036 ], [ 121.508013672000061, 25.040086709000036 ], [ 121.508047391000105, 25.040226532000077 ], [ 121.508080729000085, 25.040350557000068 ], [ 121.508083242000112, 25.040359571000067 ], [ 121.508591742000021, 25.042117332000032 ], [ 121.509031812000103, 25.043653904000053 ], [ 121.509044379000102, 25.043696748000059 ], [ 121.509152913000094, 25.044104903000061 ], [ 121.509236082000029, 25.044445435000057 ], [ 121.509318842000084, 25.044761140000048 ], [ 121.509566161000066, 25.045629268000027 ], [ 121.50956993200009, 25.045642799000063 ], [ 121.509714800000097, 25.04615013800003 ], [ 121.509787897000024, 25.046450084000071 ], [ 121.509826747000034, 25.046635023000078 ], [ 121.509853062000047, 25.046792323000034 ], [ 121.509878824000111, 25.046946321000064 ], [ 121.509900628000082, 25.047124560000043 ], [ 121.509930466000014, 25.047449478000033 ], [ 121.509951858000022, 25.047754105000024 ], [ 121.509977599000081, 25.047988751000048 ], [ 121.510029612000039, 25.048284250000052 ], [ 121.510389461000045, 25.049896308000029 ], [ 121.510509901000091, 25.050435847000074 ], [ 121.510552440000083, 25.05061175000003 ], [ 121.510595192000096, 25.050762829000064 ], [ 121.510630604000085, 25.050864281000031 ], [ 121.51065342000004, 25.050913856000022 ], [ 121.51082912600009, 25.051236016000075 ], [ 121.510866819000057, 25.051287796000054 ], [ 121.511144963000106, 25.051591547000044 ], [ 121.511317723000047, 25.051726371000029 ], [ 121.511597554000105, 25.051912753000067 ], [ 121.513814916000115, 25.053347378000069 ], [ 121.51399440900002, 25.053459608000026 ], [ 121.514138461000016, 25.053542618000051 ], [ 121.514262924000036, 25.053605393000055 ], [ 121.514791373000094, 25.053768331000072 ], [ 121.515365996000014, 25.053788904000044 ], [ 121.515466613000058, 25.053779532000078 ], [ 121.515618587000063, 25.053754172000026 ], [ 121.515828081000109, 25.053710567000053 ], [ 121.520359537000104, 25.052648047000048 ], [ 121.521192414000097, 25.052452742000071 ], [ 121.521991505000074, 25.052310009000053 ], [ 121.522716607, 25.052239731000043 ], [ 121.522886586000027, 25.052227845000061 ], [ 121.525012648000029, 25.052132378000067 ], [ 121.525436900000045, 25.052117343000077 ], [ 121.525858389000064, 25.052109085000041 ], [ 121.528980531000116, 25.052082219000056 ], [ 121.530545216000064, 25.052078885000071 ], [ 121.533012925000094, 25.052057342000069 ], [ 121.535345569000015, 25.052036951000048 ], [ 121.53584696900009, 25.052030635000051 ], [ 121.538786213000094, 25.05197036900006 ], [ 121.539105212000095, 25.051966956000058 ], [ 121.539814765000074, 25.051964388000044 ], [ 121.540414958000042, 25.051955437000061 ], [ 121.544029637000108, 25.051881346000073 ], [ 121.545771950000017, 25.051845601000025 ], [ 121.549889373000042, 25.051717584000073 ], [ 121.557726924, 25.051562030000071 ], [ 121.559719343000097, 25.051500382000029 ], [ 121.565270843, 25.051391361000071 ], [ 121.565837506000094, 25.051366637000058 ], [ 121.566470039000023, 25.051321350000023 ], [ 121.567141225000114, 25.051262369000028 ], [ 121.567517706000103, 25.051233844000024 ], [ 121.567741860000069, 25.051217187000077 ], [ 121.568123975000049, 25.051202192000062 ], [ 121.568179415000031, 25.05120198000003 ], [ 121.568350354000017, 25.051196816000072 ], [ 121.569766500000014, 25.051159802000029 ], [ 121.570048854000106, 25.051138408000043 ], [ 121.570133043000055, 25.051126797000052 ], [ 121.570434379000062, 25.051055676000033 ], [ 121.570745063000118, 25.050932600000067 ], [ 121.570938760000104, 25.050825782000061 ], [ 121.571124965000081, 25.050707696000075 ], [ 121.571411497000099, 25.050517013000047 ], [ 121.571479107000073, 25.050471610000045 ], [ 121.571594280000113, 25.050396683000031 ], [ 121.571609106000096, 25.050387594000028 ], [ 121.571651725000038, 25.050360352000041 ], [ 121.571706694000113, 25.050326286000029 ], [ 121.571835180000107, 25.050251307000053 ], [ 121.571968051000113, 25.050185343000066 ], [ 121.572042230000079, 25.050153458000068 ], [ 121.5722162940001, 25.050087336000047 ], [ 121.572374032000084, 25.050041586000077 ], [ 121.572567117000062, 25.050004732000048 ], [ 121.572680084000012, 25.049986243000035 ], [ 121.572809493000022, 25.049976711000056 ], [ 121.572951009, 25.049971654000046 ], [ 121.573177721000093, 25.049973045000058 ], [ 121.57672049100006, 25.050040612000032 ], [ 121.577040760000045, 25.050046136000049 ], [ 121.577929153000014, 25.050076546000071 ], [ 121.577998243000025, 25.050083053000037 ], [ 121.578915211000094, 25.050196838000033 ], [ 121.57901533800009, 25.050216758000033 ], [ 121.579889884000067, 25.050463888000024 ], [ 121.580091221000089, 25.050535330000059 ], [ 121.581454681000082, 25.051082980000047 ] ] ] } }
]
}
