{
"type": "FeatureCollection",
"name": "metro_g_line_car_route_2",
"crs": { "type": "name", "properties": { "name": "urn:ogc:def:crs:OGC:1.3:CRS84" } },
"features": [
{ "type": "Feature", "properties": { "mrtid": "R", "mrtsys": "臺北捷運", "mrtcode": "新北投線", "mrttype": null, "definition": null, "_ctime": "2024-05-01T08:00:24.435+08:00", "_mtime": "2024-09-23T16:32:17.213+08:00", "ogc_fid": 117, "tdx_update_time": "2024-04-12T00:05:10+08:00", "data_time": "2023-07-14T00:00:00+08:00" }, "geometry": { "type": "MultiLineString", "coordinates": [ [ [ 121.498656134000043, 25.131801376000055 ], [ 121.499001446000079, 25.131376423000063 ], [ 121.4994429730001, 25.130819712000061 ], [ 121.49980305400004, 25.130353548000073 ], [ 121.499975008000092, 25.130113726000047 ], [ 121.500068656000053, 25.129973474000053 ], [ 121.500120990000028, 25.129887535000023 ], [ 121.500202820000027, 25.12974054700004 ], [ 121.500274146000038, 25.129600369000059 ], [ 121.500342635000038, 25.129446667000025 ], [ 121.500391687000047, 25.129315589000043 ], [ 121.500452593000091, 25.12912804900003 ], [ 121.500504410000076, 25.128917975000036 ], [ 121.500576341000055, 25.128545320000057 ], [ 121.500671240000088, 25.127955921000023 ], [ 121.500723440000115, 25.127533680000056 ], [ 121.500757264000072, 25.127316889000042 ], [ 121.500826683000014, 25.126926166000032 ], [ 121.501250464, 25.124832469000069 ], [ 121.501349250000089, 25.12436040800003 ], [ 121.501390025000092, 25.12417745700003 ], [ 121.501507412000024, 25.123707598000067 ], [ 121.501574936000111, 25.12347038300004 ], [ 121.501657898000076, 25.123221827000066 ], [ 121.50171863300011, 25.123070398000038 ], [ 121.501782827000056, 25.122927988000072 ], [ 121.501874460000067, 25.122753887000044 ], [ 121.501943718, 25.122640803000024 ], [ 121.502031514, 25.122511858000053 ], [ 121.502137857000093, 25.122373818000028 ], [ 121.502307529000063, 25.122185909000052 ], [ 121.502425437000056, 25.122070404000056 ], [ 121.502610411000092, 25.121911786000055 ], [ 121.502811249000047, 25.12176665800007 ], [ 121.502967025000089, 25.121666824000044 ], [ 121.503213774000073, 25.121535083000026 ], [ 121.503357614000038, 25.12147139800004 ], [ 121.50361844400004, 25.121371207000038 ], [ 121.50379207200001, 25.121318700000074 ], [ 121.503946228000018, 25.121277555000063 ], [ 121.504099146000044, 25.121236406000037 ], [ 121.504253340000105, 25.121204293000062 ], [ 121.505465668000056, 25.120988011000065 ], [ 121.510085973000059, 25.120132623000075 ], [ 121.510293729000068, 25.120091279000064 ], [ 121.510576075000017, 25.120024865000062 ], [ 121.510856774000104, 25.119935871000052 ], [ 121.510949604000075, 25.119903954000051 ], [ 121.511054174000037, 25.119862972000078 ], [ 121.511360385000103, 25.119724237000071 ], [ 121.511517760000061, 25.119640188000062 ], [ 121.511720536000098, 25.119517606000045 ], [ 121.511918300000048, 25.119381510000039 ], [ 121.51207214100009, 25.119265873000074 ], [ 121.512282131, 25.119091358000048 ], [ 121.512483013000065, 25.118887532000031 ], [ 121.512627041000087, 25.118722267000066 ], [ 121.512732157000073, 25.118590999000048 ], [ 121.512962297000058, 25.118269711000039 ], [ 121.513706777000039, 25.117195050000078 ], [ 121.514769680000086, 25.115645304000054 ], [ 121.516216702000065, 25.113557036000032 ], [ 121.516811812000014, 25.112708575000056 ], [ 121.517674491000093, 25.111387457000035 ], [ 121.518360531000098, 25.11042582500005 ], [ 121.519492333000017, 25.108783263000078 ], [ 121.519876088000046, 25.108233460000065 ], [ 121.519976167000095, 25.108084149000035 ], [ 121.521758052000109, 25.105509422000068 ], [ 121.52187441600006, 25.105321680000031 ], [ 121.521975279000117, 25.105140758000061 ], [ 121.522033018000116, 25.105020938000052 ], [ 121.522085183000058, 25.104901129000041 ], [ 121.522160834000033, 25.104693218000023 ], [ 121.522217674000103, 25.10450793900003 ], [ 121.522272190000081, 25.104284304000032 ], [ 121.52231680500006, 25.104065214000059 ], [ 121.522688286000061, 25.101949065000042 ], [ 121.522731623000027, 25.101723213000071 ], [ 121.522774789000096, 25.101526695000075 ], [ 121.522808953000094, 25.101400181000031 ], [ 121.522856027000103, 25.101248791000046 ], [ 121.522905635000029, 25.101113200000043 ], [ 121.522945202000074, 25.10101826600004 ], [ 121.523082435000106, 25.10072210900006 ], [ 121.524531390000107, 25.097927310000046 ], [ 121.524663491000069, 25.097662769000067 ], [ 121.524787436000111, 25.097375690000035 ], [ 121.525406951000036, 25.095820658000036 ], [ 121.525733598000102, 25.094900884000026 ], [ 121.52667279800005, 25.092110120000029 ], [ 121.526729922000072, 25.091922582000052 ], [ 121.527056134000077, 25.090761306000047 ], [ 121.527166778000037, 25.090336590000049 ], [ 121.527246281000089, 25.090020324000022 ], [ 121.527271769000095, 25.089893839000069 ], [ 121.527297672000032, 25.089722212000027 ], [ 121.527310391000015, 25.089582230000076 ], [ 121.527315727000087, 25.089453562000074 ], [ 121.527312752000057, 25.089266237000061 ], [ 121.527303551000045, 25.089142132000063 ], [ 121.527273449000063, 25.088914274000047 ], [ 121.527223560000039, 25.088695518000065 ], [ 121.527177667000046, 25.088542201000053 ], [ 121.527124363000098, 25.088393430000053 ], [ 121.527024876000041, 25.088168073000077 ], [ 121.526959599000065, 25.088044167000078 ], [ 121.526814847000082, 25.087812206000024 ], [ 121.526682108000045, 25.087629855000046 ], [ 121.525962328000105, 25.086738619000073 ], [ 121.525800654000022, 25.086531537000042 ], [ 121.52569905200005, 25.086389704000055 ], [ 121.525599563000014, 25.086234318000038 ], [ 121.525489640000046, 25.08603157400006 ], [ 121.525414294000029, 25.085871593000036 ], [ 121.525367311000082, 25.085752132000039 ], [ 121.525297983000087, 25.08554924200007 ], [ 121.525213657000108, 25.085244844000044 ], [ 121.524775645000091, 25.083440754000037 ], [ 121.524713304000102, 25.083206240000038 ], [ 121.524606668000047, 25.082825168000056 ], [ 121.524403927000094, 25.082139736000045 ], [ 121.52428662300008, 25.081727111000077 ], [ 121.523892578000073, 25.080274945000042 ], [ 121.523826868000015, 25.08004722000004 ], [ 121.523743772000103, 25.079812779000065 ], [ 121.523653969000065, 25.079603184000064 ], [ 121.523548993000077, 25.079393651000032 ], [ 121.522095729000057, 25.07667447700004 ], [ 121.521735117000048, 25.076009916000032 ], [ 121.5214345710001, 25.075410588000068 ], [ 121.520758729000022, 25.074038395000059 ], [ 121.520584299, 25.073664334000057 ], [ 121.520528277000039, 25.073529112000074 ], [ 121.520467396000072, 25.073344244000054 ], [ 121.520416766000039, 25.07316385300004 ], [ 121.520380768000109, 25.073001473000033 ], [ 121.520340168000075, 25.072778159000052 ], [ 121.520236739000097, 25.071979522000049 ], [ 121.52015304300005, 25.071381700000074 ], [ 121.519944443000099, 25.070102673000065 ], [ 121.519800696000061, 25.068997222000064 ], [ 121.519729670000061, 25.068534781000039 ], [ 121.519496723000088, 25.066924052000047 ], [ 121.519412001000092, 25.066445859000055 ], [ 121.519289406000098, 25.065796277000061 ], [ 121.519286848000093, 25.065782722000051 ], [ 121.519057651000026, 25.064614366000058 ], [ 121.519029781000086, 25.064395531000059 ], [ 121.519027800000117, 25.064147260000027 ], [ 121.519031420000033, 25.064050197000029 ], [ 121.519042337000087, 25.063921508000078 ], [ 121.519066693000013, 25.063747631000069 ], [ 121.519100092000031, 25.063589591000039 ], [ 121.519131478000077, 25.063467599000035 ], [ 121.519192592000081, 25.063271018000023 ], [ 121.519337570000062, 25.06290722500006 ], [ 121.519560084000091, 25.062348862000078 ], [ 121.520177441000101, 25.060820936000027 ], [ 121.520406076000086, 25.060246840000048 ], [ 121.520524336000108, 25.059939472000053 ], [ 121.520585543000038, 25.059763209000039 ], [ 121.520620583000095, 25.059627660000046 ], [ 121.520662443000106, 25.059419866000042 ], [ 121.520687960000032, 25.059227920000069 ], [ 121.520697999000049, 25.059110521000036 ], [ 121.520701124000084, 25.058970572000078 ], [ 121.520695058000115, 25.058706516000029 ], [ 121.520603636000033, 25.056935041000031 ], [ 121.520560780000096, 25.056027851000067 ], [ 121.520389349000084, 25.053128113000071 ], [ 121.520359537000104, 25.052648047000048 ], [ 121.520305270000108, 25.051774169000055 ], [ 121.520267365000109, 25.051085899000043 ], [ 121.520245174000024, 25.050817389000031 ], [ 121.520201059000101, 25.05056475400005 ], [ 121.520174858000019, 25.050447474000066 ], [ 121.520136228000069, 25.050321214000064 ], [ 121.520091398000091, 25.05019272100003 ], [ 121.520044130000088, 25.050075524000079 ], [ 121.519956670000056, 25.04989977300005 ], [ 121.519892372000072, 25.049782635000042 ], [ 121.519766142000094, 25.049591220000025 ], [ 121.519668025000101, 25.049460656000065 ], [ 121.51951082100004, 25.049269350000031 ], [ 121.519212359000107, 25.048925064000059 ], [ 121.519014670000047, 25.048681987000066 ], [ 121.518745287000115, 25.048330831000044 ], [ 121.518554001000098, 25.048062901000037 ], [ 121.518331765000084, 25.047727378000047 ], [ 121.51818146200003, 25.047481880000078 ], [ 121.517842593000069, 25.046880422000072 ], [ 121.517733958, 25.046677664000072 ], [ 121.517607172000112, 25.046427573000074 ], [ 121.517524033000086, 25.046247293000079 ], [ 121.517499642000075, 25.046185371000036 ], [ 121.517464550000113, 25.046096284000043 ], [ 121.517345406000118, 25.045749104000038 ], [ 121.517271271000027, 25.045498829000053 ], [ 121.516780276000077, 25.043771624000044 ], [ 121.516702647000102, 25.043512381000028 ], [ 121.516600040000071, 25.043194486000061 ], [ 121.516580585000042, 25.043133612000076 ], [ 121.516441231000044, 25.042691715000046 ], [ 121.515506262000031, 25.039584724000065 ], [ 121.515423184000042, 25.039269025000067 ], [ 121.515353115000039, 25.038953282000023 ], [ 121.515321686000107, 25.038768311000069 ], [ 121.515304398000012, 25.038632944000028 ], [ 121.51528943400001, 25.038461459000075 ], [ 121.515282225000078, 25.038292202000036 ], [ 121.515282118000073, 25.038118410000038 ], [ 121.515290401000016, 25.037951366000073 ], [ 121.515305798000099, 25.037782031000063 ], [ 121.515328623000073, 25.037612671000034 ], [ 121.515359190000027, 25.037443284000062 ], [ 121.515397508000092, 25.037276126000052 ], [ 121.515454266, 25.037075059000074 ], [ 121.515497078000067, 25.036943994000069 ], [ 121.515549432000057, 25.036801619000073 ], [ 121.515653767000117, 25.036562015000072 ], [ 121.515724136000017, 25.036419592000072 ], [ 121.515802507000103, 25.036277126000073 ], [ 121.515915983000014, 25.036087140000063 ], [ 121.51620859600007, 25.035636967000073 ], [ 121.5165768600001, 25.035132374000057 ], [ 121.51781556800006, 25.033470688000023 ], [ 121.51892332400007, 25.031984647000058 ], [ 121.51893872200003, 25.031964274000075 ], [ 121.518994156000076, 25.03189186000003 ], [ 121.519074862000025, 25.031790005000062 ], [ 121.519196584000042, 25.031649651000066 ], [ 121.51929404100008, 25.031554514000049 ], [ 121.519423018000111, 25.031445725000026 ], [ 121.519547443000079, 25.031357261000039 ], [ 121.519719510000073, 25.031257352000068 ], [ 121.519898767000086, 25.031175473000076 ], [ 121.520094802000017, 25.031107079000037 ], [ 121.52026029700005, 25.031065870000077 ], [ 121.520395530000087, 25.031042830000047 ], [ 121.520467331000077, 25.03103354600006 ], [ 121.520636044000071, 25.031021677000069 ], [ 121.520790884, 25.03102339000003 ], [ 121.521017658000119, 25.031045172000063 ], [ 121.521185944000081, 25.031078437000076 ], [ 121.521368227000039, 25.031127451000032 ], [ 121.521446390000051, 25.031156519000035 ], [ 121.521571405000032, 25.031208 ], [ 121.521654557000033, 25.031246074000023 ], [ 121.521749843000066, 25.031297659000074 ], [ 121.521834909000063, 25.031349270000078 ], [ 121.521916576000081, 25.031403157000057 ], [ 121.522078446000023, 25.031528983000044 ], [ 121.522193511000069, 25.031643687000042 ], [ 121.52227782500006, 25.03173818700003 ], [ 121.522373426000058, 25.031864254000027 ], [ 121.522425792000035, 25.031945323000059 ], [ 121.522485859000085, 25.032049934000042 ], [ 121.522487874000035, 25.032053445000031 ], [ 121.522526614000071, 25.032132304000072 ], [ 121.522596742000019, 25.032312618000049 ], [ 121.522621236000077, 25.032393794000029 ], [ 121.522661339000024, 25.032576468000059 ], [ 121.522692635000112, 25.032799814000043 ], [ 121.522741019000023, 25.033255569000062 ], [ 121.522762457000113, 25.033417997000072 ], [ 121.522792561000074, 25.033580406000056 ], [ 121.522836912000116, 25.033742754000059 ], [ 121.522863245000053, 25.033817147000036 ], [ 121.522912671000086, 25.033934336000073 ], [ 121.522956706000059, 25.034022210000046 ], [ 121.523015664000013, 25.034123575000024 ], [ 121.52312969500008, 25.03428567800006 ], [ 121.523197852000067, 25.034366691000059 ], [ 121.523328734000074, 25.034506151000073 ], [ 121.52349279900011, 25.034636488000046 ], [ 121.523635080000076, 25.034733026000026 ], [ 121.523816353000029, 25.034831703000066 ], [ 121.523942629000089, 25.034887679000065 ], [ 121.524086848000024, 25.034939089000034 ], [ 121.524270081000054, 25.034990353000069 ], [ 121.524339515000065, 25.035005908000073 ], [ 121.524476161000052, 25.035025745000041 ], [ 121.524545260000082, 25.035034524000025 ], [ 121.524721808000095, 25.035042933000057 ], [ 121.524863006000032, 25.035040179000077 ], [ 121.525003871000081, 25.035030659000029 ], [ 121.525163247000023, 25.035005265000052 ], [ 121.525282056000037, 25.03498002300006 ], [ 121.525458343000082, 25.034927481000068 ], [ 121.525616634000016, 25.034865989000025 ], [ 121.525786900000071, 25.034781880000025 ], [ 121.525937066000097, 25.034702352000068 ], [ 121.526010582000026, 25.034659205000025 ], [ 121.526574939000056, 25.034325422000052 ], [ 121.526736825000057, 25.034236828000076 ], [ 121.526847450000105, 25.034182262000058 ], [ 121.526955943000075, 25.034134480000034 ], [ 121.527132811000115, 25.03407065500005 ], [ 121.527205184000081, 25.034050088000072 ], [ 121.527373157000056, 25.034008871000026 ], [ 121.527496621000068, 25.033985858000051 ], [ 121.527745130000085, 25.03394886500007 ], [ 121.529898594000088, 25.033661340000037 ], [ 121.529946559000109, 25.033654401000035 ], [ 121.530160125000066, 25.033628809000049 ], [ 121.530302792000043, 25.033610246000023 ], [ 121.530519796000021, 25.033593674000031 ], [ 121.530763444000058, 25.033579271000065 ], [ 121.530941482000117, 25.03357412500003 ], [ 121.531199130000118, 25.033575462000044 ], [ 121.531942401000038, 25.033593130000042 ], [ 121.532659638000041, 25.033604109000066 ], [ 121.533266560000015, 25.033599690000074 ], [ 121.538760445000094, 25.033487472000047 ], [ 121.539981371000067, 25.033458214000063 ], [ 121.543596260000072, 25.033383877000063 ], [ 121.545847841000068, 25.033337528000061 ], [ 121.546534578000092, 25.033312439000042 ], [ 121.546868373000052, 25.033304444000066 ], [ 121.557497709000017, 25.033077677000051 ], [ 121.558239306000019, 25.033063616000049 ], [ 121.565211718000114, 25.032908665000036 ], [ 121.565455710000037, 25.032903225000041 ], [ 121.565851730000077, 25.032894952000049 ], [ 121.56632021900009, 25.032886401000042 ], [ 121.566546879000043, 25.032883283000047 ], [ 121.566716563000114, 25.032880380000051 ], [ 121.566943233000075, 25.032879517000026 ], [ 121.567411438000022, 25.032875475000026 ], [ 121.567807803000051, 25.032873972000061 ], [ 121.569814723000036, 25.032868560000054 ], [ 121.57087315800004, 25.032866766000041 ], [ 121.570877145000054, 25.032866751000029 ] ], [ [ 121.498632681000117, 25.131831215000034 ], [ 121.497869534000074, 25.132802148000053 ], [ 121.49760974700007, 25.133164144000034 ], [ 121.497426806000021, 25.133449142000075 ], [ 121.497340383000051, 25.133611934000044 ], [ 121.497285104000071, 25.133736256000077 ], [ 121.49723356800007, 25.133867334000058 ], [ 121.497154252000087, 25.134102331000065 ], [ 121.497121097000104, 25.134258177000049 ], [ 121.497102977000054, 25.134375608000028 ], [ 121.497090358000037, 25.134549441000047 ], [ 121.497090001000061, 25.134689378000076 ], [ 121.497101478000104, 25.134845076000033 ], [ 121.497124098000086, 25.134996214000068 ], [ 121.497154734000105, 25.135138304000066 ], [ 121.497207496000101, 25.135309661000065 ], [ 121.497254795000117, 25.135433640000031 ], [ 121.497349517000089, 25.135631944000068 ], [ 121.497410992000027, 25.135735565000061 ], [ 121.497485516000097, 25.135845908000078 ], [ 121.497635678000051, 25.136039506000031 ], [ 121.497739317000082, 25.136145241000065 ], [ 121.497898904000067, 25.136291420000077 ], [ 121.498013011000012, 25.136381320000055 ], [ 121.498167165000041, 25.136486886000057 ], [ 121.498339885000064, 25.136585613000022 ], [ 121.498544516000038, 25.136681976000034 ], [ 121.498646337000082, 25.13672226500006 ], [ 121.498737581000114, 25.136751301000061 ], [ 121.498922205000099, 25.136804854000047 ], [ 121.499060265000026, 25.136838243000057 ], [ 121.499269271000117, 25.136866884000028 ], [ 121.499414996000041, 25.136882193000076 ], [ 121.499558836, 25.136888484000053 ], [ 121.500589768000054, 25.136916617000054 ], [ 121.503435723000052, 25.136958918000062 ] ] ] } }
]
}
