{
"type": "FeatureCollection",
"name": "metro_o_line_car_route",
"crs": { "type": "name", "properties": { "name": "urn:ogc:def:crs:OGC:1.3:CRS84" } },
"features": [
{ "type": "Feature", "properties": { "mrtid": "O", "mrtsys": "臺北捷運", "mrtcode": "中和新蘆線", "mrttype": null, "definition": null, "_ctime": "2024-05-01T08:00:24.435+08:00", "_mtime": "2024-09-23T16:32:17.213+08:00", "ogc_fid": 116, "tdx_update_time": "2024-04-12T00:05:10+08:00", "data_time": "2023-07-14T00:00:00+08:00" }, "geometry": { "type": "MultiLineString", "coordinates": [ [ [ 121.509814262000077, 24.989567074000036 ], [ 121.508138802000076, 24.990367285000048 ], [ 121.507772400000022, 24.990546839000046 ], [ 121.506523388000119, 24.991169518000049 ], [ 121.506140043000073, 24.991371703000027 ], [ 121.505961224000089, 24.991471619000038 ], [ 121.505806212000039, 24.991566942000077 ], [ 121.505679654000119, 24.991657657000076 ], [ 121.505503169, 24.991800452000064 ], [ 121.50537711000004, 24.991936298000041 ], [ 121.505287477000024, 24.992044942000064 ], [ 121.505165323000028, 24.992228182000076 ], [ 121.505097745000057, 24.992357063000043 ], [ 121.505041323000114, 24.99248816100004 ], [ 121.504977465000024, 24.992693771000063 ], [ 121.504939947000025, 24.992906067000035 ], [ 121.504930313000045, 24.993048294000062 ], [ 121.504932416000088, 24.993185971000059 ], [ 121.504959014000065, 24.993407073000071 ], [ 121.505019211000103, 24.993666435000023 ], [ 121.505082022000011, 24.993887415000074 ], [ 121.505519805000063, 24.995411717000025 ], [ 121.505723522000039, 24.996171654000022 ], [ 121.505800366000017, 24.996412906000046 ], [ 121.505878557000074, 24.996609010000043 ], [ 121.505953518000069, 24.996769005000033 ], [ 121.506038046000072, 24.996924457000034 ], [ 121.506181992000052, 24.997147416000075 ], [ 121.506318640000018, 24.997329777000061 ], [ 121.506502800000021, 24.997545832000071 ], [ 121.508249123000041, 24.999494518000063 ], [ 121.510169958, 25.001706672000068 ], [ 121.51227538, 25.004067126000052 ], [ 121.512564053, 25.004395665000061 ], [ 121.512648074000026, 25.004499204000069 ], [ 121.512777553000092, 25.004665785000043 ], [ 121.512880347000078, 25.00481664800003 ], [ 121.512959218000105, 25.004947292000054 ], [ 121.513076279000074, 25.005177113000059 ], [ 121.513142266000045, 25.005337135000048 ], [ 121.513188328000069, 25.005467884000041 ], [ 121.513263050000091, 25.005718161000061 ], [ 121.513593600000036, 25.006958416000032 ], [ 121.514324085000112, 25.009587646000057 ], [ 121.514513261000047, 25.010257343000035 ], [ 121.514833267000085, 25.01133962800003 ], [ 121.516281389000028, 25.01660262200005 ], [ 121.516320613000062, 25.016726625000047 ], [ 121.516395788000068, 25.016934021000054 ], [ 121.516457378000041, 25.017076001000078 ], [ 121.516527015000065, 25.01721569800003 ], [ 121.51661341800002, 25.017368881000039 ], [ 121.516710039000031, 25.017519763000053 ], [ 121.516814676000081, 25.017663858000049 ], [ 121.516927656, 25.017803405000052 ], [ 121.517048349000106, 25.017936148000047 ], [ 121.517211594000059, 25.018100350000054 ], [ 121.517478483000104, 25.018316103000075 ], [ 121.517633141000033, 25.018426160000047 ], [ 121.517801093000116, 25.018531660000065 ], [ 121.517975510000042, 25.018628114000023 ], [ 121.518064861000084, 25.01867068100006 ], [ 121.518248515000096, 25.018753559000061 ], [ 121.518436779000012, 25.018827388000034 ], [ 121.518570720000071, 25.01887206400005 ], [ 121.518763850000028, 25.018925556000056 ], [ 121.518959731000109, 25.018970016000026 ], [ 121.519135418000019, 25.019001011000057 ], [ 121.519342678000044, 25.019027375000064 ], [ 121.519446752000022, 25.019036034000067 ], [ 121.519802887000083, 25.019048334000047 ], [ 121.519877499000017, 25.019048074000068 ], [ 121.520014324000044, 25.01904496800006 ], [ 121.520016799000018, 25.019044911000037 ], [ 121.520016842000018, 25.019044910000048 ], [ 121.521197254000072, 25.019034713000053 ], [ 121.521494544, 25.019042704000071 ], [ 121.521672335000062, 25.019057879000059 ], [ 121.521878682000079, 25.019088753000062 ], [ 121.522141179000073, 25.019144263000044 ], [ 121.52225308900006, 25.019175469000061 ], [ 121.522412781000071, 25.019229082000038 ], [ 121.522658424000042, 25.019327526000041 ], [ 121.522801120000054, 25.019390223000073 ], [ 121.523516568000105, 25.019726278000064 ], [ 121.523791254000116, 25.019867487000056 ], [ 121.523970039000119, 25.019970686000079 ], [ 121.524142988000108, 25.020082927000033 ], [ 121.524229619000039, 25.020141309000053 ], [ 121.524447409000118, 25.020312077000028 ], [ 121.524646993000033, 25.020500966000043 ], [ 121.524842361000083, 25.020714700000042 ], [ 121.524961286, 25.020865507000053 ], [ 121.525121757000079, 25.021101930000043 ], [ 121.525246246000052, 25.021322682000061 ], [ 121.525327501000106, 25.021500708000076 ], [ 121.525410562000047, 25.021735148000062 ], [ 121.525462284000014, 25.021956157000034 ], [ 121.525490526000112, 25.022188535000055 ], [ 121.525494122000055, 25.022380372000043 ], [ 121.52547887500009, 25.022579050000047 ], [ 121.525443813000038, 25.022780053000076 ], [ 121.525395323000112, 25.022956274000023 ], [ 121.525314792000017, 25.023168725000062 ], [ 121.525221758000043, 25.023354126000072 ], [ 121.525183815000105, 25.023415832000069 ], [ 121.525102139000069, 25.023548661000063 ], [ 121.524995343000114, 25.023702510000078 ], [ 121.524978109000017, 25.023727402000077 ], [ 121.524864819000072, 25.023881285000073 ], [ 121.524852508000095, 25.023899383000071 ], [ 121.522750352000116, 25.026769027000057 ], [ 121.52207919500006, 25.027685203000033 ], [ 121.521985629000028, 25.027818694000075 ], [ 121.52189919500006, 25.027956680000045 ], [ 121.521829472000036, 25.028090095000039 ], [ 121.521779490000085, 25.028207634000069 ], [ 121.52174737100006, 25.028300287000036 ], [ 121.521706835000032, 25.028453911000042 ], [ 121.52167759200006, 25.028641349000054 ], [ 121.521670033000078, 25.028830968000022 ], [ 121.521675423000033, 25.028934769000045 ], [ 121.521684452000045, 25.02901825400005 ], [ 121.521697498000094, 25.029101716000071 ], [ 121.521715182000094, 25.029182906000074 ], [ 121.521725905000039, 25.029228011000043 ], [ 121.52174319900007, 25.029288892000068 ], [ 121.521767043000068, 25.029363294000063 ], [ 121.52179056500006, 25.029433176000055 ], [ 121.522074545, 25.030170246000068 ], [ 121.52216334700006, 25.030445299000064 ], [ 121.522252799000057, 25.030801593000035 ], [ 121.522423027000059, 25.031584204000069 ], [ 121.522458531000098, 25.031778182000039 ], [ 121.522484893000069, 25.032006057000046 ], [ 121.522485859000085, 25.032049934000042 ], [ 121.522490257000072, 25.032249795000041 ], [ 121.522475557, 25.032507157000055 ], [ 121.522409916000015, 25.033166448000031 ], [ 121.522398291000059, 25.033347048000053 ], [ 121.522401798000033, 25.033588546000033 ], [ 121.522429274000046, 25.033789330000047 ], [ 121.522459540000114, 25.033915618000037 ], [ 121.52249564300007, 25.034030597000026 ], [ 121.522548526000037, 25.034161327000049 ], [ 121.522617551000053, 25.034298758000034 ], [ 121.522669004000022, 25.034384351000028 ], [ 121.522748466000053, 25.034499178000033 ], [ 121.522830022000107, 25.034600463000061 ], [ 121.523008520000076, 25.034793921000073 ], [ 121.523255454000036, 25.034969110000077 ], [ 121.523345172000063, 25.035022959000059 ], [ 121.523474915000065, 25.035092476000045 ], [ 121.523661716000106, 25.035170801000049 ], [ 121.523827942000025, 25.035226646000069 ], [ 121.524007100000063, 25.035266645000036 ], [ 121.524118978000047, 25.035286561000078 ], [ 121.524271404000046, 25.035301823000054 ], [ 121.524442677000025, 25.035307995000039 ], [ 121.524653821000015, 25.03529370800004 ], [ 121.524768954000024, 25.035279757000069 ], [ 121.524912827000094, 25.035249916000055 ], [ 121.52512501800004, 25.035190481000029 ], [ 121.525400783, 25.035081166000055 ], [ 121.525562709000042, 25.035001598000065 ], [ 121.525761689000092, 25.034894819000044 ], [ 121.525874458000089, 25.034833479000042 ], [ 121.526420704000088, 25.034540391000064 ], [ 121.526666972000044, 25.034413124000025 ], [ 121.526793378000093, 25.034353991000046 ], [ 121.526981643000113, 25.034278848000042 ], [ 121.527237722000109, 25.034201200000041 ], [ 121.527406029000076, 25.034164493000048 ], [ 121.527615218000051, 25.034129896000024 ], [ 121.530049398000074, 25.033805251000047 ], [ 121.530345591000014, 25.033768087000055 ], [ 121.5305356450001, 25.033749355000054 ], [ 121.530794207000099, 25.033748443000036 ], [ 121.531010138000056, 25.033767984000065 ], [ 121.53113006000001, 25.033787867000058 ], [ 121.531272028000103, 25.033821223000075 ], [ 121.531494057000032, 25.033892652000077 ], [ 121.531687340000076, 25.033975478000059 ], [ 121.531807152000056, 25.034040503000028 ], [ 121.531959611000048, 25.03413701900007 ], [ 121.532137338000098, 25.034274067000069 ], [ 121.53230342300003, 25.034440489000076 ], [ 121.532420786000102, 25.034584528000039 ], [ 121.532507427000041, 25.034712869000032 ], [ 121.532603578000021, 25.034890828000073 ], [ 121.532673683000098, 25.035062114000027 ], [ 121.53272490400002, 25.035235732000046 ], [ 121.532760445, 25.035431964000054 ], [ 121.53277394700001, 25.035619251000071 ], [ 121.532772938000107, 25.03581562200003 ], [ 121.532746976000112, 25.036472518000039 ], [ 121.53274396900008, 25.036779483000032 ], [ 121.532853726000099, 25.042381018000071 ], [ 121.532859212000062, 25.042660951000073 ], [ 121.532861211000068, 25.044554619000053 ], [ 121.532974620000118, 25.049650640000038 ], [ 121.533012925000094, 25.052057342000069 ], [ 121.533038420000025, 25.053658934000055 ], [ 121.533090444000095, 25.055089716000055 ], [ 121.533103479000033, 25.056096321000041 ], [ 121.533191611, 25.060434070000042 ], [ 121.53318501800004, 25.060700426000039 ], [ 121.533156972000029, 25.06094654900005 ], [ 121.533112891000087, 25.06113855500007 ], [ 121.533048014000087, 25.061321612000029 ], [ 121.532993380000107, 25.061436915000058 ], [ 121.532911917000092, 25.061579401000074 ], [ 121.532617281000057, 25.061993496000071 ], [ 121.532328301, 25.062208954000027 ], [ 121.53221338600008, 25.06228158600004 ], [ 121.532053010000027, 25.062370189000035 ], [ 121.531812176000017, 25.062474871000063 ], [ 121.531594420000033, 25.062545624000052 ], [ 121.531457042000056, 25.062579970000058 ], [ 121.53128928700005, 25.062609903000066 ], [ 121.531062974000065, 25.06263328700004 ], [ 121.530709898000055, 25.062641314000075 ], [ 121.529725066000083, 25.062604187000034 ], [ 121.529213063000043, 25.062603755000055 ], [ 121.52424350800004, 25.062734181000053 ], [ 121.523503940000069, 25.062757098000077 ], [ 121.521182546000091, 25.062860040000032 ], [ 121.519337570000062, 25.06290722500006 ], [ 121.517092158000082, 25.062964603000069 ], [ 121.516783075000035, 25.062974702000076 ], [ 121.516463219000116, 25.063000637000073 ], [ 121.516201944000045, 25.063035399000057 ], [ 121.514881782000089, 25.063249882000036 ], [ 121.514675274000069, 25.063273165000055 ], [ 121.514462852000065, 25.063287444000025 ], [ 121.514236428000117, 25.063288219000071 ], [ 121.513988611000059, 25.063282309000044 ], [ 121.511868314000026, 25.063185793000059 ], [ 121.511566271000106, 25.063175545000036 ], [ 121.511415734000025, 25.063176055000042 ], [ 121.511226524000108, 25.063187994000032 ], [ 121.511113222000063, 25.063201927000023 ], [ 121.511001164000049, 25.063220367000042 ], [ 121.51079509200008, 25.063272986000072 ], [ 121.510517349000111, 25.063370992000046 ], [ 121.50955129700003, 25.063755679000053 ], [ 121.509341583000037, 25.063826363000032 ], [ 121.509050122000076, 25.063904102000038 ], [ 121.508731306000072, 25.063959361000059 ], [ 121.508431638000047, 25.063998753000078 ], [ 121.506654472000037, 25.064194032000046 ], [ 121.506649106000054, 25.064194655000051 ], [ 121.506391778000079, 25.064224530000047 ], [ 121.50607444700006, 25.064263987000061 ], [ 121.505791511000098, 25.064305572000023 ], [ 121.505223763000117, 25.064386502000048 ] ], [ [ 121.464011367000012, 25.098354006000022 ], [ 121.463807992000056, 25.098402040000053 ], [ 121.463667422000071, 25.09842956600005 ], [ 121.463525295000068, 25.09845032100003 ], [ 121.463407591000077, 25.098459710000043 ], [ 121.463200014000108, 25.098462614000027 ], [ 121.463012205000041, 25.098449656000071 ], [ 121.462890684000058, 25.098431981000033 ], [ 121.462789278000059, 25.098409730000071 ], [ 121.462623350000058, 25.098365105000028 ], [ 121.46249398100008, 25.098320366000053 ], [ 121.462356502000034, 25.098259853000059 ], [ 121.462223942000037, 25.098192548000043 ], [ 121.462130777000084, 25.098134153000046 ], [ 121.462022364000063, 25.098060014000055 ], [ 121.461880345000054, 25.09794759600004 ], [ 121.461737894000066, 25.097801335000042 ], [ 121.461636128, 25.097679769000024 ], [ 121.461493465000103, 25.09747933400007 ], [ 121.460711606000018, 25.096281001000023 ], [ 121.460583156000098, 25.096069241000066 ], [ 121.460512002000087, 25.095931781000047 ], [ 121.460484497000039, 25.095868669000026 ], [ 121.46044319900011, 25.09576045700004 ], [ 121.460414668000112, 25.095670262000056 ], [ 121.460388232000014, 25.095562005000033 ], [ 121.460367007000059, 25.095437932000038 ], [ 121.46035636900001, 25.095327371000053 ], [ 121.460353105000081, 25.095200987000055 ], [ 121.46035827500009, 25.095090377000076 ], [ 121.460373292000099, 25.094966191000026 ], [ 121.460405551, 25.09481035400006 ], [ 121.460436453000057, 25.094704175000061 ], [ 121.460475711000072, 25.09459798000006 ], [ 121.460519024000064, 25.094498529000077 ], [ 121.460579015, 25.094385492000072 ], [ 121.4606470760001, 25.094276941000032 ], [ 121.460709953000105, 25.094188729000052 ], [ 121.460775951000073, 25.094107271000041 ], [ 121.460962941000048, 25.093905813000049 ], [ 121.461704719000068, 25.093178998000042 ], [ 121.46189465000009, 25.093018158000064 ], [ 121.462065822000113, 25.092893488000072 ], [ 121.462219747000063, 25.092795958000067 ], [ 121.462383291000037, 25.092702910000071 ], [ 121.462691258000063, 25.092539445000057 ], [ 121.467521778000105, 25.090048374000048 ], [ 121.467699543000094, 25.089948498000069 ], [ 121.467871087000049, 25.089844139000036 ], [ 121.468038594000063, 25.089735273000031 ], [ 121.468319121000036, 25.089531253000075 ], [ 121.468485309000016, 25.089402079000024 ], [ 121.472296931000074, 25.086349786000028 ], [ 121.472611924000034, 25.086089228000048 ], [ 121.474364017000084, 25.084609798000031 ], [ 121.474564706000024, 25.084433110000077 ], [ 121.474748919000035, 25.084242929000027 ], [ 121.474855329000093, 25.084120706000078 ], [ 121.474967529000082, 25.083975897000073 ], [ 121.475102451000112, 25.083776842000077 ], [ 121.475159702000042, 25.083681864000027 ], [ 121.475213536000069, 25.083582385000057 ], [ 121.475296219000029, 25.083415095000078 ], [ 121.475612432000048, 25.082673771000032 ], [ 121.475668959000018, 25.08255170700005 ], [ 121.475715386000047, 25.082461282000054 ], [ 121.475792342000091, 25.082332385000029 ], [ 121.475846872000034, 25.082253214000048 ], [ 121.475945831000104, 25.082128757000078 ], [ 121.476074167000093, 25.081990662000067 ], [ 121.476185330000021, 25.081895511000027 ], [ 121.476279850000083, 25.081825243000026 ], [ 121.476435599000069, 25.081725426000048 ], [ 121.476554, 25.081661848000067 ], [ 121.476692863000039, 25.081600470000069 ], [ 121.476868891000095, 25.081536707000055 ], [ 121.477000419000092, 25.081502430000057 ], [ 121.477188013000045, 25.081465708000053 ], [ 121.477472865000095, 25.081426425000075 ], [ 121.478051310000069, 25.081361375000029 ], [ 121.478197751000039, 25.081338327000026 ], [ 121.478298350000046, 25.081317692000027 ], [ 121.478445054000076, 25.081281110000077 ], [ 121.478542515000072, 25.081249197000034 ], [ 121.478664393000031, 25.081203661000075 ], [ 121.478862312000047, 25.081112747000077 ], [ 121.479125686000089, 25.080967448000024 ], [ 121.48080845700008, 25.080014045000041 ], [ 121.481069018000085, 25.079861984000047 ], [ 121.481286274000013, 25.07972810800004 ], [ 121.481857671000057, 25.079369645000043 ], [ 121.482340742000019, 25.079083688000026 ], [ 121.488291034000099, 25.075784764000048 ], [ 121.488557453000112, 25.075632670000061 ], [ 121.488755868000112, 25.075514654000074 ], [ 121.488908502000072, 25.075414835000061 ], [ 121.48960829400005, 25.07494983600003 ], [ 121.489715823000097, 25.074881773000072 ], [ 121.489892921000092, 25.074779625000076 ], [ 121.490049026000065, 25.074697857000046 ], [ 121.490204854000012, 25.074622857000065 ], [ 121.490946092000058, 25.074297655000066 ], [ 121.49120025700006, 25.074179451000077 ], [ 121.491392517, 25.074074986000028 ], [ 121.491643136000107, 25.073922938000067 ], [ 121.49196999600008, 25.073702921000063 ], [ 121.498768433, 25.069010426000034 ], [ 121.498960552000085, 25.068872098000043 ], [ 121.499168372000099, 25.06871340500004 ], [ 121.499381690000064, 25.068534383000042 ], [ 121.499553910000031, 25.068380322000053 ], [ 121.500622564000082, 25.067388140000048 ], [ 121.501223767000056, 25.066846680000026 ], [ 121.501849990000096, 25.066289332000053 ], [ 121.502146252000102, 25.066019742000037 ], [ 121.503004166000096, 25.065238159000046 ], [ 121.503210357000057, 25.065061412000034 ], [ 121.503369390000103, 25.064941246000046 ], [ 121.503592150000031, 25.064802808000024 ], [ 121.50374918600005, 25.064723288000039 ], [ 121.503911823000067, 25.064652763000026 ], [ 121.504079467000111, 25.064593517000048 ], [ 121.504124399000034, 25.064580958000079 ], [ 121.504251176000025, 25.064545536000026 ], [ 121.50431957100011, 25.064529505000053 ], [ 121.504597193000109, 25.064476653000042 ], [ 121.505223763000117, 25.064386502000048 ] ] ] } }
]
}
