{
	"type": "FeatureCollection",
	"crs": {
		"type": "name",
		"properties": { "name": "urn:ogc:def:crs:OGC:1.3:CRS84" }
	},
	"features": [
		{
			"type": "Feature",
			"properties": {
				"station_id": "BL12",
				"station_name": "台北車站",
				"line": "板南線",
				"status": "alert"
			},
			"geometry": { "type": "Point", "coordinates": [121.5170, 25.0478] }
		},
		{
			"type": "Feature",
			"properties": {
				"station_id": "BL15",
				"station_name": "忠孝復興",
				"line": "板南線",
				"status": "alert"
			},
			"geometry": { "type": "Point", "coordinates": [121.5436, 25.0418] }
		},
		{
			"type": "Feature",
			"properties": {
				"station_id": "BL18",
				"station_name": "市政府",
				"line": "板南線",
				"status": "alert"
			},
			"geometry": { "type": "Point", "coordinates": [121.5651, 25.0410] }
		},
		{
			"type": "Feature",
			"properties": {
				"station_id": "R02",
				"station_name": "象山",
				"line": "淡水信義線",
				"status": "alert"
			},
			"geometry": { "type": "Point", "coordinates": [121.5703, 25.0327] }
		},
		{
			"type": "Feature",
			"properties": {
				"station_id": "R10",
				"station_name": "台北101/世貿",
				"line": "淡水信義線",
				"status": "alert"
			},
			"geometry": { "type": "Point", "coordinates": [121.5651, 25.0334] }
		},
		{
			"type": "Feature",
			"properties": {
				"station_id": "G14",
				"station_name": "松山",
				"line": "松山新店線",
				"status": "normal"
			},
			"geometry": { "type": "Point", "coordinates": [121.5775, 25.0497] }
		},
		{
			"type": "Feature",
			"properties": {
				"station_id": "G09",
				"station_name": "西門",
				"line": "松山新店線",
				"status": "normal"
			},
			"geometry": { "type": "Point", "coordinates": [121.5083, 25.0421] }
		},
		{
			"type": "Feature",
			"properties": {
				"station_id": "BR11",
				"station_name": "大安",
				"line": "文湖線",
				"status": "normal"
			},
			"geometry": { "type": "Point", "coordinates": [121.5436, 25.0335] }
		},
		{
			"type": "Feature",
			"properties": {
				"station_id": "BR15",
				"station_name": "南港展覽館",
				"line": "文湖線",
				"status": "normal"
			},
			"geometry": { "type": "Point", "coordinates": [121.6178, 25.0556] }
		},
		{
			"type": "Feature",
			"properties": {
				"station_id": "O09",
				"station_name": "東門",
				"line": "中和新蘆線",
				"status": "normal"
			},
			"geometry": { "type": "Point", "coordinates": [121.5290, 25.0334] }
		}
	]
}
