{
   "type": "FeatureCollection",
   "features": [
  {
    "type": "Feature",
    "geometry": {
       "type": "Point",
       "coordinates":  [ 121.5608156,25.0335821 ]
    },
    "properties": {
    "單位名稱":"臺北國際會議中心",
    "地區":"臺北市",
    "認證別":"",
    "淨下設備":"是",
    "小淨設備":"否",
    "祈禱室":"是",
    "認證單位":"",
    "行政區域":"信義區",
    "地址":"信義路五段1號"
    }
  },
  {
    "type": "Feature",
    "geometry": {
       "type": "Point",
       "coordinates":  [ 121.562324,25.0332591 ]
    },
    "properties": {
    "單位名稱":"展覽大樓(世貿1館)",
    "地區":"臺北市",
    "認證別":"",
    "淨下設備":"是",
    "小淨設備":"否",
    "祈禱室":"是",
    "認證單位":"",
    "行政區域":"信義區",
    "地址":"信義路五段5號"
    }
  },
  {
    "type": "Feature",
    "geometry": {
       "type": "Point",
       "coordinates":  [ 121.6179513,25.0564452 ]
    },
    "properties": {
    "單位名稱":"臺北南港展覽館1館",
    "地區":"臺北市",
    "認證別":"",
    "淨下設備":"是",
    "小淨設備":"否",
    "祈禱室":"是",
    "認證單位":"",
    "行政區域":"南港區",
    "地址":"經貿二路1號"
    }
  },
  {
    "type": "Feature",
    "geometry": {
       "type": "Point",
       "coordinates":  [ 121.5176154,25.0468588 ]
    },
    "properties": {
    "單位名稱":"臺鐵公司臺北站",
    "地區":"臺北市",
    "認證別":"",
    "淨下設備":"是",
    "小淨設備":"否",
    "祈禱室":"是",
    "認證單位":"",
    "行政區域":"中正區",
    "地址":"北平西路3號"
    }
  },
  {
    "type": "Feature",
    "geometry": {
       "type": "Point",
       "coordinates":  [ 121.5645389,25.033976 ]
    },
    "properties": {
    "單位名稱":"台北101觀景台",
    "地區":"臺北市",
    "認證別":"MFE",
    "淨下設備":"是",
    "小淨設備":"否",
    "祈禱室":"是",
    "認證單位":"中國回教協會",
    "行政區域":"信義區",
    "地址":"信義路五段7號"
    }
  },
  {
    "type": "Feature",
    "geometry": {
       "type": "Point",
       "coordinates":  [ 121.5227627,25.1208483 ]
    },
    "properties": {
    "單位名稱":"台北榮民總醫院",
    "地區":"臺北市",
    "認證別":"MFE",
    "淨下設備":"是",
    "小淨設備":"是",
    "祈禱室":"是",
    "認證單位":"中國回教協會",
    "行政區域":"北投區",
    "地址":"石牌路二段201號"
    }
  },
  {
    "type": "Feature",
    "geometry": {
       "type": "Point",
       "coordinates":  [ 121.566347,25.055357 ]
    },
    "properties": {
    "單位名稱":"臺北市立西松高中",
    "地區":"臺北市",
    "認證別":"MFE",
    "淨下設備":"是",
    "小淨設備":"否",
    "祈禱室":"是",
    "認證單位":"中國回教協會",
    "行政區域":"松山區",
    "地址":"健康路325巷7號"
    }
  },
  {
    "type": "Feature",
    "geometry": {
       "type": "Point",
       "coordinates":  [ 121.5153693,25.0980653 ]
    },
    "properties": {
    "單位名稱":"臺北市立兒童新樂園",
    "地區":"臺北市",
    "認證別":"MFE",
    "淨下設備":"是",
    "小淨設備":"否",
    "祈禱室":"是",
    "認證單位":"中國回教協會",
    "行政區域":"士林區",
    "地址":"承德路五段55號"
    }
  },
  {
    "type": "Feature",
    "geometry": {
       "type": "Point",
       "coordinates":  [ 121.5328723,25.1727741 ]
    },
    "properties": {
    "單位名稱":"大梯田生態花卉農園",
    "地區":"臺北市",
    "認證別":"MFE",
    "淨下設備":"是",
    "小淨設備":"否",
    "祈禱室":"是",
    "認證單位":"中國回教協會",
    "行政區域":"北投區",
    "地址":"竹子湖路33-7號附近號"
    }
  },
  {
    "type": "Feature",
    "geometry": {
       "type": "Point",
       "coordinates":  [ 121.5401001,25.1772074 ]
    },
    "properties": {
    "單位名稱":"財福海芋田",
    "地區":"臺北市",
    "認證別":"MFE",
    "淨下設備":"是",
    "小淨設備":"否",
    "祈禱室":"是",
    "認證單位":"中國回教協會",
    "行政區域":"北投區",
    "地址":"竹子湖路68號往前68公尺"
    }
  },
  {
    "type": "Feature",
    "geometry": {
       "type": "Point",
       "coordinates":  [ 121.520938,25.0964085 ]
    },
    "properties": {
    "單位名稱":"新光醫療財團法人新光吳火獅紀念醫院",
    "地區":"臺北市",
    "認證別":"MFE",
    "淨下設備":"是",
    "小淨設備":"是",
    "祈禱室":"是",
    "認證單位":"中國回教協會",
    "行政區域":"士林區",
    "地址":"文昌路95號"
    }
  },
  {
    "type": "Feature",
    "geometry": {
       "type": "Point",
       "coordinates":  [ 121.5959272,25.0733691 ]
    },
    "properties": {
    "單位名稱":"三軍總醫院",
    "地區":"臺北市",
    "認證別":"MFE",
    "淨下設備":"是",
    "小淨設備":"是",
    "祈禱室":"是",
    "認證單位":"中國回教協會",
    "行政區域":"內湖區",
    "地址":"成功路二段325號"
    }
  },
  {
    "type": "Feature",
    "geometry": {
       "type": "Point",
       "coordinates":  [ 121.5021431,25.0368554 ]
    },
    "properties": {
    "單位名稱":"剝皮寮歷史街區",
    "地區":"臺北市",
    "認證別":"MFE",
    "淨下設備":"是",
    "小淨設備":"否",
    "祈禱室":"是",
    "認證單位":"中國回教協會",
    "行政區域":"萬華區",
    "地址":"康定路173巷"
    }
  },
  {
    "type": "Feature",
    "geometry": {
       "type": "Point",
       "coordinates":  [ 121.4693127,25.1193466 ]
    },
    "properties": {
    "單位名稱":"關渡自然公園",
    "地區":"臺北市",
    "認證別":"MFE",
    "淨下設備":"是",
    "小淨設備":"否",
    "祈禱室":"是",
    "認證單位":"中國回教協會",
    "行政區域":"北投區",
    "地址":"關渡路55號"
    }
  },
  {
    "type": "Feature",
    "geometry": {
       "type": "Point",
       "coordinates":  [ 121.5206943,25.0405703 ]
    },
    "properties": {
    "單位名稱":"國立臺灣大學醫學院附設醫院",
    "地區":"臺北市",
    "認證別":"MFE",
    "淨下設備":"是",
    "小淨設備":"是",
    "祈禱室":"是",
    "認證單位":"中國回教協會",
    "行政區域":"中正區",
    "地址":"中山南路7號"
    }
  },
  {
    "type": "Feature",
    "geometry": {
       "type": "Point",
       "coordinates":  [ 121.5218265,25.0346522 ]
    },
    "properties": {
    "單位名稱":"國立中正紀念堂",
    "地區":"臺北市",
    "認證別":"MFE",
    "淨下設備":"是",
    "小淨設備":"否",
    "祈禱室":"是",
    "認證單位":"中國回教協會",
    "行政區域":"中正區",
    "地址":"中山南路21號"
    }
  },
  {
    "type": "Feature",
    "geometry": {
       "type": "Point",
       "coordinates":  [ 121.515018,25.1151759 ]
    },
    "properties": {
    "單位名稱":"故鄉農園",
    "地區":"臺北市",
    "認證別":"MFE",
    "淨下設備":"是",
    "小淨設備":"否",
    "祈禱室":"是",
    "認證單位":"中國回教協會",
    "行政區域":"北投區",
    "地址":"台北市北投區"
    }
  },
  {
    "type": "Feature",
    "geometry": {
       "type": "Point",
       "coordinates":  [ 121.5328723,25.1727741 ]
    },
    "properties": {
    "單位名稱":"曹家花田香",
    "地區":"臺北市",
    "認證別":"MFE",
    "淨下設備":"是",
    "小淨設備":"否",
    "祈禱室":"是",
    "認證單位":"中國回教協會",
    "行政區域":"北投區",
    "地址":"竹子湖路33-7號號 旁"
    }
  },
  {
    "type": "Feature",
    "geometry": {
       "type": "Point",
       "coordinates":  [ 121.5325565,25.1039708 ]
    },
    "properties": {
    "單位名稱":"芝山文化生態綠園",
    "地區":"臺北市",
    "認證別":"MFE",
    "淨下設備":"是",
    "小淨設備":"否",
    "祈禱室":"是",
    "認證單位":"中國回教協會",
    "行政區域":"士林區",
    "地址":"雨聲街120號"
    }
  },
  {
    "type": "Feature",
    "geometry": {
       "type": "Point",
       "coordinates":  [ 121.5484925,25.1023554 ]
    },
    "properties": {
    "單位名稱":"國立故宮博物院-本院院區",
    "地區":"臺北市",
    "認證別":"MFE",
    "淨下設備":"是",
    "小淨設備":"否",
    "祈禱室":"是",
    "認證單位":"中國回教協會",
    "行政區域":"士林區",
    "地址":"至善路二段221號"
    }
  },
  {
    "type": "Feature",
    "geometry": {
       "type": "Point",
       "coordinates":  [ 121.5584967,25.0004801 ]
    },
    "properties": {
    "單位名稱":"臺北市立萬芳醫院",
    "地區":"臺北市",
    "認證別":"MFE",
    "淨下設備":"是",
    "小淨設備":"否",
    "祈禱室":"是",
    "認證單位":"伊斯蘭商務發展有限公司",
    "行政區域":"文山區",
    "地址":"興隆路三段111號"
    }
  },
  {
    "type": "Feature",
    "geometry": {
       "type": "Point",
       "coordinates":  [ 121.563012,25.0269555 ]
    },
    "properties": {
    "單位名稱":"臺北醫學大學附設醫院",
    "地區":"臺北市",
    "認證別":"MFE",
    "淨下設備":"是",
    "小淨設備":"是",
    "祈禱室":"是",
    "認證單位":"伊斯蘭商務發展有限公司",
    "行政區域":"信義區",
    "地址":"吳興街252號"
    }
  },
  {
    "type": "Feature",
    "geometry": {
       "type": "Point",
       "coordinates":  [ 121.5246077,25.0950492 ]
    },
    "properties": {
    "單位名稱":"郭元益糕餅博物館",
    "地區":"臺北市",
    "認證別":"MFE",
    "淨下設備":"是",
    "小淨設備":"否",
    "祈禱室":"是",
    "認證單位":"中國回教協會",
    "行政區域":"士林區",
    "地址":"青年路9巷3號"
    }
  },
  {
    "type": "Feature",
    "geometry": {
       "type": "Point",
       "coordinates":  [ 121.588118,25.1078961 ]
    },
    "properties": {
    "單位名稱":"白石森活有機農場",
    "地區":"臺北市",
    "認證別":"MFE",
    "淨下設備":"是",
    "小淨設備":"否",
    "祈禱室":"是",
    "認證單位":"中國回教協會",
    "行政區域":"內湖區",
    "地址":"碧山路50號"
    }
  },
  {
    "type": "Feature",
    "geometry": {
       "type": "Point",
       "coordinates":  [ 121.529578,25.091882 ]
    },
    "properties": {
    "單位名稱":"士林官邸公園",
    "地區":"臺北市",
    "認證別":"MFE",
    "淨下設備":"是",
    "小淨設備":"否",
    "祈禱室":"是",
    "認證單位":"中國回教協會",
    "行政區域":"士林區",
    "地址":"中山北路五段460巷4號"
    }
  },
  {
    "type": "Feature",
    "geometry": {
       "type": "Point",
       "coordinates":  [ 121.5453853,25.037298 ]
    },
    "properties": {
    "單位名稱":"臺北市立聯合醫院(仁愛院區)",
    "地區":"臺北市",
    "認證別":"MFH",
    "淨下設備":"是",
    "小淨設備":"是",
    "祈禱室":"是",
    "認證單位":"巴勒克清真產業有限公司",
    "行政區域":"大安區",
    "地址":"仁愛路四段10號"
    }
  },
  {
    "type": "Feature",
    "geometry": {
       "type": "Point",
       "coordinates":  [ 121.5318912,25.1051369 ]
    },
    "properties": {
    "單位名稱":"臺北市立聯合醫院(陽明院區)",
    "地區":"臺北市",
    "認證別":"MFH",
    "淨下設備":"是",
    "小淨設備":"是",
    "祈禱室":"是",
    "認證單位":"巴勒克清真產業有限公司",
    "行政區域":"士林區",
    "地址":"雨聲街105號"
    }
  },
  {
    "type": "Feature",
    "geometry": {
       "type": "Point",
       "coordinates":  [ 121.5745193,25.0292132 ]
    },
    "properties": {
    "單位名稱":"臺北市立聯合醫院(松德院區)",
    "地區":"臺北市",
    "認證別":"MFH",
    "淨下設備":"是",
    "小淨設備":"是",
    "祈禱室":"是",
    "認證單位":"巴勒克清真產業有限公司",
    "行政區域":"信義區",
    "地址":"松德路309號"
    }
  },
  {
    "type": "Feature",
    "geometry": {
       "type": "Point",
       "coordinates":  [ 121.5087132,25.0513086 ]
    },
    "properties": {
    "單位名稱":"臺北市立聯合醫院(中興院區)",
    "地區":"臺北市",
    "認證別":"MFH",
    "淨下設備":"是",
    "小淨設備":"是",
    "祈禱室":"是",
    "認證單位":"巴勒克清真產業有限公司",
    "行政區域":"大同區",
    "地址":"鄭州路145號"
    }
  },
  {
    "type": "Feature",
    "geometry": {
       "type": "Point",
       "coordinates":  [ 121.5861422,25.0465997 ]
    },
    "properties": {
    "單位名稱":"臺北市立聯合醫院(忠孝院區)",
    "地區":"臺北市",
    "認證別":"MFH",
    "淨下設備":"是",
    "小淨設備":"是",
    "祈禱室":"是",
    "認證單位":"巴勒克清真產業有限公司",
    "行政區域":"南港區",
    "地址":"同德路87號"
    }
  },
  {
    "type": "Feature",
    "geometry": {
       "type": "Point",
       "coordinates":  [ 121.5066106,24.9896174 ]
    },
    "properties": {
    "單位名稱":"臺北市立聯合醫院(和平婦幼院區)",
    "地區":"臺北市",
    "認證別":"MFH",
    "淨下設備":"是",
    "小淨設備":"是",
    "祈禱室":"是",
    "認證單位":"巴勒克清真產業有限公司",
    "行政區域":"中正區",
    "地址":"南山路236號6-7樓"
    }
  },
  {
    "type": "Feature",
    "geometry": {
       "type": "Point",
       "coordinates":  [ 121.5066106,24.9896174 ]
    },
    "properties": {
    "單位名稱":"新北市立圖書館-中和分館",
    "地區":"新北市",
    "認證別":"",
    "淨下設備":"是",
    "小淨設備":"是",
    "祈禱室":"是",
    "認證單位":"",
    "行政區域":"中和區",
    "地址":"南山路236號6-7樓"
    }
  },
  {
    "type": "Feature",
    "geometry": {
       "type": "Point",
       "coordinates":  [ 121.9425187,25.0169281 ]
    },
    "properties": {
    "單位名稱":"交通部觀光署東北角及宜蘭海岸國家風景區",
    "地區":"新北市",
    "認證別":"",
    "淨下設備":"是",
    "小淨設備":"否",
    "祈禱室":"是",
    "認證單位":"",
    "行政區域":"貢寮區",
    "地址":"興隆街36號"
    }
  },
  {
    "type": "Feature",
    "geometry": {
       "type": "Point",
       "coordinates":  [ 121.5517213,24.8485154 ]
    },
    "properties": {
    "單位名稱":"烏來林業生活館",
    "地區":"新北市",
    "認證別":"",
    "淨下設備":"是",
    "小淨設備":"否",
    "祈禱室":"否",
    "認證單位":"",
    "行政區域":"烏來區",
    "地址":"瀑布路1之2號"
    }
  },
  {
    "type": "Feature",
    "geometry": {
       "type": "Point",
       "coordinates":  [ 121.5497801,24.8663721 ]
    },
    "properties": {
    "單位名稱":"內洞國家森林遊樂區",
    "地區":"新北市",
    "認證別":"",
    "淨下設備":"是",
    "小淨設備":"否",
    "祈禱室":"否",
    "認證單位":"",
    "行政區域":"烏來區",
    "地址":"46號"
    }
  },
  {
    "type": "Feature",
    "geometry": {
       "type": "Point",
       "coordinates":  [ 121.4532954,24.997236 ]
    },
    "properties": {
    "單位名稱":"滿月圓國家森林遊樂區",
    "地區":"新北市",
    "認證別":"",
    "淨下設備":"是",
    "小淨設備":"否",
    "祈禱室":"否",
    "認證單位":"",
    "行政區域":"三峽區",
    "地址":"南雅南路二段21號"
    }
  },
  {
    "type": "Feature",
    "geometry": {
       "type": "Point",
       "coordinates":  [ 121.4532954,24.997236 ]
    },
    "properties": {
    "單位名稱":"醫療財團法人徐元智先生醫藥基金會-亞東紀念醫院",
    "地區":"新北市",
    "認證別":"MFE",
    "淨下設備":"是",
    "小淨設備":"否",
    "祈禱室":"是",
    "認證單位":"中國回教協會",
    "行政區域":"板橋區",
    "地址":"南雅南路二段21號"
    }
  },
  {
    "type": "Feature",
    "geometry": {
       "type": "Point",
       "coordinates":  [ 121.521283,25.27841 ]
    },
    "properties": {
    "單位名稱":"交通部觀光署北海岸及觀音山國家風景區管理處 - 三芝遊客中心",
    "地區":"新北市",
    "認證別":"MFE",
    "淨下設備":"是",
    "小淨設備":"否",
    "祈禱室":"是",
    "認證單位":"中國回教協會",
    "行政區域":"石門區",
    "地址":"德茂里下員坑33-6號"
    }
  },
  {
    "type": "Feature",
    "geometry": {
       "type": "Point",
       "coordinates":  [ 121.521283,25.27841 ]
    },
    "properties": {
    "單位名稱":"交通部觀光署北海岸及觀音山國家風景區管理處 - 白沙灣遊客中心",
    "地區":"新北市",
    "認證別":"MFE",
    "淨下設備":"是",
    "小淨設備":"否",
    "祈禱室":"是",
    "認證單位":"中國回教協會",
    "行政區域":"石門區",
    "地址":"德茂里下員坑33-6號"
    }
  },
  {
    "type": "Feature",
    "geometry": {
       "type": "Point",
       "coordinates":  [ 121.521283,25.27841 ]
    },
    "properties": {
    "單位名稱":"交通部觀光署北海岸及觀音山國家風景區管理處 - 觀音山遊客中心",
    "地區":"新北市",
    "認證別":"MFE",
    "淨下設備":"是",
    "小淨設備":"否",
    "祈禱室":"是",
    "認證單位":"中國回教協會",
    "行政區域":"石門區",
    "地址":"德茂里下員坑33-6號"
    }
  },
  {
    "type": "Feature",
    "geometry": {
       "type": "Point",
       "coordinates":  [ 121.521283,25.27841 ]
    },
    "properties": {
    "單位名稱":"交通部觀光署北海岸及觀音山國家風景區管理處 - 金山遊客中心",
    "地區":"新北市",
    "認證別":"MFE",
    "淨下設備":"是",
    "小淨設備":"否",
    "祈禱室":"是",
    "認證單位":"中國回教協會",
    "行政區域":"石門區",
    "地址":"茂里下員坑33-6號"
    }
  },
  {
    "type": "Feature",
    "geometry": {
       "type": "Point",
       "coordinates":  [ 121.521283,25.27841 ]
    },
    "properties": {
    "單位名稱":"交通部觀光署北海岸及觀音山國家風景區管理處 - 野柳遊客中心",
    "地區":"新北市",
    "認證別":"MFE",
    "淨下設備":"是",
    "小淨設備":"是",
    "祈禱室":"是",
    "認證單位":"中國回教協會",
    "行政區域":"石門區",
    "地址":"德茂里下員坑33-6號"
    }
  },
  {
    "type": "Feature",
    "geometry": {
       "type": "Point",
       "coordinates":  [ 121.4936559,24.9927442 ]
    },
    "properties": {
    "單位名稱":"衛生福利部雙和醫院",
    "地區":"新北市",
    "認證別":"MFE",
    "淨下設備":"是",
    "小淨設備":"否",
    "祈禱室":"是",
    "認證單位":"中國回教協會",
    "行政區域":"中和區",
    "地址":"中正路291號"
    }
  },
  {
    "type": "Feature",
    "geometry": {
       "type": "Point",
       "coordinates":  [ 121.9425187,25.0169281 ]
    },
    "properties": {
    "單位名稱":"東北角及宜蘭海岸國家風景區管理處-福隆遊客中心",
    "地區":"新北市",
    "認證別":"MFE",
    "淨下設備":"是",
    "小淨設備":"否",
    "祈禱室":"是",
    "認證單位":"伊斯蘭商務發展有限公司",
    "行政區域":"貢寮區",
    "地址":"興隆街36號"
    }
  }
]
}