{
   "type": "FeatureCollection",
   "features": [
  {
    "type": "Feature",
    "geometry": {
       "type": "Point",
       "coordinates":  [ 121.5330596,25.1234101 ]
    },
    "properties": {
    "no":1,
    "title":"台北市士林區天和社區發展協會",
    "county":"台北市",
    "town":"士林區",
    "address":"臺北市士林區天山里中山北路7段154巷 6號4樓",
    "tel":"無",
    "mobile":"0936-889263"
    }
  },
  {
    "type": "Feature",
    "geometry": {
       "type": "Point",
       "coordinates":  [ 121.5081024,25.0913621 ]
    },
    "properties": {
    "no":2,
    "title":"臺北市三樂樂齡關懷協會",
    "county":"台北市",
    "town":"士林區",
    "address":"臺北市士林區社園里社中街226號1樓",
    "tel":"無",
    "mobile":"0937-070078"
    }
  },
  {
    "type": "Feature",
    "geometry": {
       "type": "Point",
       "coordinates":  [ 121.5330052,25.1258702 ]
    },
    "properties": {
    "no":3,
    "title":"財團法人陽明山基督教天母禮拜堂",
    "county":"台北市",
    "town":"士林區",
    "address":"臺北市士林區天母里中山北路7段216巷 1號",
    "tel":"無",
    "mobile":"02-28711622"
    }
  },
  {
    "type": "Feature",
    "geometry": {
       "type": "Point",
       "coordinates":  [ 121.5321052,25.1224019 ]
    },
    "properties": {
    "no":4,
    "title":"財團法人臺北市松年長春社會福利基金會(士林)",
    "county":"台北市",
    "town":"士林區",
    "address":"臺北市士林區天山里中山北路7段122號 3樓",
    "tel":"無",
    "mobile":"02-28723425"
    }
  },
  {
    "type": "Feature",
    "geometry": {
       "type": "Point",
       "coordinates":  [ 121.5086165,25.0838426 ]
    },
    "properties": {
    "no":5,
    "title":"臺北市士林區葫蘆里辦公處",
    "county":"台北市",
    "town":"士林區",
    "address":"臺北市士林區葫蘆里葫蘆街137號",
    "tel":"無",
    "mobile":"0958-972685"
    }
  },
  {
    "type": "Feature",
    "geometry": {
       "type": "Point",
       "coordinates":  [ 121.5234851,25.1054699 ]
    },
    "properties": {
    "no":6,
    "title":"臺北市士林區德行里里辦公處",
    "county":"台北市",
    "town":"士林區",
    "address":"臺北市士林區德行里德行西路30號",
    "tel":"無",
    "mobile":"02-88662865"
    }
  },
  {
    "type": "Feature",
    "geometry": {
       "type": "Point",
       "coordinates":  [ 121.5289939,25.1066967 ]
    },
    "properties": {
    "no":7,
    "title":"臺北市士林區忠義社區發展協會",
    "county":"台北市",
    "town":"士林區",
    "address":"臺北市士林區忠誠里德行東路104巷9弄 8號旁里民活動中心",
    "tel":"無",
    "mobile":"02-28310943"
    }
  },
  {
    "type": "Feature",
    "geometry": {
       "type": "Point",
       "coordinates":  [ 121.5613135,25.1087676 ]
    },
    "properties": {
    "no":8,
    "title":"財團法人台北市中華基督教浸信會慈光堂",
    "county":"台北市",
    "town":"士林區",
    "address":"臺北市士林區翠山里中社路1段43巷1號",
    "tel":"無",
    "mobile":"02-28412290"
    }
  },
  {
    "type": "Feature",
    "geometry": {
       "type": "Point",
       "coordinates":  [ 121.5322353,25.1092589 ]
    },
    "properties": {
    "no":9,
    "title":"台灣健康社區自主發展協會",
    "county":"台北市",
    "town":"士林區",
    "address":"臺北市士林區三玉里德行東路203巷2號 1樓",
    "tel":"無",
    "mobile":"02-28369493"
    }
  },
  {
    "type": "Feature",
    "geometry": {
       "type": "Point",
       "coordinates":  [ 121.5288741,25.1036648 ]
    },
    "properties": {
    "no":10,
    "title":"台北市士林區芝山岩社區發展協會",
    "county":"台北市",
    "town":"士林區",
    "address":"臺北市士林區名山里雨聲街68號(芝山岩區民活動中心)",
    "tel":"無",
    "mobile":"0911-328596"
    }
  },
  {
    "type": "Feature",
    "geometry": {
       "type": "Point",
       "coordinates":  [ 121.5232797,25.0940496 ]
    },
    "properties": {
    "no":11,
    "title":"社團法人台北市士林全人關懷協會",
    "county":"台北市",
    "town":"士林區",
    "address":"臺北市士林區福德里中正路335巷9號 &11號",
    "tel":"無",
    "mobile":"02-28812746"
    }
  },
  {
    "type": "Feature",
    "geometry": {
       "type": "Point",
       "coordinates":  [ 121.5372188,25.1010597 ]
    },
    "properties": {
    "no":12,
    "title":"財團法人台北市華夏婦女文教基金會",
    "county":"台北市",
    "town":"士林區",
    "address":"臺北市士林區岩山里至誠路1段62巷28號",
    "tel":"無",
    "mobile":"02-28318025"
    }
  },
  {
    "type": "Feature",
    "geometry": {
       "type": "Point",
       "coordinates":  [ 121.5292851,25.1212302 ]
    },
    "properties": {
    "no":13,
    "title":"財團法人台北市天母基督教會",
    "county":"台北市",
    "town":"士林區",
    "address":"臺北市士林區天母里天玉街63.65號",
    "tel":"無",
    "mobile":"02-28714742"
    }
  },
  {
    "type": "Feature",
    "geometry": {
       "type": "Point",
       "coordinates":  [ 121.517745,25.087166 ]
    },
    "properties": {
    "no":14,
    "title":"臺北市士林區福中里辦公處",
    "county":"台北市",
    "town":"士林區",
    "address":"臺北市士林區福中里福港街151號10樓",
    "tel":"無",
    "mobile":"02-28838207"
    }
  },
  {
    "type": "Feature",
    "geometry": {
       "type": "Point",
       "coordinates":  [ 121.5288741,25.1036648 ]
    },
    "properties": {
    "no":15,
    "title":"臺北市士林區幸福名山社區發展協會",
    "county":"台北市",
    "town":"士林區",
    "address":"臺北市士林區名山里雨聲街68號",
    "tel":"無",
    "mobile":"0936-466316"
    }
  },
  {
    "type": "Feature",
    "geometry": {
       "type": "Point",
       "coordinates":  [ 121.5172144,25.0842964 ]
    },
    "properties": {
    "no":16,
    "title":"台北市劍橋有愛全人關懷協會",
    "county":"台北市",
    "town":"士林區",
    "address":"臺北市士林區百齡里福港街244巷3號1樓",
    "tel":"無",
    "mobile":"02-28812424"
    }
  },
  {
    "type": "Feature",
    "geometry": {
       "type": "Point",
       "coordinates":  [ 121.5114478,25.0820854 ]
    },
    "properties": {
    "no":17,
    "title":"臺北市士林區福順里辦公處",
    "county":"台北市",
    "town":"士林區",
    "address":"臺北市士林區福順里延平北路5段136巷 24號",
    "tel":"無",
    "mobile":"02-28160989"
    }
  },
  {
    "type": "Feature",
    "geometry": {
       "type": "Point",
       "coordinates":  [ 121.5322519,25.1227884 ]
    },
    "properties": {
    "no":18,
    "title":"財團法人天主教遣使會-聖文生之友社區關懷據點",
    "county":"台北市",
    "town":"士林區",
    "address":"臺北市士林區天山里中山北路7段134號",
    "tel":"無",
    "mobile":"02-28763236"
    }
  },
  {
    "type": "Feature",
    "geometry": {
       "type": "Point",
       "coordinates":  [ 121.5174651,25.0913588 ]
    },
    "properties": {
    "no":19,
    "title":"財團法人台灣聖公會(牧愛堂)",
    "county":"台北市",
    "town":"士林區",
    "address":"臺北市士林區後港里中正路511號",
    "tel":"無",
    "mobile":"02-28816317"
    }
  },
  {
    "type": "Feature",
    "geometry": {
       "type": "Point",
       "coordinates":  [ 121.5087503,25.08085 ]
    },
    "properties": {
    "no":20,
    "title":"臺北市士林區富光里辦公處",
    "county":"台北市",
    "town":"士林區",
    "address":"臺北市士林區富光里葫蘆街62號",
    "tel":"無",
    "mobile":"02-28160879"
    }
  },
  {
    "type": "Feature",
    "geometry": {
       "type": "Point",
       "coordinates":  [ 121.5222819,25.0872006 ]
    },
    "properties": {
    "no":21,
    "title":"財團法人新北市基督教新希望教會(百齡長青)",
    "county":"台北市",
    "town":"士林區",
    "address":"臺北市士林區前港里承德路4段190號4樓",
    "tel":"無",
    "mobile":"02-28815100"
    }
  },
  {
    "type": "Feature",
    "geometry": {
       "type": "Point",
       "coordinates":  [ 121.5351803,25.1001582 ]
    },
    "properties": {
    "no":22,
    "title":"社團法人中華悅齡長照關懷協會",
    "county":"台北市",
    "town":"士林區",
    "address":"臺北市士林區福志里福林路377號(感恩堂)",
    "tel":"無",
    "mobile":"02-28327510"
    }
  },
  {
    "type": "Feature",
    "geometry": {
       "type": "Point",
       "coordinates":  [ 121.5185041,25.087774 ]
    },
    "properties": {
    "no":23,
    "title":"財團法人新北市基督教新希望教會(福中)",
    "county":"台北市",
    "town":"士林區",
    "address":"臺北市士林區福中里福港街129巷10弄 12號1樓",
    "tel":"無",
    "mobile":"02-28834569"
    }
  },
  {
    "type": "Feature",
    "geometry": {
       "type": "Point",
       "coordinates":  [ 121.5107238,25.0866496 ]
    },
    "properties": {
    "no":24,
    "title":"臺北市士林區葫東里辦公處",
    "county":"台北市",
    "town":"士林區",
    "address":"臺北市士林區葫東里中正路589號1樓",
    "tel":"無",
    "mobile":"0933-716265"
    }
  },
  {
    "type": "Feature",
    "geometry": {
       "type": "Point",
       "coordinates":  [ 121.5251501,25.1092337 ]
    },
    "properties": {
    "no":25,
    "title":"財團法人福智慈善基金會(天母據點)",
    "county":"台北市",
    "town":"士林區",
    "address":"臺北市士林區蘭興里中山北路6段243號 1樓",
    "tel":"無",
    "mobile":"02-28382503#0"
    }
  },
  {
    "type": "Feature",
    "geometry": {
       "type": "Point",
       "coordinates":  [ 121.5303175,25.1217666 ]
    },
    "properties": {
    "no":26,
    "title":"臺北市天母全人關懷協會",
    "county":"台北市",
    "town":"士林區",
    "address":"臺北市士林區天玉里中山北路7段81巷7號B2",
    "tel":"無",
    "mobile":"02-28746222#114"
    }
  },
  {
    "type": "Feature",
    "geometry": {
       "type": "Point",
       "coordinates":  [ 121.5233244,25.0885079 ]
    },
    "properties": {
    "no":27,
    "title":"社團法人中華仁親社區關懷協會",
    "county":"台北市",
    "town":"士林區",
    "address":"臺北市士林區義信里基河路128號2樓",
    "tel":"無",
    "mobile":"02-77455477"
    }
  },
  {
    "type": "Feature",
    "geometry": {
       "type": "Point",
       "coordinates":  [ 121.5083523,25.0818787 ]
    },
    "properties": {
    "no":28,
    "title":"臺北市士林海光社區發展協會",
    "county":"台北市",
    "town":"士林區",
    "address":"臺北市士林區富光里葫蘆街86號1樓",
    "tel":"無",
    "mobile":"02-28162459"
    }
  },
  {
    "type": "Feature",
    "geometry": {
       "type": "Point",
       "coordinates":  [ 121.5139329,25.0553957 ]
    },
    "properties": {
    "no":29,
    "title":"台北市朝陽服飾材料街區發展協會",
    "county":"台北市",
    "town":"大同區",
    "address":"臺北市大同區朝陽里重慶北路46巷6號",
    "tel":"無",
    "mobile":"02-25523101"
    }
  },
  {
    "type": "Feature",
    "geometry": {
       "type": "Point",
       "coordinates":  [ 121.5115213,25.055393 ]
    },
    "properties": {
    "no":30,
    "title":"社團法人台北市歐伊寇斯OIKOS社區關懷協會",
    "county":"台北市",
    "town":"大同區",
    "address":"臺北市大同區永樂里延平北路2段60巷2號",
    "tel":"無",
    "mobile":"0975-388979"
    }
  },
  {
    "type": "Feature",
    "geometry": {
       "type": "Point",
       "coordinates":  [ 121.5129185,25.067642 ]
    },
    "properties": {
    "no":31,
    "title":"臺北市大同區國慶社區發展協會",
    "county":"台北市",
    "town":"大同區",
    "address":"臺北市大同區國慶里重慶北路3段136巷 18、20號",
    "tel":"無",
    "mobile":"02-25940089"
    }
  },
  {
    "type": "Feature",
    "geometry": {
       "type": "Point",
       "coordinates":  [ 121.5180203,25.0653101 ]
    },
    "properties": {
    "no":32,
    "title":"社團法人中華萌愛關懷協會",
    "county":"台北市",
    "town":"大同區",
    "address":"臺北市大同區蓬萊里承德路3段60號B1",
    "tel":"無",
    "mobile":"02-25931138"
    }
  },
  {
    "type": "Feature",
    "geometry": {
       "type": "Point",
       "coordinates":  [ 121.5202958,25.0521949 ]
    },
    "properties": {
    "no":33,
    "title":"財團法人台北市建成基督長老教會",
    "county":"台北市",
    "town":"大同區",
    "address":"臺北市大同區建泰里承德路1段77巷29號",
    "tel":"無",
    "mobile":"02-25580685"
    }
  },
  {
    "type": "Feature",
    "geometry": {
       "type": "Point",
       "coordinates":  [ 121.5155384,25.0705638 ]
    },
    "properties": {
    "no":34,
    "title":"臺北市大同信望愛關懷協會(門諾)",
    "county":"台北市",
    "town":"大同區",
    "address":"臺北市大同區至聖里重慶北路3段223巷 43、45、47號",
    "tel":"無",
    "mobile":"02-25948855"
    }
  },
  {
    "type": "Feature",
    "geometry": {
       "type": "Point",
       "coordinates":  [ 121.5094468,25.064832 ]
    },
    "properties": {
    "no":35,
    "title":"財團法人臺北市松年長春社會福利基金會(大橋)",
    "county":"台北市",
    "town":"大同區",
    "address":"臺北市大同區景星里迪化街2段65號、 67號1樓",
    "tel":"無",
    "mobile":"02-25974784"
    }
  },
  {
    "type": "Feature",
    "geometry": {
       "type": "Point",
       "coordinates":  [ 121.5170522,25.0687846 ]
    },
    "properties": {
    "no":36,
    "title":"天主教耕莘醫療財團法人永和耕莘醫院(大龍老人住宅)",
    "county":"台北市",
    "town":"大同區",
    "address":"臺北市大同區至聖里民族西路105號4樓及4樓之1",
    "tel":"無",
    "mobile":"02-66178186"
    }
  },
  {
    "type": "Feature",
    "geometry": {
       "type": "Point",
       "coordinates":  [ 121.517115,25.075818 ]
    },
    "properties": {
    "no":37,
    "title":"台北市大同區慶安社區發展協會",
    "county":"台北市",
    "town":"大同區",
    "address":"臺北市大同區重慶里敦煌路90-92號1樓",
    "tel":"無",
    "mobile":"0931-101838"
    }
  },
  {
    "type": "Feature",
    "geometry": {
       "type": "Point",
       "coordinates":  [ 121.5106284,25.0595187 ]
    },
    "properties": {
    "no":38,
    "title":"台北市大同區大有里辦公處",
    "county":"台北市",
    "town":"大同區",
    "address":"臺北市大同區大有里民樂街179號1樓",
    "tel":"無",
    "mobile":"0931-903250"
    }
  },
  {
    "type": "Feature",
    "geometry": {
       "type": "Point",
       "coordinates":  [ 121.5122298,25.0647371 ]
    },
    "properties": {
    "no":39,
    "title":"社團法人中華視障安養福利協會",
    "county":"台北市",
    "town":"大同區",
    "address":"臺北市大同區隆和里伊寧街37號1樓",
    "tel":"無",
    "mobile":"02-25952872"
    }
  },
  {
    "type": "Feature",
    "geometry": {
       "type": "Point",
       "coordinates":  [ 121.5136357,25.0495802 ]
    },
    "properties": {
    "no":40,
    "title":"臺北市大同區圓環社區發展協會",
    "county":"台北市",
    "town":"大同區",
    "address":"臺北市大同區建功里重慶北路1段83巷 37號",
    "tel":"無",
    "mobile":"02-25564651"
    }
  },
  {
    "type": "Feature",
    "geometry": {
       "type": "Point",
       "coordinates":  [ 121.5150317,25.062729 ]
    },
    "properties": {
    "no":41,
    "title":"臺北市大同區柴寮仔社區發展協會",
    "county":"台北市",
    "town":"大同區",
    "address":"臺北市大同區民權里民權西路172號1樓",
    "tel":"無",
    "mobile":"0932-844756"
    }
  },
  {
    "type": "Feature",
    "geometry": {
       "type": "Point",
       "coordinates":  [ 121.5183945,25.0550964 ]
    },
    "properties": {
    "no":42,
    "title":"財團法人臺北市松年長春社會福利基金會(大同)",
    "county":"台北市",
    "town":"大同區",
    "address":"臺北市大同區光能里承德路2段33號1樓",
    "tel":"無",
    "mobile":"02-25000261"
    }
  },
  {
    "type": "Feature",
    "geometry": {
       "type": "Point",
       "coordinates":  [ 121.5382079,25.0345817 ]
    },
    "properties": {
    "no":43,
    "title":"臺北市大安區新民炤社區發展協會",
    "county":"台北市",
    "town":"大安區",
    "address":"臺北市大安區民炤里建國南路1段286巷 48號1樓\n臺北市大安區民炤里建國南路1段286巷 35號1樓",
    "tel":"無",
    "mobile":"02-27012389"
    }
  },
  {
    "type": "Feature",
    "geometry": {
       "type": "Point",
       "coordinates":  [ 121.5346193,25.0341448 ]
    },
    "properties": {
    "no":44,
    "title":"臺北市大安區民炤里辦公處",
    "county":"台北市",
    "town":"大安區",
    "address":"臺北市大安區民炤里信義路3段31巷5號 1樓",
    "tel":"無",
    "mobile":"02-27008406"
    }
  },
  {
    "type": "Feature",
    "geometry": {
       "type": "Point",
       "coordinates":  [ 121.5322277,25.0265933 ]
    },
    "properties": {
    "no":45,
    "title":"社團法人台灣厝邊有愛關懷協會 (台北和平)",
    "county":"台北市",
    "town":"大安區",
    "address":"臺北市大安區龍安里和平東路1段183巷 9號",
    "tel":"無",
    "mobile":"02-23510087"
    }
  },
  {
    "type": "Feature",
    "geometry": {
       "type": "Point",
       "coordinates":  [ 121.5411633,25.0280185 ]
    },
    "properties": {
    "no":46,
    "title":"臺北市長立健康樂活協會",
    "county":"台北市",
    "town":"大安區",
    "address":"臺北市大安區龍陣里瑞安街75號3樓(瑞安區民活動中心)",
    "tel":"無",
    "mobile":"0958-918669"
    }
  },
  {
    "type": "Feature",
    "geometry": {
       "type": "Point",
       "coordinates":  [ 121.551054,25.038636 ]
    },
    "properties": {
    "no":47,
    "title":"財團法人台北市城東基督長老教會",
    "county":"台北市",
    "town":"大安區",
    "address":"臺北市大安區建倫里安和路1段43號2樓及45號1樓(城東教會)",
    "tel":"無",
    "mobile":"02-27711282"
    }
  },
  {
    "type": "Feature",
    "geometry": {
       "type": "Point",
       "coordinates":  [ 121.5546889,25.0344478 ]
    },
    "properties": {
    "no":48,
    "title":"財團法人福智慈善基金會(安和據點)",
    "county":"台北市",
    "town":"大安區",
    "address":"臺北市大安區光信里信義路4段265巷21弄3號1樓\n臺北市大安區信義路4段265巷21弄1號1樓",
    "tel":"無",
    "mobile":"02-77526788"
    }
  },
  {
    "type": "Feature",
    "geometry": {
       "type": "Point",
       "coordinates":  [ 121.5245957,25.0255496 ]
    },
    "properties": {
    "no":49,
    "title":"臺北市大安區古莊社區發展協會",
    "county":"台北市",
    "town":"大安區",
    "address":"臺北市大安區古莊里羅斯福路2段81巷 16弄1-2號2樓",
    "tel":"無",
    "mobile":"02-23696262"
    }
  },
  {
    "type": "Feature",
    "geometry": {
       "type": "Point",
       "coordinates":  [ 121.533964,25.026482 ]
    },
    "properties": {
    "no":50,
    "title":"財團法人台灣基督長老教會大安教會",
    "county":"台北市",
    "town":"大安區",
    "address":"臺北市大安區群賢里和平東路3段1巷51號",
    "tel":"無",
    "mobile":"02-27064477"
    }
  },
  {
    "type": "Feature",
    "geometry": {
       "type": "Point",
       "coordinates":  [ 121.5438732,25.0361475 ]
    },
    "properties": {
    "no":51,
    "title":"財團法人成長文教基金會",
    "county":"台北市",
    "town":"大安區",
    "address":"臺北市大安區仁慈里東豐街1號2樓",
    "tel":"無",
    "mobile":"02-27000657"
    }
  },
  {
    "type": "Feature",
    "geometry": {
       "type": "Point",
       "coordinates":  [ 121.5473046,25.0342045 ]
    },
    "properties": {
    "no":52,
    "title":"財團法人全成社會福利基金會(大安老人服務暨日間照顧中心)",
    "county":"台北市",
    "town":"大安區",
    "address":"臺北市大安區德安里四維路76巷12號",
    "tel":"無",
    "mobile":"02-27086255"
    }
  },
  {
    "type": "Feature",
    "geometry": {
       "type": "Point",
       "coordinates":  [ 121.533964,25.026482 ]
    },
    "properties": {
    "no":53,
    "title":"社團法人中華生命關愛協會",
    "county":"台北市",
    "town":"大安區",
    "address":"臺北市大安區芳和里和平東路3段212巷 12號",
    "tel":"無",
    "mobile":"0922-407837"
    }
  },
  {
    "type": "Feature",
    "geometry": {
       "type": "Point",
       "coordinates":  [ 121.545737,25.0321507 ]
    },
    "properties": {
    "no":54,
    "title":"臺北市大安區住安社區發展協會",
    "county":"台北市",
    "town":"大安區",
    "address":"臺北市大安區住安里信義路4段30巷27弄24號1、2樓",
    "tel":"無",
    "mobile":"02-27550387"
    }
  },
  {
    "type": "Feature",
    "geometry": {
       "type": "Point",
       "coordinates":  [ 121.5258274,25.0337801 ]
    },
    "properties": {
    "no":55,
    "title":"臺北市大安區光明里辦公處",
    "county":"台北市",
    "town":"大安區",
    "address":"臺北市大安區光明里信義路2段86巷26號",
    "tel":"無",
    "mobile":"0919-933237"
    }
  },
  {
    "type": "Feature",
    "geometry": {
       "type": "Point",
       "coordinates":  [ 121.5335436,25.0264703 ]
    },
    "properties": {
    "no":56,
    "title":"社團法人台灣愛鄰社區服務協會",
    "county":"台北市",
    "town":"大安區",
    "address":"臺北市大安區龍門里和平東路2段24號愛鄰樓1F、愛鄰樓3F",
    "tel":"無",
    "mobile":"02-23623022"
    }
  },
  {
    "type": "Feature",
    "geometry": {
       "type": "Point",
       "coordinates":  [ 121.5221514,25.0286154 ]
    },
    "properties": {
    "no":57,
    "title":"臺北市大安區錦華里辦公處",
    "county":"台北市",
    "town":"大安區",
    "address":"臺北市大安區杭州南路2段93巷1-1號1樓\n臺北市大安區潮州街68號",
    "tel":"無",
    "mobile":"02-23923999"
    }
  },
  {
    "type": "Feature",
    "geometry": {
       "type": "Point",
       "coordinates":  [ 121.5441092,25.0414432 ]
    },
    "properties": {
    "no":58,
    "title":"社團法人台灣喜樂家族協會(大安)",
    "county":"台北市",
    "town":"大安區",
    "address":"臺北市大安區仁愛里忠孝東路4段126- 19號7樓",
    "tel":"無",
    "mobile":"02-87723092"
    }
  },
  {
    "type": "Feature",
    "geometry": {
       "type": "Point",
       "coordinates":  [ 121.5309527,25.0183858 ]
    },
    "properties": {
    "no":59,
    "title":"社團法人中華民國香柏樹長者社區關懷協會(台電)",
    "county":"台北市",
    "town":"大安區",
    "address":"臺北市大安區大學里羅斯福路3段275號 3樓",
    "tel":"無",
    "mobile":"02-23636819#14"
    }
  },
  {
    "type": "Feature",
    "geometry": {
       "type": "Point",
       "coordinates":  [ 121.527565,25.0285555 ]
    },
    "properties": {
    "no":60,
    "title":"臺北市大安區錦町社區發展協會",
    "county":"台北市",
    "town":"大安區",
    "address":"臺北市大安區錦安里潮州街130巷3號1樓",
    "tel":"無",
    "mobile":"02-23515967"
    }
  },
  {
    "type": "Feature",
    "geometry": {
       "type": "Point",
       "coordinates":  [ 121.5389947,25.0290764 ]
    },
    "properties": {
    "no":61,
    "title":"臺北市大安區大安新龍社區發展協會",
    "county":"台北市",
    "town":"大安區",
    "address":"臺北市大安區新龍里信義路3段134巷98號1樓\n臺北市大安區新龍里信義路3段134巷82號2樓",
    "tel":"無",
    "mobile":"02-27067771"
    }
  },
  {
    "type": "Feature",
    "geometry": {
       "type": "Point",
       "coordinates":  [ 121.5532941,25.0275589 ]
    },
    "properties": {
    "no":62,
    "title":"台北市通化玫瑰社會關懷協會",
    "county":"台北市",
    "town":"大安區",
    "address":"臺北市大安區法治里通化街178號",
    "tel":"無",
    "mobile":"02-27383514"
    }
  },
  {
    "type": "Feature",
    "geometry": {
       "type": "Point",
       "coordinates":  [ 121.5535662,25.0185119 ]
    },
    "properties": {
    "no":63,
    "title":"社團法人台灣厝邊有愛關懷協會 (六張犁)",
    "county":"台北市",
    "town":"大安區",
    "address":"臺北市大安區黎元里臥龍街215號",
    "tel":"無",
    "mobile":"02-27329041"
    }
  },
  {
    "type": "Feature",
    "geometry": {
       "type": "Point",
       "coordinates":  [ 121.5458646,25.026519 ]
    },
    "properties": {
    "no":64,
    "title":"臺北市大安區群英里辦公處",
    "county":"台北市",
    "town":"大安區",
    "address":"臺北市大安區群英里四維路198巷30弄9號",
    "tel":"無",
    "mobile":"02-27549339"
    }
  },
  {
    "type": "Feature",
    "geometry": {
       "type": "Point",
       "coordinates":  [ 121.5334366,25.0185872 ]
    },
    "properties": {
    "no":65,
    "title":"社團法人中華民國香柏樹長者社區關懷協會(台大)",
    "county":"台北市",
    "town":"大安區",
    "address":"臺北市大安區大學里新生南路3段86號 4、8、9樓(真理堂)",
    "tel":"無",
    "mobile":"02-23632096"
    }
  },
  {
    "type": "Feature",
    "geometry": {
       "type": "Point",
       "coordinates":  [ 121.528429,25.030536 ]
    },
    "properties": {
    "no":66,
    "title":"臺北市大安區永康里辦公處",
    "county":"台北市",
    "town":"大安區",
    "address":"臺北市大安區永康里金華街199巷3弄6號1樓",
    "tel":"無",
    "mobile":"0931-234954"
    }
  },
  {
    "type": "Feature",
    "geometry": {
       "type": "Point",
       "coordinates":  [ 121.5426616,25.0441944 ]
    },
    "properties": {
    "no":67,
    "title":"臺北市大安區安東社區發展協會",
    "county":"台北市",
    "town":"大安區",
    "address":"臺北市大安區誠安里安東街31之1號\n臺北市大安區忠孝東路3段251巷12弄14號1樓",
    "tel":"無",
    "mobile":"02-27715532"
    }
  },
  {
    "type": "Feature",
    "geometry": {
       "type": "Point",
       "coordinates":  [ 121.5529248,25.0261602 ]
    },
    "properties": {
    "no":68,
    "title":"臺北市大安區法治里辦公處",
    "county":"台北市",
    "town":"大安區",
    "address":"臺北市大安區法治里通化街192號",
    "tel":"無",
    "mobile":"0980-403536"
    }
  },
  {
    "type": "Feature",
    "geometry": {
       "type": "Point",
       "coordinates":  [ 121.5414779,25.0282259 ]
    },
    "properties": {
    "no":69,
    "title":"社團法人臺北市永健長青促進協會",
    "county":"台北市",
    "town":"大安區",
    "address":"臺北市大安區龍陣里瑞安街71巷5弄1號 1F",
    "tel":"無",
    "mobile":"02-27097719"
    }
  },
  {
    "type": "Feature",
    "geometry": {
       "type": "Point",
       "coordinates":  [ 121.534439,25.0242363 ]
    },
    "properties": {
    "no":70,
    "title":"中華民國紅十字會臺灣省分會（新生）",
    "county":"台北市",
    "town":"大安區",
    "address":"臺北市大安區龍坡里新生南路3段20-1號4樓",
    "tel":"無",
    "mobile":"02-23630098"
    }
  },
  {
    "type": "Feature",
    "geometry": {
       "type": "Point",
       "coordinates":  [ 121.5286527,25.022257 ]
    },
    "properties": {
    "no":71,
    "title":"臺北市大安區古風社區發展協會",
    "county":"台北市",
    "town":"大安區",
    "address":"臺北市大安區古風里師大路117巷1號",
    "tel":"無",
    "mobile":"02-33651622"
    }
  },
  {
    "type": "Feature",
    "geometry": {
       "type": "Point",
       "coordinates":  [ 121.5411768,25.0281919 ]
    },
    "properties": {
    "no":72,
    "title":"台北市大安區龍陣里辦公處",
    "county":"台北市",
    "town":"大安區",
    "address":"臺北市大安區龍陣里瑞安街75號3樓",
    "tel":"無",
    "mobile":"0958-918669"
    }
  },
  {
    "type": "Feature",
    "geometry": {
       "type": "Point",
       "coordinates":  [ 121.5540818,25.0262584 ]
    },
    "properties": {
    "no":73,
    "title":"臺北醫學大學展齡服務暨研究中心",
    "county":"台北市",
    "town":"大安區",
    "address":"臺北市大安區法治里基隆路2段172-1號 9樓",
    "tel":"無",
    "mobile":"02-66382736#1062"
    }
  },
  {
    "type": "Feature",
    "geometry": {
       "type": "Point",
       "coordinates":  [ 121.5285368,25.0274561 ]
    },
    "properties": {
    "no":74,
    "title":"國立臺灣師範大學學務處全人教育中心",
    "county":"台北市",
    "town":"大安區",
    "address":"臺北市大安區錦安里和平東路1段129號",
    "tel":"無",
    "mobile":"02-77495619"
    }
  },
  {
    "type": "Feature",
    "geometry": {
       "type": "Point",
       "coordinates":  [ 121.5242278,25.0489614 ]
    },
    "properties": {
    "no":75,
    "title":"財團法人台北市中山基督長老教會",
    "county":"台北市",
    "town":"中山區",
    "address":"臺北市中山區正得里林森北路62號",
    "tel":"無",
    "mobile":"02-25518480#119"
    }
  },
  {
    "type": "Feature",
    "geometry": {
       "type": "Point",
       "coordinates":  [ 121.5223787,25.0577417 ]
    },
    "properties": {
    "no":76,
    "title":"社團法人中華民國明健慈善公益協進會",
    "county":"台北市",
    "town":"中山區",
    "address":"臺北市中山區民安里民生西路6號6樓",
    "tel":"無",
    "mobile":"02-55740079"
    }
  },
  {
    "type": "Feature",
    "geometry": {
       "type": "Point",
       "coordinates":  [ 121.5281228,25.0555034 ]
    },
    "properties": {
    "no":77,
    "title":"台北市敬老協會",
    "county":"台北市",
    "town":"中山區",
    "address":"臺北市中山區中原里新生北路2段41巷7號1樓\n臺北市中山區中原里新生北路2段53之3號2樓",
    "tel":"無",
    "mobile":"02-25819955"
    }
  },
  {
    "type": "Feature",
    "geometry": {
       "type": "Point",
       "coordinates":  [ 121.5334641,25.0531691 ]
    },
    "properties": {
    "no":78,
    "title":"財團法人味全文化教育基金會",
    "county":"台北市",
    "town":"中山區",
    "address":"臺北市中山區中央里松江路125號4樓",
    "tel":"無",
    "mobile":"02-25065001"
    }
  },
  {
    "type": "Feature",
    "geometry": {
       "type": "Point",
       "coordinates":  [ 121.5405446,25.0475413 ]
    },
    "properties": {
    "no":79,
    "title":"臺北市中山區朱厝崙社區發展協會",
    "county":"台北市",
    "town":"中山區",
    "address":"臺北市中山區朱崙里龍江路15號3樓(朱崙區民活動中心)",
    "tel":"無",
    "mobile":"02-27815504"
    }
  },
  {
    "type": "Feature",
    "geometry": {
       "type": "Point",
       "coordinates":  [ 121.5421459,25.0646843 ]
    },
    "properties": {
    "no":80,
    "title":"財團法人新北市基督教新希望教會(中山五常)",
    "county":"台北市",
    "town":"中山區",
    "address":"臺北市中山區下埤里龍江路377巷20號1樓",
    "tel":"無",
    "mobile":"02-28815100"
    }
  },
  {
    "type": "Feature",
    "geometry": {
       "type": "Point",
       "coordinates":  [ 121.5427985,25.0534368 ]
    },
    "properties": {
    "no":81,
    "title":"臺北市復華長青多元服務中心(財\n團法人台灣省私立健順養護中心)",
    "county":"台北市",
    "town":"中山區",
    "address":"臺北市中山區復華里遼寧街185巷11號",
    "tel":"無",
    "mobile":"02-27171393#16"
    }
  },
  {
    "type": "Feature",
    "geometry": {
       "type": "Point",
       "coordinates":  [ 121.5404259,25.0648629 ]
    },
    "properties": {
    "no":82,
    "title":"財團法人臺北市松年長春社會福利基金會(中山)",
    "county":"台北市",
    "town":"中山區",
    "address":"臺北市中山區行仁里龍江路318巷7號1樓",
    "tel":"無",
    "mobile":"02-25000206"
    }
  },
  {
    "type": "Feature",
    "geometry": {
       "type": "Point",
       "coordinates":  [ 121.5405375,25.060967 ]
    },
    "properties": {
    "no":83,
    "title":"財團法人新北市基督教新希望教會(江寧)",
    "county":"台北市",
    "town":"中山區",
    "address":"臺北市中山區江寧里龍江路286巷2號",
    "tel":"無",
    "mobile":"02-28815100"
    }
  },
  {
    "type": "Feature",
    "geometry": {
       "type": "Point",
       "coordinates":  [ 121.5543684,25.0862564 ]
    },
    "properties": {
    "no":84,
    "title":"社團法人台北市家庭照顧者關懷協會",
    "county":"台北市",
    "town":"中山區",
    "address":"臺北市中山區北安里北安路805巷4弄5號地下",
    "tel":"無",
    "mobile":"0916-780645"
    }
  },
  {
    "type": "Feature",
    "geometry": {
       "type": "Point",
       "coordinates":  [ 121.5230588,25.0653711 ]
    },
    "properties": {
    "no":85,
    "title":"臺北市中山區晴光里辦公處",
    "county":"台北市",
    "town":"中山區",
    "address":"臺北市中山區晴光里雙城街18巷20號",
    "tel":"無",
    "mobile":"0981-201026"
    }
  },
  {
    "type": "Feature",
    "geometry": {
       "type": "Point",
       "coordinates":  [ 121.5468823,25.0816337 ]
    },
    "properties": {
    "no":86,
    "title":"社團法人臺北市中山區大直社區發展協會(大直一)",
    "county":"台北市",
    "town":"中山區",
    "address":"臺北市中山區大直里大直街21巷2號4樓 (大直區民活動中心)及大直街39巷3號1樓",
    "tel":"無",
    "mobile":"02-25329522"
    }
  },
  {
    "type": "Feature",
    "geometry": {
       "type": "Point",
       "coordinates":  [ 121.546735,25.082582 ]
    },
    "properties": {
    "no":87,
    "title":"社團法人臺北市中山區大直社區發展協會",
    "county":"台北市",
    "town":"中山區",
    "address":"臺北市中山區大直街1號4樓及大直街39巷3號1樓",
    "tel":"無",
    "mobile":"02-25329522"
    }
  },
  {
    "type": "Feature",
    "geometry": {
       "type": "Point",
       "coordinates":  [ 121.5313213,25.0670215 ]
    },
    "properties": {
    "no":88,
    "title":"財團法人新北市基督教新希望教會(新喜)",
    "county":"台北市",
    "town":"中山區",
    "address":"臺北市中山區新喜里吉林路433巷17號",
    "tel":"無",
    "mobile":"02-28815100"
    }
  },
  {
    "type": "Feature",
    "geometry": {
       "type": "Point",
       "coordinates":  [ 121.5249793,25.0545129 ]
    },
    "properties": {
    "no":89,
    "title":"財團法人台北市台北中華基督教會",
    "county":"台北市",
    "town":"中山區",
    "address":"臺北市中山區康樂里中山北路2段45巷 39號",
    "tel":"無",
    "mobile":"02-25118021"
    }
  },
  {
    "type": "Feature",
    "geometry": {
       "type": "Point",
       "coordinates":  [ 121.5595366,25.0790991 ]
    },
    "properties": {
    "no":90,
    "title":"財團法人基督教台灣信義會(大直真理堂)",
    "county":"台北市",
    "town":"中山區",
    "address":"臺北市中山區金泰里敬業三路162巷109號1樓",
    "tel":"無",
    "mobile":"02-85011754"
    }
  },
  {
    "type": "Feature",
    "geometry": {
       "type": "Point",
       "coordinates":  [ 121.535466,25.051681 ]
    },
    "properties": {
    "no":91,
    "title":"財團法人政慧發展社會福利慈善事業基金會",
    "county":"台北市",
    "town":"中山區",
    "address":"臺北市中山區朱園里南京東路2段160號 7樓",
    "tel":"無",
    "mobile":"02-25172068"
    }
  },
  {
    "type": "Feature",
    "geometry": {
       "type": "Point",
       "coordinates":  [ 121.5243319,25.0582855 ]
    },
    "properties": {
    "no":92,
    "title":"財團法人台灣老人急重症基金會 (聚盛據點)",
    "county":"台北市",
    "town":"中山區",
    "address":"臺北市中山區聚盛里民生東路1段23巷2號\n臺北市中山區民生東路1段42號7樓之3",
    "tel":"無",
    "mobile":"02-25224388"
    }
  },
  {
    "type": "Feature",
    "geometry": {
       "type": "Point",
       "coordinates":  [ 121.5417828,25.0576214 ]
    },
    "properties": {
    "no":93,
    "title":"財團法人台灣老人急重症基金會 (龍洲據點)",
    "county":"台北市",
    "town":"中山區",
    "address":"臺北市中山區龍洲里民生東路3段88巷1號",
    "tel":"無",
    "mobile":"02-25224388"
    }
  },
  {
    "type": "Feature",
    "geometry": {
       "type": "Point",
       "coordinates":  [ 121.5465332,25.0789041 ]
    },
    "properties": {
    "no":94,
    "title":"社團法人臺北市生命樹健康關懷協會",
    "county":"台北市",
    "town":"中山區",
    "address":"臺北市中山區永安里北安路458巷41弄 50號",
    "tel":"無",
    "mobile":"02-25327514"
    }
  },
  {
    "type": "Feature",
    "geometry": {
       "type": "Point",
       "coordinates":  [ 121.524349,25.05737 ]
    },
    "properties": {
    "no":95,
    "title":"財團法人台灣老人急重症基金會 (中山據點)",
    "county":"台北市",
    "town":"中山區",
    "address":"臺北市中山區中山里中山北路二段77巷 14號3樓",
    "tel":"無",
    "mobile":"02-25224388"
    }
  },
  {
    "type": "Feature",
    "geometry": {
       "type": "Point",
       "coordinates":  [ 121.5297018,25.0172889 ]
    },
    "properties": {
    "no":96,
    "title":"社團法人台灣基督教展翔天地全人發展協會",
    "county":"台北市",
    "town":"中正區",
    "address":"臺北市中正區文盛里汀州路3段101號1樓",
    "tel":"無",
    "mobile":"02-23656123"
    }
  },
  {
    "type": "Feature",
    "geometry": {
       "type": "Point",
       "coordinates":  [ 121.5216527,25.0452974 ]
    },
    "properties": {
    "no":97,
    "title":"台北市廣西同鄉會",
    "county":"台北市",
    "town":"中正區",
    "address":"臺北市中正區梅花里忠孝東路1段35號7樓",
    "tel":"無",
    "mobile":"02-23210375"
    }
  },
  {
    "type": "Feature",
    "geometry": {
       "type": "Point",
       "coordinates":  [ 121.5104644,25.0266493 ]
    },
    "properties": {
    "no":98,
    "title":"臺北市中正區永寬社區發展協會",
    "county":"台北市",
    "town":"中正區",
    "address":"臺北市中正區永昌里寧波西街181巷8號",
    "tel":"無",
    "mobile":"02-23014838"
    }
  },
  {
    "type": "Feature",
    "geometry": {
       "type": "Point",
       "coordinates":  [ 121.5069829,25.028344 ]
    },
    "properties": {
    "no":99,
    "title":"社團法人臺北市臻佶祥社會服務協會",
    "county":"台北市",
    "town":"中正區",
    "address":"臺北市中正區忠勤里中華路2段315巷 14、16、18號",
    "tel":"無",
    "mobile":"02-23036281"
    }
  },
  {
    "type": "Feature",
    "geometry": {
       "type": "Point",
       "coordinates":  [ 121.5268154,25.0216107 ]
    },
    "properties": {
    "no":100,
    "title":"台灣旺齡協會",
    "county":"台北市",
    "town":"中正區",
    "address":"臺北市中正區頂東里羅斯福路3段84巷 13、15號1樓",
    "tel":"無",
    "mobile":"02-23680690"
    }
  },
  {
    "type": "Feature",
    "geometry": {
       "type": "Point",
       "coordinates":  [ 121.5119608,25.0276511 ]
    },
    "properties": {
    "no":101,
    "title":"財團法人台北市中國基督教靈糧世界佈道會台北靈糧堂(古亭靈糧福音中心)",
    "county":"台北市",
    "town":"中正區",
    "address":"臺北市中正區永功里三元街198號1樓",
    "tel":"無",
    "mobile":"02-23396540"
    }
  },
  {
    "type": "Feature",
    "geometry": {
       "type": "Point",
       "coordinates":  [ 121.510054,25.026537 ]
    },
    "properties": {
    "no":102,
    "title":"臺北市永昌長青會",
    "county":"台北市",
    "town":"中正區",
    "address":"臺北市中正區永昌里寧波西街181巷24號1樓",
    "tel":"無",
    "mobile":"02-23071068"
    }
  },
  {
    "type": "Feature",
    "geometry": {
       "type": "Point",
       "coordinates":  [ 121.5324161,25.0105669 ]
    },
    "properties": {
    "no":103,
    "title":"台北市寶藏巖文化村協會",
    "county":"台北市",
    "town":"中正區",
    "address":"臺北市中正區水源里汀州路3段230巷14弄10號",
    "tel":"無",
    "mobile":"0926-579112"
    }
  },
  {
    "type": "Feature",
    "geometry": {
       "type": "Point",
       "coordinates":  [ 121.5248845,25.0241961 ]
    },
    "properties": {
    "no":104,
    "title":"財團法人臺北市松年長春社會福利基金會(中正)",
    "county":"台北市",
    "town":"中正區",
    "address":"臺北市中正區南福里羅斯福路1段94、 96號11樓(中央教會)",
    "tel":"無",
    "mobile":"02-23948486"
    }
  },
  {
    "type": "Feature",
    "geometry": {
       "type": "Point",
       "coordinates":  [ 121.5295905,25.0406143 ]
    },
    "properties": {
    "no":105,
    "title":"財團法人伽耶山基金會",
    "county":"台北市",
    "town":"中正區",
    "address":"臺北市中正區文北里濟南路2段36號2樓、3樓、4樓",
    "tel":"無",
    "mobile":"02-23946800"
    }
  },
  {
    "type": "Feature",
    "geometry": {
       "type": "Point",
       "coordinates":  [ 121.5290591,25.0176349 ]
    },
    "properties": {
    "no":106,
    "title":"財團法人環宇國際文化教育基金會",
    "county":"台北市",
    "town":"中正區",
    "address":"臺北市中正區文盛里羅斯福路3段240巷 17弄3號",
    "tel":"無",
    "mobile":"02-23660743"
    }
  },
  {
    "type": "Feature",
    "geometry": {
       "type": "Point",
       "coordinates":  [ 121.5253585,25.0166032 ]
    },
    "properties": {
    "no":107,
    "title":"臺北市中正區新林興社區發展協會",
    "county":"台北市",
    "town":"中正區",
    "address":"臺北市中正區林興里水源路21號",
    "tel":"無",
    "mobile":"0933-213180"
    }
  },
  {
    "type": "Feature",
    "geometry": {
       "type": "Point",
       "coordinates":  [ 121.5545729,25.00046 ]
    },
    "properties": {
    "no":108,
    "title":"財團法人耕莘文教基金會",
    "county":"台北市",
    "town":"中正區",
    "address":"臺北市中正區文盛里辛亥路1段22號4樓",
    "tel":"無",
    "mobile":"02-23655615"
    }
  },
  {
    "type": "Feature",
    "geometry": {
       "type": "Point",
       "coordinates":  [ 121.5192916,25.0243156 ]
    },
    "properties": {
    "no":109,
    "title":"財團法人中華基督教廈門街浸信會",
    "county":"台北市",
    "town":"中正區",
    "address":"臺北市中正區螢圃里廈門街81巷20號",
    "tel":"無",
    "mobile":"02-23687582"
    }
  },
  {
    "type": "Feature",
    "geometry": {
       "type": "Point",
       "coordinates":  [ 121.513777,25.028408 ]
    },
    "properties": {
    "no":110,
    "title":"台北市愛羊全人關懷協會",
    "county":"台北市",
    "town":"中正區",
    "address":"臺北市中正區龍光里和平西路2段17號2樓",
    "tel":"無",
    "mobile":"02-23048578"
    }
  },
  {
    "type": "Feature",
    "geometry": {
       "type": "Point",
       "coordinates":  [ 121.5204356,25.0316513 ]
    },
    "properties": {
    "no":111,
    "title":"社團法人愛福家協會",
    "county":"台北市",
    "town":"中正區",
    "address":"臺北市中正區新營里金華街20號1樓",
    "tel":"無",
    "mobile":"02-23567317"
    }
  },
  {
    "type": "Feature",
    "geometry": {
       "type": "Point",
       "coordinates":  [ 121.5976437,25.0775115 ]
    },
    "properties": {
    "no":112,
    "title":"臺北市內湖區紫雲社區發展協會",
    "county":"台北市",
    "town":"內湖區",
    "address":"臺北市內湖區紫雲里康寧路1段228號",
    "tel":"無",
    "mobile":"02-27913337"
    }
  },
  {
    "type": "Feature",
    "geometry": {
       "type": "Point",
       "coordinates":  [ 121.5910579,25.0620782 ]
    },
    "properties": {
    "no":113,
    "title":"臺北市內湖區石潭社區發展協會",
    "county":"台北市",
    "town":"內湖區",
    "address":"臺北市內湖區石潭里成功路2段1號",
    "tel":"無",
    "mobile":"02-27937177"
    }
  },
  {
    "type": "Feature",
    "geometry": {
       "type": "Point",
       "coordinates":  [ 121.5899871,25.0676901 ]
    },
    "properties": {
    "no":114,
    "title":"內湖區湖興里辦公處",
    "county":"台北市",
    "town":"內湖區",
    "address":"臺北市內湖區湖興里成功路2段320巷19號3樓",
    "tel":"無",
    "mobile":"02-27914586"
    }
  },
  {
    "type": "Feature",
    "geometry": {
       "type": "Point",
       "coordinates":  [ 121.596101,25.0811515 ]
    },
    "properties": {
    "no":115,
    "title":"臺北市內湖區清白社區發展協會",
    "county":"台北市",
    "town":"內湖區",
    "address":"臺北市內湖區清白里星雲街168巷29號1樓\n臺北市內湖區清白里星雲街161巷3號 (清白區民活動中心)",
    "tel":"無",
    "mobile":"02-27909195"
    }
  },
  {
    "type": "Feature",
    "geometry": {
       "type": "Point",
       "coordinates":  [ 121.6106047,25.0742611 ]
    },
    "properties": {
    "no":116,
    "title":"財團法人基督教中國佈道會",
    "county":"台北市",
    "town":"內湖區",
    "address":"臺北市內湖區康寧里康寧路3段99巷39弄66號",
    "tel":"無",
    "mobile":"02-26320867"
    }
  },
  {
    "type": "Feature",
    "geometry": {
       "type": "Point",
       "coordinates":  [ 121.5965738,25.0668288 ]
    },
    "properties": {
    "no":117,
    "title":"內湖區寶湖里辦公處",
    "county":"台北市",
    "town":"內湖區",
    "address":"臺北市內湖區寶湖里民權東路6段208號",
    "tel":"無",
    "mobile":"0931-302823"
    }
  },
  {
    "type": "Feature",
    "geometry": {
       "type": "Point",
       "coordinates":  [ 121.5820736,25.0772459 ]
    },
    "properties": {
    "no":118,
    "title":"財團法人台北市基督教台灣貴格會內湖慈光堂",
    "county":"台北市",
    "town":"內湖區",
    "address":"臺北市內湖區瑞陽里文德路66巷49弄5號",
    "tel":"無",
    "mobile":"02-27976651"
    }
  },
  {
    "type": "Feature",
    "geometry": {
       "type": "Point",
       "coordinates":  [ 121.5742339,25.081954 ]
    },
    "properties": {
    "no":119,
    "title":"臺北市麗山社區關懷協會",
    "county":"台北市",
    "town":"內湖區",
    "address":"臺北市內湖區港都里麗山街348巷22號 1-2樓及24號2樓(麗山禮拜堂)",
    "tel":"無",
    "mobile":"02-26270443#20"
    }
  },
  {
    "type": "Feature",
    "geometry": {
       "type": "Point",
       "coordinates":  [ 121.5933473,25.0843044 ]
    },
    "properties": {
    "no":120,
    "title":"財團法人福智慈善基金會(內湖據點)",
    "county":"台北市",
    "town":"內湖區",
    "address":"臺北市內湖區內湖里內湖路2段486、 488號3樓",
    "tel":"無",
    "mobile":"02-27963275"
    }
  },
  {
    "type": "Feature",
    "geometry": {
       "type": "Point",
       "coordinates":  [ 121.5919375,25.0788589 ]
    },
    "properties": {
    "no":121,
    "title":"財團法人基督教台灣信義會(內湖思恩堂)",
    "county":"台北市",
    "town":"內湖區",
    "address":"臺北市內湖區紫星里康寧路1段62號",
    "tel":"無",
    "mobile":"02-27901497"
    }
  },
  {
    "type": "Feature",
    "geometry": {
       "type": "Point",
       "coordinates":  [ 121.5900616,25.065888 ]
    },
    "properties": {
    "no":122,
    "title":"中華民國天使之家全人關懷協會",
    "county":"台北市",
    "town":"內湖區",
    "address":"臺北市內湖區湖興里成功路2段240-242號1樓",
    "tel":"無",
    "mobile":"02-27909454"
    }
  },
  {
    "type": "Feature",
    "geometry": {
       "type": "Point",
       "coordinates":  [ 121.5769795,25.078682 ]
    },
    "properties": {
    "no":123,
    "title":"台北市內湖紳士協會",
    "county":"台北市",
    "town":"內湖區",
    "address":"臺北市內湖區港墘里內湖路1段552號 (港墘區民活動中心)",
    "tel":"無",
    "mobile":"0918-819089"
    }
  },
  {
    "type": "Feature",
    "geometry": {
       "type": "Point",
       "coordinates":  [ 121.6153739,25.0682158 ]
    },
    "properties": {
    "no":124,
    "title":"財團法人福智慈善基金會(東湖據點)",
    "county":"台北市",
    "town":"內湖區",
    "address":"臺北市內湖區五分里東湖路106巷6號1樓",
    "tel":"無",
    "mobile":"0933-922709"
    }
  },
  {
    "type": "Feature",
    "geometry": {
       "type": "Point",
       "coordinates":  [ 121.590059,25.0857648 ]
    },
    "properties": {
    "no":125,
    "title":"臺北市內湖區碧湖社區發展協會",
    "county":"台北市",
    "town":"內湖區",
    "address":"臺北市內湖區金龍里金龍路136-1號2樓",
    "tel":"無",
    "mobile":"02-87926024"
    }
  },
  {
    "type": "Feature",
    "geometry": {
       "type": "Point",
       "coordinates":  [ 121.590059,25.0857648 ]
    },
    "properties": {
    "no":126,
    "title":"台北市內湖永續發展協會",
    "county":"台北市",
    "town":"內湖區",
    "address":"臺北市內湖區金龍里金龍路136-1號2樓臺北市內湖區金龍里金龍路67巷7號1樓",
    "tel":"無",
    "mobile":"02-27908099"
    }
  },
  {
    "type": "Feature",
    "geometry": {
       "type": "Point",
       "coordinates":  [ 121.6171464,25.0749478 ]
    },
    "properties": {
    "no":127,
    "title":"臺北市內湖區安泰里社區發展協會",
    "county":"台北市",
    "town":"內湖區",
    "address":"臺北市內湖區安泰里安泰街65巷5號1樓",
    "tel":"無",
    "mobile":"0917-979715"
    }
  },
  {
    "type": "Feature",
    "geometry": {
       "type": "Point",
       "coordinates":  [ 121.596956,25.0675708 ]
    },
    "properties": {
    "no":128,
    "title":"臺北市內湖區灣仔社區發展協會",
    "county":"台北市",
    "town":"內湖區",
    "address":"臺北市內湖區寶湖里民權東路6段208號 6樓(臺北市網球中心6樓)",
    "tel":"無",
    "mobile":"0961-365688"
    }
  },
  {
    "type": "Feature",
    "geometry": {
       "type": "Point",
       "coordinates":  [ 121.5683655,25.0823089 ]
    },
    "properties": {
    "no":129,
    "title":"財團法人台灣基督教恩惠福音會",
    "county":"台北市",
    "town":"內湖區",
    "address":"臺北市內湖區港墘里內湖路1段608號",
    "tel":"無",
    "mobile":"02-27971000"
    }
  },
  {
    "type": "Feature",
    "geometry": {
       "type": "Point",
       "coordinates":  [ 121.5670711,25.083938 ]
    },
    "properties": {
    "no":130,
    "title":"財團法人基督教救世軍(內湖隊)",
    "county":"台北市",
    "town":"內湖區",
    "address":"臺北市內湖區西湖里內湖路1段285巷63弄7號",
    "tel":"無",
    "mobile":"02-27990098"
    }
  },
  {
    "type": "Feature",
    "geometry": {
       "type": "Point",
       "coordinates":  [ 121.6017634,25.0860641 ]
    },
    "properties": {
    "no":131,
    "title":"臺北市內湖區大湖里辦公處",
    "county":"台北市",
    "town":"內湖區",
    "address":"臺北市內湖區大湖里大湖山莊街117號4樓",
    "tel":"無",
    "mobile":"0939-020275"
    }
  },
  {
    "type": "Feature",
    "geometry": {
       "type": "Point",
       "coordinates":  [ 121.5965738,25.0668288 ]
    },
    "properties": {
    "no":132,
    "title":"臺北市內湖社區安全與健康協進會",
    "county":"台北市",
    "town":"內湖區",
    "address":"臺北市內湖區寶湖里民權東路6段208號",
    "tel":"無",
    "mobile":"02-27934447"
    }
  },
  {
    "type": "Feature",
    "geometry": {
       "type": "Point",
       "coordinates":  [ 121.5905378,25.0603327 ]
    },
    "properties": {
    "no":133,
    "title":"社團法人社區大學全國促進會",
    "county":"台北市",
    "town":"內湖區",
    "address":"臺北市內湖區石潭里新明路22號純美樓 3樓",
    "tel":"無",
    "mobile":"02-66050919"
    }
  },
  {
    "type": "Feature",
    "geometry": {
       "type": "Point",
       "coordinates":  [ 121.6103023,25.0716741 ]
    },
    "properties": {
    "no":134,
    "title":"社團法人中華民國士林靈糧堂社會福利協會",
    "county":"台北市",
    "town":"內湖區",
    "address":"臺北市內湖區明湖里1鄰康寧路3段99巷 6弄12號1樓",
    "tel":"無",
    "mobile":"02-26335990"
    }
  },
  {
    "type": "Feature",
    "geometry": {
       "type": "Point",
       "coordinates":  [ 121.6095569,25.0754813 ]
    },
    "properties": {
    "no":135,
    "title":"康寧學校財團法人康寧大學",
    "county":"台北市",
    "town":"內湖區",
    "address":"臺北市內湖區金湖里康寧路3段75巷137號",
    "tel":"無",
    "mobile":"02-26321181"
    }
  },
  {
    "type": "Feature",
    "geometry": {
       "type": "Point",
       "coordinates":  [ 121.5626204,24.9840629 ]
    },
    "properties": {
    "no":136,
    "title":"台北市文山區順興社區發展協會",
    "county":"台北市",
    "town":"文山區",
    "address":"臺北市文山區順興里興隆路4段165巷12號1.2樓&忠順區民活動中心(忠順街2段 22號2樓)",
    "tel":"無",
    "mobile":"02-29395932"
    }
  },
  {
    "type": "Feature",
    "geometry": {
       "type": "Point",
       "coordinates":  [ 121.576501,24.988685 ]
    },
    "properties": {
    "no":137,
    "title":"臺北市文山區老人服務中心(財團法人恆安社會福利慈善事業基金會)",
    "county":"台北市",
    "town":"文山區",
    "address":"臺北市文山區萬興里萬壽路27號6樓",
    "tel":"無",
    "mobile":"02-22344893"
    }
  },
  {
    "type": "Feature",
    "geometry": {
       "type": "Point",
       "coordinates":  [ 121.5443476,24.9976063 ]
    },
    "properties": {
    "no":138,
    "title":"台灣迦美福音傳播協會",
    "county":"台北市",
    "town":"文山區",
    "address":"臺北市文山區景華里三福街74巷2號1樓",
    "tel":"無",
    "mobile":"02-29348952"
    }
  },
  {
    "type": "Feature",
    "geometry": {
       "type": "Point",
       "coordinates":  [ 121.5513837,25.0022154 ]
    },
    "properties": {
    "no":139,
    "title":"臺北市文山區興旺社區發展協會",
    "county":"台北市",
    "town":"文山區",
    "address":"臺北市文山區興旺里福興路5號",
    "tel":"無",
    "mobile":"0936-048808"
    }
  },
  {
    "type": "Feature",
    "geometry": {
       "type": "Point",
       "coordinates":  [ 121.5640793,24.9842783 ]
    },
    "properties": {
    "no":140,
    "title":"臺北市文山區順興里辦公處",
    "county":"台北市",
    "town":"文山區",
    "address":"臺北市文山區順興里興隆路4段165巷50號1樓及保儀路138巷26-28號(司法新 村)、木柵忠順廟",
    "tel":"無",
    "mobile":"0934-143675"
    }
  },
  {
    "type": "Feature",
    "geometry": {
       "type": "Point",
       "coordinates":  [ 121.5754088,24.9895496 ]
    },
    "properties": {
    "no":141,
    "title":"財團法人台北市活石基督徒團契",
    "county":"台北市",
    "town":"文山區",
    "address":"臺北市文山區萬興里指南路2段45巷24弄17號",
    "tel":"無",
    "mobile":"02-29399784"
    }
  },
  {
    "type": "Feature",
    "geometry": {
       "type": "Point",
       "coordinates":  [ 121.5575135,24.9815419 ]
    },
    "properties": {
    "no":142,
    "title":"台北市文山區樟林社區發展協會",
    "county":"台北市",
    "town":"文山區",
    "address":"臺北市文山區樟文里木新路3段310巷4號2樓之1",
    "tel":"無",
    "mobile":"02-29369071"
    }
  },
  {
    "type": "Feature",
    "geometry": {
       "type": "Point",
       "coordinates":  [ 121.5629351,24.9881877 ]
    },
    "properties": {
    "no":143,
    "title":"中華民國紅心字會(興隆)",
    "county":"台北市",
    "town":"文山區",
    "address":"臺北市文山區明義里興隆路4段105巷47號1樓",
    "tel":"無",
    "mobile":"02-2367119"
    }
  },
  {
    "type": "Feature",
    "geometry": {
       "type": "Point",
       "coordinates":  [ 121.5359126,24.9958088 ]
    },
    "properties": {
    "no":144,
    "title":"台北市文山區景慶社區發展協會",
    "county":"台北市",
    "town":"文山區",
    "address":"臺北市文山區景慶里景福街126號， 羅斯福路6段393號6.8樓",
    "tel":"無",
    "mobile":"0922-313747"
    }
  },
  {
    "type": "Feature",
    "geometry": {
       "type": "Point",
       "coordinates":  [ 121.540284,24.9922808 ]
    },
    "properties": {
    "no":145,
    "title":"台北市梘尾關懷互助協會",
    "county":"台北市",
    "town":"文山區",
    "address":"臺北市文山區景慶里萬慶街6號",
    "tel":"無",
    "mobile":"02-89351788"
    }
  },
  {
    "type": "Feature",
    "geometry": {
       "type": "Point",
       "coordinates":  [ 121.5702677,24.9874482 ]
    },
    "properties": {
    "no":146,
    "title":"財團法人利伯他茲教育基金會",
    "county":"台北市",
    "town":"文山區",
    "address":"臺北市文山區木新里永安街1號",
    "tel":"無",
    "mobile":"02-29394359"
    }
  },
  {
    "type": "Feature",
    "geometry": {
       "type": "Point",
       "coordinates":  [ 121.5662678,25.0011361 ]
    },
    "properties": {
    "no":147,
    "title":"社團法人台北市基督教萬芳浸信會",
    "county":"台北市",
    "town":"文山區",
    "address":"臺北市文山區萬芳里萬美街1段19巷5號",
    "tel":"無",
    "mobile":"02-22303518"
    }
  },
  {
    "type": "Feature",
    "geometry": {
       "type": "Point",
       "coordinates":  [ 121.5697605,24.9891607 ]
    },
    "properties": {
    "no":148,
    "title":"財團法人台北市松年長春社會福利基金會(開元)",
    "county":"台北市",
    "town":"文山區",
    "address":"臺北市文山區木新里開元街25,27號",
    "tel":"無",
    "mobile":"02-25000206"
    }
  },
  {
    "type": "Feature",
    "geometry": {
       "type": "Point",
       "coordinates":  [ 121.5734331,24.9884429 ]
    },
    "properties": {
    "no":149,
    "title":"台灣美滿家庭社區服務協會",
    "county":"台北市",
    "town":"文山區",
    "address":"臺北市文山區萬興里指南路2段11號",
    "tel":"無",
    "mobile":"02-29390544"
    }
  },
  {
    "type": "Feature",
    "geometry": {
       "type": "Point",
       "coordinates":  [ 121.5480853,25.0012313 ]
    },
    "properties": {
    "no":150,
    "title":"台北市文山區德芳社區發展協會",
    "county":"台北市",
    "town":"文山區",
    "address":"臺北市文山區興邦里興隆路2段153巷6弄5號1樓\n臺北市文山區興隆路2段97號4樓",
    "tel":"無",
    "mobile":"0952-858586"
    }
  },
  {
    "type": "Feature",
    "geometry": {
       "type": "Point",
       "coordinates":  [ 121.5361621,25.0019051 ]
    },
    "properties": {
    "no":151,
    "title":"台北市文山區萬和社區發展協會",
    "county":"台北市",
    "town":"文山區",
    "address":"臺北市文山區萬和里汀州路4段251、 253號1樓、萬福區民活動中心",
    "tel":"無",
    "mobile":"02-89310117"
    }
  },
  {
    "type": "Feature",
    "geometry": {
       "type": "Point",
       "coordinates":  [ 121.5620053,24.9852731 ]
    },
    "properties": {
    "no":152,
    "title":"臺北市文山區忠順社區發展協會",
    "county":"台北市",
    "town":"文山區",
    "address":"臺北市文山區忠順里興隆路4段145巷9弄3號\n臺北市文山區興隆路4段145巷30號",
    "tel":"無",
    "mobile":"02-29399569"
    }
  },
  {
    "type": "Feature",
    "geometry": {
       "type": "Point",
       "coordinates":  [ 121.5564657,24.9796917 ]
    },
    "properties": {
    "no":153,
    "title":"臺北市文山區樟新社區發展協會",
    "county":"台北市",
    "town":"文山區",
    "address":"臺北市文山區樟新里一壽街22號9樓教室2",
    "tel":"無",
    "mobile":"02-29376288"
    }
  },
  {
    "type": "Feature",
    "geometry": {
       "type": "Point",
       "coordinates":  [ 121.5520065,24.9996658 ]
    },
    "properties": {
    "no":154,
    "title":"社團法人中華民國沐光家園癌友關懷協會",
    "county":"台北市",
    "town":"文山區",
    "address":"臺北市文山區興業里興隆路2段220巷 51-1號",
    "tel":"無",
    "mobile":"02-29305747"
    }
  },
  {
    "type": "Feature",
    "geometry": {
       "type": "Point",
       "coordinates":  [ 121.5465808,24.9963223 ]
    },
    "properties": {
    "no":155,
    "title":"社團法人台灣喜樂家族協會(靜心)",
    "county":"台北市",
    "town":"文山區",
    "address":"臺北市文山區興福里景華街121巷7弄2號",
    "tel":"無",
    "mobile":"0955-004491"
    }
  },
  {
    "type": "Feature",
    "geometry": {
       "type": "Point",
       "coordinates":  [ 121.5662228,24.9837447 ]
    },
    "properties": {
    "no":156,
    "title":"臺北市文山區華興里辦公處",
    "county":"台北市",
    "town":"文山區",
    "address":"臺北市文山區華興里木柵路1段177號3樓之1\n臺北市文山區木柵路1段264號",
    "tel":"無",
    "mobile":"02-29361780"
    }
  },
  {
    "type": "Feature",
    "geometry": {
       "type": "Point",
       "coordinates":  [ 121.5802253,24.9857068 ]
    },
    "properties": {
    "no":157,
    "title":"家禾認知社區關懷協會",
    "county":"台北市",
    "town":"文山區",
    "address":"臺北市文山區政大里政大1街3號1樓",
    "tel":"無",
    "mobile":"0928-591139"
    }
  },
  {
    "type": "Feature",
    "geometry": {
       "type": "Point",
       "coordinates":  [ 121.5392681,24.9993672 ]
    },
    "properties": {
    "no":158,
    "title":"臺北市文山區景人社區發展協會",
    "county":"台北市",
    "town":"文山區",
    "address":"臺北市文山區景仁里景福街5號1樓",
    "tel":"無",
    "mobile":"0937-939606"
    }
  },
  {
    "type": "Feature",
    "geometry": {
       "type": "Point",
       "coordinates":  [ 121.562851,24.990145 ]
    },
    "properties": {
    "no":159,
    "title":"社團法人台北市文山區明興社區發展協會",
    "county":"台北市",
    "town":"文山區",
    "address":"臺北市文山區明興里木柵路2段109巷25弄6號\n臺北市文山區明興里興隆路4段61號",
    "tel":"無",
    "mobile":"02-22340391"
    }
  },
  {
    "type": "Feature",
    "geometry": {
       "type": "Point",
       "coordinates":  [ 121.5427611,24.9952774 ]
    },
    "properties": {
    "no":160,
    "title":"財團法人臺北市松年長春社會福利基金會(景華)",
    "county":"台北市",
    "town":"文山區",
    "address":"臺北市文山區景華里景華街49巷1號",
    "tel":"無",
    "mobile":"02-89311230"
    }
  },
  {
    "type": "Feature",
    "geometry": {
       "type": "Point",
       "coordinates":  [ 121.5391666,25.0041559 ]
    },
    "properties": {
    "no":161,
    "title":"臺北市文山區萬盛里辦公處",
    "county":"台北市",
    "town":"文山區",
    "address":"臺北市文山區萬盛里興隆路1段15號3樓 (臺北花木批發市場)",
    "tel":"無",
    "mobile":"02-29343389"
    }
  },
  {
    "type": "Feature",
    "geometry": {
       "type": "Point",
       "coordinates":  [ 121.5467867,24.996212 ]
    },
    "properties": {
    "no":162,
    "title":"臺北市文山區興福里辦公處",
    "county":"台北市",
    "town":"文山區",
    "address":"臺北市文山區興福里景華街121巷7弄1號",
    "tel":"無",
    "mobile":"02-29322888"
    }
  },
  {
    "type": "Feature",
    "geometry": {
       "type": "Point",
       "coordinates":  [ 121.509483,25.1190201 ]
    },
    "properties": {
    "no":163,
    "title":"社團法人台灣守護有祢生命關懷協會(守護八禱小站)",
    "county":"台北市",
    "town":"北投區",
    "address":"臺北市北投區立農里吉利街231號1樓",
    "tel":"無",
    "mobile":"02-28942293"
    }
  },
  {
    "type": "Feature",
    "geometry": {
       "type": "Point",
       "coordinates":  [ 121.4972756,25.1372379 ]
    },
    "properties": {
    "no":164,
    "title":"臺北市北投區硫磺谷社區發展協會",
    "county":"台北市",
    "town":"北投區",
    "address":"臺北市北投區文化里文化三路4、5樓",
    "tel":"無",
    "mobile":"0910-412056"
    }
  },
  {
    "type": "Feature",
    "geometry": {
       "type": "Point",
       "coordinates":  [ 121.517891,25.109843 ]
    },
    "properties": {
    "no":165,
    "title":"臺北市北投區我愛石牌社區發展協會",
    "county":"台北市",
    "town":"北投區",
    "address":"臺北市北投區石牌里建民路116巷13 號",
    "tel":"無",
    "mobile":"02-28201369"
    }
  },
  {
    "type": "Feature",
    "geometry": {
       "type": "Point",
       "coordinates":  [ 121.5114263,25.1149658 ]
    },
    "properties": {
    "no":166,
    "title":"臺北市北投區吉慶社區發展協會",
    "county":"台北市",
    "town":"北投區",
    "address":"臺北市北投區吉慶里致遠二路61巷2-2號",
    "tel":"無",
    "mobile":"02-28282002"
    }
  },
  {
    "type": "Feature",
    "geometry": {
       "type": "Point",
       "coordinates":  [ 121.5021377,25.1373166 ]
    },
    "properties": {
    "no":167,
    "title":"社團法人中華仁親社區關懷協會 (北投好厝邊)",
    "county":"台北市",
    "town":"北投區",
    "address":"臺北市北投區中心里大業路721號1樓",
    "tel":"無",
    "mobile":"02-28914149"
    }
  },
  {
    "type": "Feature",
    "geometry": {
       "type": "Point",
       "coordinates":  [ 121.5209719,25.1115653 ]
    },
    "properties": {
    "no":168,
    "title":"社團法人台灣愛喜樂關懷協會",
    "county":"台北市",
    "town":"北投區",
    "address":"臺北市北投區裕民里明德路161號1樓",
    "tel":"無",
    "mobile":"02-28224466"
    }
  },
  {
    "type": "Feature",
    "geometry": {
       "type": "Point",
       "coordinates":  [ 121.517753,25.1152229 ]
    },
    "properties": {
    "no":169,
    "title":"臺北市北投區振華社區發展協會",
    "county":"台北市",
    "town":"北投區",
    "address":"臺北市北投區振華里裕民一路40巷37號 1樓",
    "tel":"無",
    "mobile":"02-28236110"
    }
  },
  {
    "type": "Feature",
    "geometry": {
       "type": "Point",
       "coordinates":  [ 121.4893527,25.1408385 ]
    },
    "properties": {
    "no":170,
    "title":"社團法人台灣守護有祢生命關懷協會(守護復興崗小站)",
    "county":"台北市",
    "town":"北投區",
    "address":"臺北市北投區稻香里稻香路81號6樓(第一及二教室)",
    "tel":"無",
    "mobile":"02-28942293"
    }
  },
  {
    "type": "Feature",
    "geometry": {
       "type": "Point",
       "coordinates":  [ 121.510814,25.1133685 ]
    },
    "properties": {
    "no":171,
    "title":"台北市北投區榮光社區發展協會",
    "county":"台北市",
    "town":"北投區",
    "address":"臺北市北投區榮光里石牌路1段166巷43弄15號",
    "tel":"無",
    "mobile":"02-28231593"
    }
  },
  {
    "type": "Feature",
    "geometry": {
       "type": "Point",
       "coordinates":  [ 121.5055735,25.1177274 ]
    },
    "properties": {
    "no":172,
    "title":"臺北市北投區立群社區發展協會",
    "county":"台北市",
    "town":"北投區",
    "address":"臺北市北投區立賢里尊賢街251巷18號1樓 (里民活動場所)",
    "tel":"無",
    "mobile":"02-28225613"
    }
  },
  {
    "type": "Feature",
    "geometry": {
       "type": "Point",
       "coordinates":  [ 121.5279581,25.1262348 ]
    },
    "properties": {
    "no":173,
    "title":"臺北市北投區幸福永和社區發展協會",
    "county":"台北市",
    "town":"北投區",
    "address":"臺北市北投區永和里行義路63號",
    "tel":"無",
    "mobile":"02-28753298"
    }
  },
  {
    "type": "Feature",
    "geometry": {
       "type": "Point",
       "coordinates":  [ 121.510814,25.1133685 ]
    },
    "properties": {
    "no":174,
    "title":"社團法人國際奔享體驗教育發展協會(吉利真光)",
    "county":"台北市",
    "town":"北投區",
    "address":"臺北市北投區吉利里石牌路1段39巷80弄41號1樓",
    "tel":"無",
    "mobile":"02-28288884"
    }
  },
  {
    "type": "Feature",
    "geometry": {
       "type": "Point",
       "coordinates":  [ 121.475307,25.1328975 ]
    },
    "properties": {
    "no":175,
    "title":"台北市石牌長青會",
    "county":"台北市",
    "town":"北投區",
    "address":"臺北市北投區長安里中央北路1段12號3樓及4樓",
    "tel":"無",
    "mobile":"02-28913812"
    }
  },
  {
    "type": "Feature",
    "geometry": {
       "type": "Point",
       "coordinates":  [ 121.5220992,25.1149841 ]
    },
    "properties": {
    "no":176,
    "title":"台北市石牌全人關懷協會",
    "county":"台北市",
    "town":"北投區",
    "address":"臺北市北投區榮華里明德路283號",
    "tel":"無",
    "mobile":"02-28262602#11"
    }
  },
  {
    "type": "Feature",
    "geometry": {
       "type": "Point",
       "coordinates":  [ 121.504925,25.134963 ]
    },
    "properties": {
    "no":177,
    "title":"社團法人台灣多元社會福利協會 (溫馨園)",
    "county":"台北市",
    "town":"北投區",
    "address":"臺北市北投區溫泉里溫泉路68-10號",
    "tel":"無",
    "mobile":"02-28927001"
    }
  },
  {
    "type": "Feature",
    "geometry": {
       "type": "Point",
       "coordinates":  [ 121.4683428,25.1208389 ]
    },
    "properties": {
    "no":178,
    "title":"社團法人台灣喜樂家族協會(關渡據點）",
    "county":"台北市",
    "town":"北投區",
    "address":"臺北市北投區關渡里知行路260巷26號",
    "tel":"無",
    "mobile":"0975-661071"
    }
  },
  {
    "type": "Feature",
    "geometry": {
       "type": "Point",
       "coordinates":  [ 121.5090043,25.1377417 ]
    },
    "properties": {
    "no":179,
    "title":"財團法人台北市北投文化基金會",
    "county":"台北市",
    "town":"北投區",
    "address":"臺北市北投區林泉里中山路5-12號(據點設於北投社區大學內，同為新民國中後門地址)",
    "tel":"無",
    "mobile":"02-28917453"
    }
  },
  {
    "type": "Feature",
    "geometry": {
       "type": "Point",
       "coordinates":  [ 121.5162782,25.1103163 ]
    },
    "properties": {
    "no":180,
    "title":"臺北市北投區新石牌社區發展協會",
    "county":"台北市",
    "town":"北投區",
    "address":"臺北市北投區石牌里自強街120巷15弄8號",
    "tel":"無",
    "mobile":"02-28236699"
    }
  },
  {
    "type": "Feature",
    "geometry": {
       "type": "Point",
       "coordinates":  [ 121.5019305,25.1275781 ]
    },
    "properties": {
    "no":181,
    "title":"臺北市北投區清江社區發展協會",
    "county":"台北市",
    "town":"北投區",
    "address":"臺北市北投區清江里清江路201號",
    "tel":"無",
    "mobile":"02-28922543"
    }
  },
  {
    "type": "Feature",
    "geometry": {
       "type": "Point",
       "coordinates":  [ 121.528045,25.129609 ]
    },
    "properties": {
    "no":182,
    "title":"臺北市北投區永和社區發展協會",
    "county":"台北市",
    "town":"北投區",
    "address":"臺北市北投區永和里行義路138-1號1樓",
    "tel":"無",
    "mobile":"02-28765741"
    }
  },
  {
    "type": "Feature",
    "geometry": {
       "type": "Point",
       "coordinates":  [ 121.5124209,25.1104864 ]
    },
    "properties": {
    "no":183,
    "title":"台北市北投區福興社區發展協會",
    "county":"台北市",
    "town":"北投區",
    "address":"臺北市北投區福興里自強街5巷22號",
    "tel":"無",
    "mobile":"0955-404968"
    }
  },
  {
    "type": "Feature",
    "geometry": {
       "type": "Point",
       "coordinates":  [ 121.5050066,25.1001001 ]
    },
    "properties": {
    "no":184,
    "title":"社團法人中華健康美好生活協會 (洲美)",
    "county":"台北市",
    "town":"北投區",
    "address":"臺北市北投區洲美里福美路207號、209號1樓",
    "tel":"無",
    "mobile":"0910-302055"
    }
  },
  {
    "type": "Feature",
    "geometry": {
       "type": "Point",
       "coordinates":  [ 121.4893527,25.1408385 ]
    },
    "properties": {
    "no":185,
    "title":"社團法人國際奔享體驗教育發展協會(稻香真光)",
    "county":"台北市",
    "town":"北投區",
    "address":"臺北市北投區稻香路81號",
    "tel":"無",
    "mobile":"02-28288884"
    }
  },
  {
    "type": "Feature",
    "geometry": {
       "type": "Point",
       "coordinates":  [ 121.5201719,25.1115098 ]
    },
    "properties": {
    "no":186,
    "title":"臺北市北投區裕民里辦公處",
    "county":"台北市",
    "town":"北投區",
    "address":"臺北市北投區裕民里懷德街14巷17號",
    "tel":"無",
    "mobile":"0910-302055"
    }
  },
  {
    "type": "Feature",
    "geometry": {
       "type": "Point",
       "coordinates":  [ 121.507691,25.1181539 ]
    },
    "properties": {
    "no":187,
    "title":"社團法人台北市北投區尊賢社區發展協會",
    "county":"台北市",
    "town":"北投區",
    "address":"臺北市北投區尊賢里尊賢街302巷19號1樓",
    "tel":"無",
    "mobile":"02-28270945"
    }
  },
  {
    "type": "Feature",
    "geometry": {
       "type": "Point",
       "coordinates":  [ 121.5562437,25.0475635 ]
    },
    "properties": {
    "no":188,
    "title":"臺北市松山區建源社區發展協會",
    "county":"台北市",
    "town":"松山區",
    "address":"臺北市松山區復建里八德路3段158巷7弄47號",
    "tel":"無",
    "mobile":"02-25791689"
    }
  },
  {
    "type": "Feature",
    "geometry": {
       "type": "Point",
       "coordinates":  [ 121.5557307,25.0489529 ]
    },
    "properties": {
    "no":189,
    "title":"財團法人伊甸社會福利基金會",
    "county":"台北市",
    "town":"松山區",
    "address":"臺北市松山區復勢里八德路3段155巷4弄35號1樓",
    "tel":"無",
    "mobile":"02-25702560"
    }
  },
  {
    "type": "Feature",
    "geometry": {
       "type": "Point",
       "coordinates":  [ 121.5546859,25.0513931 ]
    },
    "properties": {
    "no":190,
    "title":"社團法人台北市向日葵慈善協會",
    "county":"台北市",
    "town":"松山區",
    "address":"臺北市松山區東勢里南京東路4段133巷 7弄9號1樓",
    "tel":"無",
    "mobile":"02-87706501"
    }
  },
  {
    "type": "Feature",
    "geometry": {
       "type": "Point",
       "coordinates":  [ 121.5720034,25.0496853 ]
    },
    "properties": {
    "no":191,
    "title":"臺北市松山區慈祐里辦公處",
    "county":"台北市",
    "town":"松山區",
    "address":"臺北市松山區慈祐里八德路4段580號1樓",
    "tel":"無",
    "mobile":"0988-587216"
    }
  },
  {
    "type": "Feature",
    "geometry": {
       "type": "Point",
       "coordinates":  [ 121.5576923,25.0508432 ]
    },
    "properties": {
    "no":192,
    "title":"財團法人雙福社會福利慈善事業基金會(蒙恩)",
    "county":"台北市",
    "town":"松山區",
    "address":"臺北市松山區復勢里光復北路112號8樓",
    "tel":"無",
    "mobile":"02-23922993"
    }
  },
  {
    "type": "Feature",
    "geometry": {
       "type": "Point",
       "coordinates":  [ 121.5624655,25.0551954 ]
    },
    "properties": {
    "no":193,
    "title":"社團法人中國老人教育協會",
    "county":"台北市",
    "town":"松山區",
    "address":"臺北市松山區自強里三民路35巷9號",
    "tel":"無",
    "mobile":"02-27565010"
    }
  },
  {
    "type": "Feature",
    "geometry": {
       "type": "Point",
       "coordinates":  [ 121.5584521,25.0597046 ]
    },
    "properties": {
    "no":194,
    "title":"社團法人台北市二村基石關懷協會",
    "county":"台北市",
    "town":"松山區",
    "address":"臺北市松山區東榮里民生東路5段69巷2弄10、12號",
    "tel":"無",
    "mobile":"02-27632002"
    }
  },
  {
    "type": "Feature",
    "geometry": {
       "type": "Point",
       "coordinates":  [ 121.5574266,25.0518277 ]
    },
    "properties": {
    "no":195,
    "title":"世界潘氏宗親總會",
    "county":"台北市",
    "town":"松山區",
    "address":"臺北市松山區東光里南京東路5段29號3樓",
    "tel":"無",
    "mobile":"02-27678497"
    }
  },
  {
    "type": "Feature",
    "geometry": {
       "type": "Point",
       "coordinates":  [ 121.5661322,25.0638126 ]
    },
    "properties": {
    "no":196,
    "title":"社團法人愛樂福關懷文創發展協會",
    "county":"台北市",
    "town":"松山區",
    "address":"臺北市松山區莊敬里撫遠街367巷4號",
    "tel":"無",
    "mobile":"02-27649475"
    }
  },
  {
    "type": "Feature",
    "geometry": {
       "type": "Point",
       "coordinates":  [ 121.5675772,25.0541612 ]
    },
    "properties": {
    "no":197,
    "title":"財團法人中華基督教衛理公會恩友堂",
    "county":"台北市",
    "town":"松山區",
    "address":"臺北市松山區安平里寶清街123號",
    "tel":"無",
    "mobile":"02-27670760"
    }
  },
  {
    "type": "Feature",
    "geometry": {
       "type": "Point",
       "coordinates":  [ 121.5546859,25.0513931 ]
    },
    "properties": {
    "no":198,
    "title":"社團法人台北市光鹽關懷發展協會",
    "county":"台北市",
    "town":"松山區",
    "address":"臺北市松山區東勢里南京東路4段107號 12樓",
    "tel":"無",
    "mobile":"02-27123242"
    }
  },
  {
    "type": "Feature",
    "geometry": {
       "type": "Point",
       "coordinates":  [ 121.5624655,25.0551954 ]
    },
    "properties": {
    "no":199,
    "title":"社團法人台北市長期照護發展協會",
    "county":"台北市",
    "town":"松山區",
    "address":"臺北市松山區自強里三民路35巷9號1樓",
    "tel":"無",
    "mobile":"02-27420058"
    }
  },
  {
    "type": "Feature",
    "geometry": {
       "type": "Point",
       "coordinates":  [ 121.5546859,25.0513931 ]
    },
    "properties": {
    "no":200,
    "title":"臺北市松山區東勢里辦公處",
    "county":"台北市",
    "town":"松山區",
    "address":"臺北市松山區東勢里南京東路4段133巷 8弄7號、17號",
    "tel":"無",
    "mobile":"02-27170369"
    }
  },
  {
    "type": "Feature",
    "geometry": {
       "type": "Point",
       "coordinates":  [ 121.5574266,25.0518277 ]
    },
    "properties": {
    "no":201,
    "title":"財團法人中華民國佛教慈濟慈善事業基金會(松山聯絡處)",
    "county":"台北市",
    "town":"松山區",
    "address":"臺北市松山區吉祥里南京東路5段188號 16樓",
    "tel":"無",
    "mobile":"0937-903855"
    }
  },
  {
    "type": "Feature",
    "geometry": {
       "type": "Point",
       "coordinates":  [ 121.547877,25.047036 ]
    },
    "properties": {
    "no":202,
    "title":"財團法人臺安基金會(基督復臨安息日會松山教會)",
    "county":"台北市",
    "town":"松山區",
    "address":"臺北市松山區福成里敦化南路1段78號",
    "tel":"無",
    "mobile":"02-27716823"
    }
  },
  {
    "type": "Feature",
    "geometry": {
       "type": "Point",
       "coordinates":  [ 121.5524318,25.0496452 ]
    },
    "properties": {
    "no":203,
    "title":"臺北市體適能指導工作人員職業工會",
    "county":"台北市",
    "town":"松山區",
    "address":"臺北市松山區美仁里敦化北路3號",
    "tel":"無",
    "mobile":"0985-985586"
    }
  },
  {
    "type": "Feature",
    "geometry": {
       "type": "Point",
       "coordinates":  [ 121.5274187,25.0483776 ]
    },
    "properties": {
    "no":204,
    "title":"臺北市松山區中正里辦公處",
    "county":"台北市",
    "town":"松山區",
    "address":"臺北市松山區中正里長安東路2段229號 12樓",
    "tel":"無",
    "mobile":"02-27717533"
    }
  },
  {
    "type": "Feature",
    "geometry": {
       "type": "Point",
       "coordinates":  [ 121.5676076,25.0531716 ]
    },
    "properties": {
    "no":205,
    "title":"社團法人台北市銀髮族協會(松山)",
    "county":"台北市",
    "town":"松山區",
    "address":"臺北市松山區安平里寶清街42號2樓",
    "tel":"無",
    "mobile":"02-87806411"
    }
  },
  {
    "type": "Feature",
    "geometry": {
       "type": "Point",
       "coordinates":  [ 121.5676076,25.0531716 ]
    },
    "properties": {
    "no":206,
    "title":"臺北市松山區安平社區發展協會",
    "county":"台北市",
    "town":"松山區",
    "address":"臺北市松山區安平里寶清街42號2樓",
    "tel":"無",
    "mobile":"02-27636898"
    }
  },
  {
    "type": "Feature",
    "geometry": {
       "type": "Point",
       "coordinates":  [ 121.563667,25.0606379 ]
    },
    "properties": {
    "no":207,
    "title":"中華樂活推廣協會",
    "county":"台北市",
    "town":"松山區",
    "address":"臺北市松山區三民路136巷3號",
    "tel":"無",
    "mobile":"0937-073980"
    }
  },
  {
    "type": "Feature",
    "geometry": {
       "type": "Point",
       "coordinates":  [ 121.573946,25.0506047 ]
    },
    "properties": {
    "no":208,
    "title":"財團法人臺北市松年長春社會福利基金會（松山）",
    "county":"台北市",
    "town":"松山區",
    "address":"臺北市松山區慈祐里饒河街105號",
    "tel":"無",
    "mobile":"0983-180401"
    }
  },
  {
    "type": "Feature",
    "geometry": {
       "type": "Point",
       "coordinates":  [ 121.5574079,25.0501986 ]
    },
    "properties": {
    "no":209,
    "title":"財團法人台北市私立永年社會福利慈善基金會",
    "county":"台北市",
    "town":"松山區",
    "address":"臺北市松山區復勢里光復北路80巷1號1樓",
    "tel":"無",
    "mobile":"02-25773533"
    }
  },
  {
    "type": "Feature",
    "geometry": {
       "type": "Point",
       "coordinates":  [ 121.544483,25.0639844 ]
    },
    "properties": {
    "no":210,
    "title":"財團法人弘道老人福利基金會(松山)",
    "county":"台北市",
    "town":"松山區",
    "address":"臺北市松山區民福里復興北路451號1樓",
    "tel":"無",
    "mobile":"02-66131314"
    }
  },
  {
    "type": "Feature",
    "geometry": {
       "type": "Point",
       "coordinates":  [ 121.5694235,25.0284117 ]
    },
    "properties": {
    "no":211,
    "title":"臺北市信義區三犁里辦公處",
    "county":"台北市",
    "town":"信義區",
    "address":"臺北市信義區三犁里信義路5段150巷14弄6號1樓",
    "tel":"無",
    "mobile":"0911-822428"
    }
  },
  {
    "type": "Feature",
    "geometry": {
       "type": "Point",
       "coordinates":  [ 121.5835872,25.0391641 ]
    },
    "properties": {
    "no":212,
    "title":"社團法人台灣厝邊有愛關懷協會 (中坡教會)",
    "county":"台北市",
    "town":"信義區",
    "address":"臺北市信義區中坡里大道路127-1號",
    "tel":"無",
    "mobile":"02-27260320"
    }
  },
  {
    "type": "Feature",
    "geometry": {
       "type": "Point",
       "coordinates":  [ 121.566819,25.0405415 ]
    },
    "properties": {
    "no":213,
    "title":"臺北市信義松光里辦公處",
    "county":"台北市",
    "town":"信義區",
    "address":"臺北市信義區松光里忠孝東路5段492巷 32號",
    "tel":"無",
    "mobile":"02-27278925"
    }
  },
  {
    "type": "Feature",
    "geometry": {
       "type": "Point",
       "coordinates":  [ 121.5648277,25.0270495 ]
    },
    "properties": {
    "no":214,
    "title":"財團法人台北市基督教全人福利事業基金會(吳興教會)",
    "county":"台北市",
    "town":"信義區",
    "address":"臺北市信義區三張里吳興街269巷18弄8號",
    "tel":"無",
    "mobile":"02-27589796"
    }
  },
  {
    "type": "Feature",
    "geometry": {
       "type": "Point",
       "coordinates":  [ 121.5768521,25.0394434 ]
    },
    "properties": {
    "no":215,
    "title":"社團法人台灣厝邊有愛關懷協會 (永吉教會)",
    "county":"台北市",
    "town":"信義區",
    "address":"臺北市信義區廣居里虎林街155、157、 159號",
    "tel":"無",
    "mobile":"02-27238578"
    }
  },
  {
    "type": "Feature",
    "geometry": {
       "type": "Point",
       "coordinates":  [ 121.5653136,25.0419415 ]
    },
    "properties": {
    "no":216,
    "title":"財團法人中華民國大同老人福利基金會",
    "county":"台北市",
    "town":"信義區",
    "address":"臺北市信義區興雅里基隆路1段155號3樓之6-9",
    "tel":"無",
    "mobile":"02-27670563"
    }
  },
  {
    "type": "Feature",
    "geometry": {
       "type": "Point",
       "coordinates":  [ 121.5653136,25.0419415 ]
    },
    "properties": {
    "no":217,
    "title":"臺北市信義區西村里辦公處",
    "county":"台北市",
    "town":"信義區",
    "address":"臺北市信義區西村里基隆路1段364巷22號",
    "tel":"無",
    "mobile":"02-27586396"
    }
  },
  {
    "type": "Feature",
    "geometry": {
       "type": "Point",
       "coordinates":  [ 121.566819,25.0405415 ]
    },
    "properties": {
    "no":218,
    "title":"臺北市基督教新榮耀堂福音協進會",
    "county":"台北市",
    "town":"信義區",
    "address":"臺北市信義區大道里忠孝東路5段782號",
    "tel":"無",
    "mobile":"02-27276003"
    }
  },
  {
    "type": "Feature",
    "geometry": {
       "type": "Point",
       "coordinates":  [ 121.5774477,25.0431291 ]
    },
    "properties": {
    "no":219,
    "title":"臺北市信義區永安社區發展協會",
    "county":"台北市",
    "town":"信義區",
    "address":"臺北市信義區長春里松山路294號4樓",
    "tel":"無",
    "mobile":"0963-763236"
    }
  },
  {
    "type": "Feature",
    "geometry": {
       "type": "Point",
       "coordinates":  [ 121.5593845,25.0333496 ]
    },
    "properties": {
    "no":220,
    "title":"台北市紅十字會",
    "county":"台北市",
    "town":"信義區",
    "address":"臺北市信義區中興里信義路4段415號5樓之3",
    "tel":"無",
    "mobile":"02-27583009"
    }
  },
  {
    "type": "Feature",
    "geometry": {
       "type": "Point",
       "coordinates":  [ 121.5746124,25.0450599 ]
    },
    "properties": {
    "no":221,
    "title":"臺北市信義區五全里辦公處",
    "county":"台北市",
    "town":"信義區",
    "address":"臺北市信義區五全里永吉路278巷1弄13號",
    "tel":"無",
    "mobile":"02-27620007"
    }
  },
  {
    "type": "Feature",
    "geometry": {
       "type": "Point",
       "coordinates":  [ 121.5857963,25.039887 ]
    },
    "properties": {
    "no":222,
    "title":"臺北市信義區中行里辦公處",
    "county":"台北市",
    "town":"信義區",
    "address":"臺北市信義區中行里福德街268巷32號",
    "tel":"無",
    "mobile":"02-27274777"
    }
  },
  {
    "type": "Feature",
    "geometry": {
       "type": "Point",
       "coordinates":  [ 121.5685041,25.0230002 ]
    },
    "properties": {
    "no":223,
    "title":"臺北市信義區惠安里辦公處",
    "county":"台北市",
    "town":"信義區",
    "address":"臺北市信義區惠安里吳興街506巷21號",
    "tel":"無",
    "mobile":"02-27588650"
    }
  },
  {
    "type": "Feature",
    "geometry": {
       "type": "Point",
       "coordinates":  [ 121.5760432,25.0344075 ]
    },
    "properties": {
    "no":224,
    "title":"臺北市信義區松友社區發展協會",
    "county":"台北市",
    "town":"信義區",
    "address":"臺北市信義區松友里信義路6段76巷2弄 22號1樓",
    "tel":"無",
    "mobile":"02-23466669"
    }
  },
  {
    "type": "Feature",
    "geometry": {
       "type": "Point",
       "coordinates":  [ 121.5577964,25.033297 ]
    },
    "properties": {
    "no":225,
    "title":"財團法人台北市中華基督教信義會(復興堂)",
    "county":"台北市",
    "town":"信義區",
    "address":"臺北市信義區中興里信義路4段375號10樓之2",
    "tel":"無",
    "mobile":"02-27200440"
    }
  },
  {
    "type": "Feature",
    "geometry": {
       "type": "Point",
       "coordinates":  [ 121.5854371,25.0370894 ]
    },
    "properties": {
    "no":226,
    "title":"台北市君賀人本關懷協會",
    "county":"台北市",
    "town":"信義區",
    "address":"臺北市信義區中行里福德街221巷15號\n（瑠公國中）",
    "tel":"無",
    "mobile":"02-23278616"
    }
  },
  {
    "type": "Feature",
    "geometry": {
       "type": "Point",
       "coordinates":  [ 121.5675285,25.0433306 ]
    },
    "properties": {
    "no":227,
    "title":"中華民國紅心字會(信義)",
    "county":"台北市",
    "town":"信義區",
    "address":"臺北市信義區興雅里松隆路36號4樓",
    "tel":"無",
    "mobile":"02-87870300"
    }
  },
  {
    "type": "Feature",
    "geometry": {
       "type": "Point",
       "coordinates":  [ 121.5631423,25.0242953 ]
    },
    "properties": {
    "no":228,
    "title":"社團法人臺北市信義區雙和社區發展協會",
    "county":"台北市",
    "town":"信義區",
    "address":"臺北市信義區雙和里吳興街284巷24弄 12號(雙和社區活動中心)",
    "tel":"無",
    "mobile":"02-27381447"
    }
  },
  {
    "type": "Feature",
    "geometry": {
       "type": "Point",
       "coordinates":  [ 121.5571725,25.0260907 ]
    },
    "properties": {
    "no":229,
    "title":"中華民國老人福利協進會",
    "county":"台北市",
    "town":"信義區",
    "address":"臺北市信義區信安街78-80號2樓",
    "tel":"無",
    "mobile":"02-27382357"
    }
  },
  {
    "type": "Feature",
    "geometry": {
       "type": "Point",
       "coordinates":  [ 121.5786738,25.0482881 ]
    },
    "properties": {
    "no":230,
    "title":"財團法人中華民國佛教慈濟慈善事業基金會(東區會所)",
    "county":"台北市",
    "town":"信義區",
    "address":"臺北市信義區永吉里松隆路327號",
    "tel":"無",
    "mobile":"0937-903855"
    }
  },
  {
    "type": "Feature",
    "geometry": {
       "type": "Point",
       "coordinates":  [ 121.5761703,25.0358654 ]
    },
    "properties": {
    "no":231,
    "title":"臺北市信義區安康里辦公處",
    "county":"台北市",
    "town":"信義區",
    "address":"臺北市信義區安康里虎林街232巷55號",
    "tel":"無",
    "mobile":"02-27273989"
    }
  },
  {
    "type": "Feature",
    "geometry": {
       "type": "Point",
       "coordinates":  [ 121.5842752,25.0388254 ]
    },
    "properties": {
    "no":232,
    "title":"社團法人台北市銀髮族協會(信義)",
    "county":"台北市",
    "town":"信義區",
    "address":"臺北市信義區中坡里中坡南路277號1樓",
    "tel":"無",
    "mobile":"02-87806411"
    }
  },
  {
    "type": "Feature",
    "geometry": {
       "type": "Point",
       "coordinates":  [ 121.5743968,25.0185873 ]
    },
    "properties": {
    "no":233,
    "title":"臺北市信義區挹翠社區發展協會",
    "county":"台北市",
    "town":"信義區",
    "address":"臺北市信義區六合里紫雲街23號1樓",
    "tel":"無",
    "mobile":"02-27228636"
    }
  },
  {
    "type": "Feature",
    "geometry": {
       "type": "Point",
       "coordinates":  [ 121.5775774,25.0430691 ]
    },
    "properties": {
    "no":234,
    "title":"臺北市信義區雙春社區發展協會",
    "county":"台北市",
    "town":"信義區",
    "address":"臺北市信義區長春里松山路294號2樓",
    "tel":"無",
    "mobile":"02-27695123"
    }
  },
  {
    "type": "Feature",
    "geometry": {
       "type": "Point",
       "coordinates":  [ 121.55853,25.0357461 ]
    },
    "properties": {
    "no":235,
    "title":"財團法人雙福社會福利慈善事業基金會 (信義)",
    "county":"台北市",
    "town":"信義區",
    "address":"臺北市信義區正和里光復南路443巷9號\n／光復南路447-44號",
    "tel":"無",
    "mobile":"02-27299580"
    }
  },
  {
    "type": "Feature",
    "geometry": {
       "type": "Point",
       "coordinates":  [ 121.5769411,25.0370782 ]
    },
    "properties": {
    "no":236,
    "title":"臺北市信義區國業里辦公處",
    "county":"台北市",
    "town":"信義區",
    "address":"臺北市信義區國業里虎林街222巷15號",
    "tel":"無",
    "mobile":"02-27262518"
    }
  },
  {
    "type": "Feature",
    "geometry": {
       "type": "Point",
       "coordinates":  [ 121.5735773,25.0002887 ]
    },
    "properties": {
    "no":237,
    "title":"臺北醫學大學高齡健康管理學系 (大我新舍)",
    "county":"台北市",
    "town":"信義區",
    "address":"臺北市信義區黎安里和平東路3段599號",
    "tel":"無",
    "mobile":"02-27361661"
    }
  },
  {
    "type": "Feature",
    "geometry": {
       "type": "Point",
       "coordinates":  [ 121.5608387,25.0288592 ]
    },
    "properties": {
    "no":238,
    "title":"財團法人臺北醫學大學展齡中心 (信義)",
    "county":"台北市",
    "town":"信義區",
    "address":"臺北市信義區景勤里吳興街156巷16弄7號1樓",
    "tel":"無",
    "mobile":"02-27365986"
    }
  },
  {
    "type": "Feature",
    "geometry": {
       "type": "Point",
       "coordinates":  [ 121.5921375,25.039477 ]
    },
    "properties": {
    "no":239,
    "title":"臺北市南港區仁福社區發展協會",
    "county":"台北市",
    "town":"南港區",
    "address":"臺北市南港區仁福里福德街373巷61號1樓",
    "tel":"無",
    "mobile":"0908-279069"
    }
  },
  {
    "type": "Feature",
    "geometry": {
       "type": "Point",
       "coordinates":  [ 121.6219253,25.0379276 ]
    },
    "properties": {
    "no":240,
    "title":"財團法人台灣基督傳道會復生教會",
    "county":"台北市",
    "town":"南港區",
    "address":"臺北市南港區舊莊里南深路21巷18號",
    "tel":"無",
    "mobile":"02-27822075"
    }
  },
  {
    "type": "Feature",
    "geometry": {
       "type": "Point",
       "coordinates":  [ 121.6155893,25.0533547 ]
    },
    "properties": {
    "no":241,
    "title":"社團法人中華基督教加倍愛全人關懷協會",
    "county":"台北市",
    "town":"南港區",
    "address":"臺北市南港區中南里忠孝東路7段625巷 16號",
    "tel":"無",
    "mobile":"02-26538820"
    }
  },
  {
    "type": "Feature",
    "geometry": {
       "type": "Point",
       "coordinates":  [ 121.5806486,25.0503564 ]
    },
    "properties": {
    "no":242,
    "title":"社團法人台灣厝邊有愛關懷協會\n（鍚安教會）",
    "county":"台北市",
    "town":"南港區",
    "address":"臺北市南港區玉成里玉成街20號",
    "tel":"無",
    "mobile":"02-27831891"
    }
  },
  {
    "type": "Feature",
    "geometry": {
       "type": "Point",
       "coordinates":  [ 121.6240441,25.0370335 ]
    },
    "properties": {
    "no":243,
    "title":"臺北市南港舊莊社區發展協會",
    "county":"台北市",
    "town":"南港區",
    "address":"臺北市南港區舊莊里舊莊街1段91巷11號",
    "tel":"無",
    "mobile":"0935-633688"
    }
  },
  {
    "type": "Feature",
    "geometry": {
       "type": "Point",
       "coordinates":  [ 121.592693,25.0396894 ]
    },
    "properties": {
    "no":244,
    "title":"臺北市南港區仁福里辦公處",
    "county":"台北市",
    "town":"南港區",
    "address":"臺北市南港區仁福里福德街443號1樓",
    "tel":"無",
    "mobile":"0919-619949"
    }
  },
  {
    "type": "Feature",
    "geometry": {
       "type": "Point",
       "coordinates":  [ 121.6158315,25.0466822 ]
    },
    "properties": {
    "no":245,
    "title":"社團法人臺灣厝邊有愛關懷協會 (中研教會)",
    "county":"台北市",
    "town":"南港區",
    "address":"臺北市南港區中研里研究院路2段11巷5號",
    "tel":"無",
    "mobile":"02-27824636"
    }
  },
  {
    "type": "Feature",
    "geometry": {
       "type": "Point",
       "coordinates":  [ 121.5882798,25.0477391 ]
    },
    "properties": {
    "no":246,
    "title":"台北市後山埤文化發展協會",
    "county":"台北市",
    "town":"南港區",
    "address":"臺北市南港區聯成里東新街77巷31號",
    "tel":"無",
    "mobile":"02-27851737"
    }
  },
  {
    "type": "Feature",
    "geometry": {
       "type": "Point",
       "coordinates":  [ 121.580579,25.047885 ]
    },
    "properties": {
    "no":247,
    "title":"財團法人以琳基督徒中心",
    "county":"台北市",
    "town":"南港區",
    "address":"臺北市南港區合成里中坡北路92號2樓",
    "tel":"無",
    "mobile":"02-26511002"
    }
  },
  {
    "type": "Feature",
    "geometry": {
       "type": "Point",
       "coordinates":  [ 121.5799601,25.0503038 ]
    },
    "properties": {
    "no":248,
    "title":"臺北市全人探索協會",
    "county":"台北市",
    "town":"南港區",
    "address":"臺北市南港區玉成里八德路4段768之1號4樓至6樓",
    "tel":"無",
    "mobile":"02-27826939"
    }
  },
  {
    "type": "Feature",
    "geometry": {
       "type": "Point",
       "coordinates":  [ 121.5865825,25.0433328 ]
    },
    "properties": {
    "no":249,
    "title":"台北市南港區鴻福社區發展協會",
    "county":"台北市",
    "town":"南港區",
    "address":"臺北市南港區鴻福里成福路92號1樓臺北市南港區鴻福里成福路82號1樓",
    "tel":"無",
    "mobile":"02-27834848"
    }
  },
  {
    "type": "Feature",
    "geometry": {
       "type": "Point",
       "coordinates":  [ 121.613004,25.045799 ]
    },
    "properties": {
    "no":250,
    "title":"臺北市南港區中研新村社區發展協會",
    "county":"台北市",
    "town":"南港區",
    "address":"臺北市南港區中研里研究院路2段70巷 47弄4號1樓\n臺北市南港區中研里研究院路2段70巷 12號2樓",
    "tel":"無",
    "mobile":"0986-028209"
    }
  },
  {
    "type": "Feature",
    "geometry": {
       "type": "Point",
       "coordinates":  [ 121.6145084,25.0538015 ]
    },
    "properties": {
    "no":251,
    "title":"財團法人弘道老人福利基金會",
    "county":"台北市",
    "town":"南港區",
    "address":"臺北市南港區中南里市民大道8段588巷 18號",
    "tel":"無",
    "mobile":"0979-810136"
    }
  },
  {
    "type": "Feature",
    "geometry": {
       "type": "Point",
       "coordinates":  [ 121.61738,25.053651 ]
    },
    "properties": {
    "no":252,
    "title":"臺北市南港區新富里辦公處",
    "county":"台北市",
    "town":"南港區",
    "address":"臺北市南港區新富里富康街25號",
    "tel":"無",
    "mobile":"02-27828495"
    }
  },
  {
    "type": "Feature",
    "geometry": {
       "type": "Point",
       "coordinates":  [ 121.617081,25.0367075 ]
    },
    "properties": {
    "no":253,
    "title":"臺北市南港區久如社區發展協會",
    "county":"台北市",
    "town":"南港區",
    "address":"臺北市南港區九如里研究院路2段208號 1樓",
    "tel":"無",
    "mobile":"02-26516600"
    }
  },
  {
    "type": "Feature",
    "geometry": {
       "type": "Point",
       "coordinates":  [ 121.5855436,25.047211 ]
    },
    "properties": {
    "no":254,
    "title":"社團法人中華民國我願意全人關懷協會",
    "county":"台北市",
    "town":"南港區",
    "address":"臺北市南港區萬福里東新街64巷7、 11、13號B1",
    "tel":"無",
    "mobile":"02-27826248"
    }
  },
  {
    "type": "Feature",
    "geometry": {
       "type": "Point",
       "coordinates":  [ 121.6145028,25.0453694 ]
    },
    "properties": {
    "no":255,
    "title":"臺北市南港區好厝邊社區發展協會",
    "county":"台北市",
    "town":"南港區",
    "address":"臺北市南港區中研里研究院路2段70巷 12號2樓（中研區民活動中心）",
    "tel":"無",
    "mobile":"02-27827592"
    }
  },
  {
    "type": "Feature",
    "geometry": {
       "type": "Point",
       "coordinates":  [ 121.5921867,25.0816791 ]
    },
    "properties": {
    "no":256,
    "title":"社團法人台灣多元社會福利協會 (瀞德)",
    "county":"台北市",
    "town":"南港區",
    "address":"臺北市南港區西新里成功路1段82巷11號",
    "tel":"無",
    "mobile":"02-26536103"
    }
  },
  {
    "type": "Feature",
    "geometry": {
       "type": "Point",
       "coordinates":  [ 121.5009717,25.0267176 ]
    },
    "properties": {
    "no":257,
    "title":"財團法人一粒麥子社會福利慈善事業基金會",
    "county":"台北市",
    "town":"萬華區",
    "address":"臺北市萬華區新和里萬大路237巷13弄3號1樓",
    "tel":"無",
    "mobile":"02-23320669"
    }
  },
  {
    "type": "Feature",
    "geometry": {
       "type": "Point",
       "coordinates":  [ 121.4890783,25.0330062 ]
    },
    "properties": {
    "no":258,
    "title":"臺北市萬華區華江社區發展協會",
    "county":"台北市",
    "town":"萬華區",
    "address":"臺北市萬華區華江里長順街127號(長順區民活動中心)",
    "tel":"無",
    "mobile":"02-23081454"
    }
  },
  {
    "type": "Feature",
    "geometry": {
       "type": "Point",
       "coordinates":  [ 121.5023125,25.0287637 ]
    },
    "properties": {
    "no":259,
    "title":"臺北市萬華區新忠里辦公處",
    "county":"台北市",
    "town":"萬華區",
    "address":"臺北市萬華區新忠里西藏路125巷7號1樓(里民活動場所)",
    "tel":"無",
    "mobile":"02-23392806"
    }
  },
  {
    "type": "Feature",
    "geometry": {
       "type": "Point",
       "coordinates":  [ 121.494762,25.0249061 ]
    },
    "properties": {
    "no":260,
    "title":"財團法人環宇國際文化教育基金會(萬華)",
    "county":"台北市",
    "town":"萬華區",
    "address":"臺北市萬華區錦德里寶興街136號1樓",
    "tel":"無",
    "mobile":"02-23098844"
    }
  },
  {
    "type": "Feature",
    "geometry": {
       "type": "Point",
       "coordinates":  [ 121.4990396,25.0217924 ]
    },
    "properties": {
    "no":261,
    "title":"中華民國雙囍老人義務教育推廣協會",
    "county":"台北市",
    "town":"萬華區",
    "address":"臺北市萬華區壽德里萬大路411號2樓萬青區民活動中心",
    "tel":"無",
    "mobile":"02-23317158#18"
    }
  },
  {
    "type": "Feature",
    "geometry": {
       "type": "Point",
       "coordinates":  [ 121.4943937,25.0277204 ]
    },
    "properties": {
    "no":262,
    "title":"財團法人台北市中國基督教靈糧世界佈道會台北靈糧堂(雙園靈糧福音中心)",
    "county":"台北市",
    "town":"萬華區",
    "address":"臺北市萬華區和德里西園路2段362及 364號4樓,與362號5樓",
    "tel":"無",
    "mobile":"02-23077700"
    }
  },
  {
    "type": "Feature",
    "geometry": {
       "type": "Point",
       "coordinates":  [ 121.5048448,25.0379636 ]
    },
    "properties": {
    "no":263,
    "title":"財團法人台北市中國基督教靈糧世界佈道會台北靈糧堂(萬華靈糧福音中心)",
    "county":"台北市",
    "town":"萬華區",
    "address":"臺北市萬華區仁德里桂林路27號1樓及桂林路31號1樓",
    "tel":"無",
    "mobile":"02-23315658"
    }
  },
  {
    "type": "Feature",
    "geometry": {
       "type": "Point",
       "coordinates":  [ 121.5013573,25.0353733 ]
    },
    "properties": {
    "no":264,
    "title":"社團法人台北市艾馨公益慈善會",
    "county":"台北市",
    "town":"萬華區",
    "address":"臺北市萬華區福音里康定路229號6樓",
    "tel":"無",
    "mobile":"02-23366516"
    }
  },
  {
    "type": "Feature",
    "geometry": {
       "type": "Point",
       "coordinates":  [ 121.4994604,25.0323563 ]
    },
    "properties": {
    "no":265,
    "title":"財團法人天主教聖母聖心會",
    "county":"台北市",
    "town":"萬華區",
    "address":"臺北市萬華區雙園里興寧街70號",
    "tel":"無",
    "mobile":"02-23028934"
    }
  },
  {
    "type": "Feature",
    "geometry": {
       "type": "Point",
       "coordinates":  [ 121.5044075,25.026758 ]
    },
    "properties": {
    "no":266,
    "title":"臺北市萬華區青年社區發展協會",
    "county":"台北市",
    "town":"萬華區",
    "address":"臺北市萬華區新和里中華路2段416巷9- 3、9-4號(青年社區)\n臺北市萬華區新和里青年社區30巷",
    "tel":"無",
    "mobile":"02-23031537"
    }
  },
  {
    "type": "Feature",
    "geometry": {
       "type": "Point",
       "coordinates":  [ 121.5088269,25.0241498 ]
    },
    "properties": {
    "no":267,
    "title":"臺北市萬華區馬場町社區發展協會",
    "county":"台北市",
    "town":"萬華區",
    "address":"臺北市萬華區騰雲里國興路1巷2-4號 (騰雲里里民活動中心)",
    "tel":"無",
    "mobile":"0983-372223"
    }
  },
  {
    "type": "Feature",
    "geometry": {
       "type": "Point",
       "coordinates":  [ 121.4959856,25.0332587 ]
    },
    "properties": {
    "no":268,
    "title":"中華民國紅十字會",
    "county":"台北市",
    "town":"萬華區",
    "address":"臺北市萬華區糖廍里艋舺大道303號1、 4樓",
    "tel":"無",
    "mobile":"02-23628232#410"
    }
  },
  {
    "type": "Feature",
    "geometry": {
       "type": "Point",
       "coordinates":  [ 121.4970914,25.0232728 ]
    },
    "properties": {
    "no":269,
    "title":"臺北市萬華區保德社區發展協會",
    "county":"台北市",
    "town":"萬華區",
    "address":"臺北市萬華區保德里東園街140巷8號臺北市萬華區東園街140巷10號",
    "tel":"無",
    "mobile":"02-23323337"
    }
  },
  {
    "type": "Feature",
    "geometry": {
       "type": "Point",
       "coordinates":  [ 121.5010896,25.0237479 ]
    },
    "properties": {
    "no":270,
    "title":"臺北市萬華區萬大社區發展協會",
    "county":"台北市",
    "town":"萬華區",
    "address":"臺北市萬華區壽德里萬大路329巷25號1樓\n台北市萬華區萬大路329巷27弄4號",
    "tel":"無",
    "mobile":"02-23090713"
    }
  },
  {
    "type": "Feature",
    "geometry": {
       "type": "Point",
       "coordinates":  [ 121.4921752,25.0268592 ]
    },
    "properties": {
    "no":271,
    "title":"臺北市和德長壽健康促進協會",
    "county":"台北市",
    "town":"萬華區",
    "address":"臺北市萬華區和德里興義街25號",
    "tel":"無",
    "mobile":"02-23395285"
    }
  },
  {
    "type": "Feature",
    "geometry": {
       "type": "Point",
       "coordinates":  [ 121.5036802,25.0201451 ]
    },
    "properties": {
    "no":272,
    "title":"臺北市萬華日祥關懷協會",
    "county":"台北市",
    "town":"萬華區",
    "address":"臺北市萬華區日祥里青年路186-1號",
    "tel":"無",
    "mobile":"02-23376359"
    }
  },
  {
    "type": "Feature",
    "geometry": {
       "type": "Point",
       "coordinates":  [ 121.4991888,25.0276236 ]
    },
    "properties": {
    "no":273,
    "title":"財團法人天主教單國璽弱勢族群社福基金會",
    "county":"台北市",
    "town":"萬華區",
    "address":"臺北市萬華區日善里西藏路201號",
    "tel":"無",
    "mobile":"02-23045899"
    }
  }
]
}