{
   "type": "FeatureCollection",
   "features": [
  {
    "type": "Feature",
    "geometry": {
       "type": "Point",
       "coordinates":  [ 121.52149398882,25.104968992576 ]
    },
    "properties": {
    "序號":1,
    "行政區":"士林區",
    "機構名稱":"芯語心理治療所",
    "地址":"臺北市士林區德行西路93巷2弄9號"
    }
  },
  {
    "type": "Feature",
    "geometry": {
       "type": "Point",
       "coordinates":  [ 121.521560960227,25.104511005387 ]
    },
    "properties": {
    "序號":2,
    "行政區":"士林區",
    "機構名稱":"思塾心理諮商所",
    "地址":"臺北市士林區德行西路87號2F"
    }
  },
  {
    "type": "Feature",
    "geometry": {
       "type": "Point",
       "coordinates":  [ 121.523199035564,25.102744980297 ]
    },
    "properties": {
    "序號":3,
    "行政區":"士林區",
    "機構名稱":"用心說心理治療所",
    "地址":"臺北市士林區福國路56巷17號1樓"
    }
  },
  {
    "type": "Feature",
    "geometry": {
       "type": "Point",
       "coordinates":  [ 121.527841017362,25.094072979453 ]
    },
    "properties": {
    "序號":4,
    "行政區":"士林區",
    "機構名稱":"展立心理治療所",
    "地址":"臺北市士林區中山北路5段527號3樓"
    }
  },
  {
    "type": "Feature",
    "geometry": {
       "type": "Point",
       "coordinates":  [ 121.526767966117,25.093994985844 ]
    },
    "properties": {
    "序號":5,
    "行政區":"士林區",
    "機構名稱":"潛意心理諮商所",
    "地址":"臺北市士林區中正路213巷44號2樓"
    }
  },
  {
    "type": "Feature",
    "geometry": {
       "type": "Point",
       "coordinates":  [ 121.531079030377,25.122995993645 ]
    },
    "properties": {
    "序號":6,
    "行政區":"士林區",
    "機構名稱":"我的心理諮商所",
    "地址":"臺北市士林區中山北路7段141巷5號4樓"
    }
  },
  {
    "type": "Feature",
    "geometry": {
       "type": "Point",
       "coordinates":  [ 121.532118973104,25.107410012329 ]
    },
    "properties": {
    "序號":7,
    "行政區":"士林區",
    "機構名稱":"沐昕天母心理治療所",
    "地址":"臺北市士林區德行東路190巷31弄6號"
    }
  },
  {
    "type": "Feature",
    "geometry": {
       "type": "Point",
       "coordinates":  [ 121.525000977109,25.097329013561 ]
    },
    "properties": {
    "序號":8,
    "行政區":"士林區",
    "機構名稱":"翎馨心理治療所",
    "地址":"臺北市士林區中正路236巷32號1、2樓"
    }
  },
  {
    "type": "Feature",
    "geometry": {
       "type": "Point",
       "coordinates":  [ 121.518599969111,25.05584399917 ]
    },
    "properties": {
    "序號":9,
    "行政區":"大同區",
    "機構名稱":"宇聯心理治療所",
    "地址":"臺北市大同區承德路2段75巷5號1樓"
    }
  },
  {
    "type": "Feature",
    "geometry": {
       "type": "Point",
       "coordinates":  [ 121.519749966226,25.0529439864 ]
    },
    "properties": {
    "序號":10,
    "行政區":"大同區",
    "機構名稱":"人生設計心理諮商所",
    "地址":"臺北市大同區南京西路41號8樓之2"
    }
  },
  {
    "type": "Feature",
    "geometry": {
       "type": "Point",
       "coordinates":  [ 121.518002004138,25.072056988753 ]
    },
    "properties": {
    "序號":11,
    "行政區":"大同區",
    "機構名稱":"療寓心理諮商所",
    "地址":"臺北市大同區庫倫街37號3樓"
    }
  },
  {
    "type": "Feature",
    "geometry": {
       "type": "Point",
       "coordinates":  [ 121.516823005638,25.063786983985 ]
    },
    "properties": {
    "序號":12,
    "行政區":"大同區",
    "機構名稱":"北極星心理治療所",
    "地址":"臺北市大同區承德路3段8巷21號1樓"
    }
  },
  {
    "type": "Feature",
    "geometry": {
       "type": "Point",
       "coordinates":  [ 121.524145017156,25.025170005404 ]
    },
    "properties": {
    "序號":13,
    "行政區":"大安區",
    "機構名稱":"璞成心遇空間心理諮商所",
    "地址":"臺北市大安區羅斯福路2段93號24樓之1"
    }
  },
  {
    "type": "Feature",
    "geometry": {
       "type": "Point",
       "coordinates":  [ 121.555830958092,25.033598009047 ]
    },
    "properties": {
    "序號":14,
    "行政區":"大安區",
    "機構名稱":"格瑞思心理諮商所",
    "地址":"臺北市大安區信義路四段265巷21弄26號"
    }
  },
  {
    "type": "Feature",
    "geometry": {
       "type": "Point",
       "coordinates":  [ 121.534024012058,25.040761015863 ]
    },
    "properties": {
    "序號":15,
    "行政區":"大安區",
    "機構名稱":"拉第石心理諮商所",
    "地址":"臺北市大安區新生南路一段103巷9之1號1樓、9號6樓"
    }
  },
  {
    "type": "Feature",
    "geometry": {
       "type": "Point",
       "coordinates":  [ 121.53147700314,25.021133993296 ]
    },
    "properties": {
    "序號":16,
    "行政區":"大安區",
    "機構名稱":"心靈之美心理治療所",
    "地址":"臺北市大安區辛亥路一段84號2樓"
    }
  },
  {
    "type": "Feature",
    "geometry": {
       "type": "Point",
       "coordinates":  [ 121.535491012752,25.041725982466 ]
    },
    "properties": {
    "序號":17,
    "行政區":"大安區",
    "機構名稱":"中崙諮商中心心理諮商所",
    "地址":"臺北市大安區忠孝東路3段54號4樓之1"
    }
  },
  {
    "type": "Feature",
    "geometry": {
       "type": "Point",
       "coordinates":  [ 121.556792027111,25.038297993614 ]
    },
    "properties": {
    "序號":18,
    "行政區":"大安區",
    "機構名稱":"聯合心理諮商所",
    "地址":"臺北市大安區光復南路346巷23號4樓"
    }
  },
  {
    "type": "Feature",
    "geometry": {
       "type": "Point",
       "coordinates":  [ 121.548328987112,25.023578994453 ]
    },
    "properties": {
    "序號":19,
    "行政區":"大安區",
    "機構名稱":"天力亞太心理諮商所",
    "地址":"臺北市大安區敦化南路2段182號7樓"
    }
  },
  {
    "type": "Feature",
    "geometry": {
       "type": "Point",
       "coordinates":  [ 121.532040015576,25.026107982279 ]
    },
    "properties": {
    "序號":20,
    "行政區":"大安區",
    "機構名稱":"淨開心心理治療所",
    "地址":"臺北市大安區和平東路1段218號5樓之1"
    }
  },
  {
    "type": "Feature",
    "geometry": {
       "type": "Point",
       "coordinates":  [ 121.545377970461,25.032979005497 ]
    },
    "properties": {
    "序號":21,
    "行政區":"大安區",
    "機構名稱":"福樂心理治療所",
    "地址":"臺北市大安區信義路4段58號12樓之3"
    }
  },
  {
    "type": "Feature",
    "geometry": {
       "type": "Point",
       "coordinates":  [ 121.545749959324,25.026459016384 ]
    },
    "properties": {
    "序號":22,
    "行政區":"大安區",
    "機構名稱":"盼心理諮商所",
    "地址":"臺北市大安區四維路198巷38弄11號3樓"
    }
  },
  {
    "type": "Feature",
    "geometry": {
       "type": "Point",
       "coordinates":  [ 121.54351601449,25.041868013815 ]
    },
    "properties": {
    "序號":23,
    "行政區":"大安區",
    "機構名稱":"看見心理諮商所",
    "地址":"臺北市大安區忠孝東路3段305號5樓之2"
    }
  },
  {
    "type": "Feature",
    "geometry": {
       "type": "Point",
       "coordinates":  [ 121.543768980328,25.028695014784 ]
    },
    "properties": {
    "序號":24,
    "行政區":"大安區",
    "機構名稱":"力人心理治療所",
    "地址":"臺北市大安區復興南路2段139號10樓"
    }
  },
  {
    "type": "Feature",
    "geometry": {
       "type": "Point",
       "coordinates":  [ 121.532790028273,25.028530980939 ]
    },
    "properties": {
    "序號":25,
    "行政區":"大安區",
    "機構名稱":"國立臺灣師範大學社區諮商中心心田心理諮商所",
    "地址":"臺北市大安區青田街5巷16號"
    }
  },
  {
    "type": "Feature",
    "geometry": {
       "type": "Point",
       "coordinates":  [ 121.544150021646,25.036184999643 ]
    },
    "properties": {
    "序號":26,
    "行政區":"大安區",
    "機構名稱":"啟宗心理諮商所",
    "地址":"臺北市大安區東豐街7號5樓之2"
    }
  },
  {
    "type": "Feature",
    "geometry": {
       "type": "Point",
       "coordinates":  [ 121.538960031019,25.025237982639 ]
    },
    "properties": {
    "序號":27,
    "行政區":"大安區",
    "機構名稱":"愛心理諮商所",
    "地址":"臺北市大安區和平東路二段66號6樓之1"
    }
  },
  {
    "type": "Feature",
    "geometry": {
       "type": "Point",
       "coordinates":  [ 121.538304482372,25.033280502555 ]
    },
    "properties": {
    "序號":28,
    "行政區":"大安區",
    "機構名稱":"心園心理治療所",
    "地址":"臺北市大安區信義路三段106號8樓之6"
    }
  },
  {
    "type": "Feature",
    "geometry": {
       "type": "Point",
       "coordinates":  [ 121.54351601449,25.041868013815 ]
    },
    "properties": {
    "序號":29,
    "行政區":"大安區",
    "機構名稱":"看見心理忠孝心理諮商所",
    "地址":"臺北市大安區忠孝東路三段305號5樓"
    }
  },
  {
    "type": "Feature",
    "geometry": {
       "type": "Point",
       "coordinates":  [ 121.543324320364,25.033181302731 ]
    },
    "properties": {
    "序號":30,
    "行政區":"大安區",
    "機構名稱":"毛蟲藝術心理諮商所",
    "地址":"臺北市大安區信義路3段202號6樓之1"
    }
  },
  {
    "type": "Feature",
    "geometry": {
       "type": "Point",
       "coordinates":  [ 121.542871027041,25.033178997707 ]
    },
    "properties": {
    "序號":31,
    "行政區":"大安區",
    "機構名稱":"童伴心理治療所",
    "地址":"臺北市大安區信義路3段190號6樓"
    }
  },
  {
    "type": "Feature",
    "geometry": {
       "type": "Point",
       "coordinates":  [ 121.525846962596,25.023044019483 ]
    },
    "properties": {
    "序號":32,
    "行政區":"大安區",
    "機構名稱":"心寓心理諮商所",
    "地址":"臺北市大安區羅斯福路3段61號2樓"
    }
  },
  {
    "type": "Feature",
    "geometry": {
       "type": "Point",
       "coordinates":  [ 121.544711022426,25.024604981311 ]
    },
    "properties": {
    "序號":33,
    "行政區":"大安區",
    "機構名稱":"國立臺北教育大學心理諮商暨健康促進研究中心芳蘭心理諮商所",
    "地址":"臺北市大安區和平東路2段134之18號"
    }
  },
  {
    "type": "Feature",
    "geometry": {
       "type": "Point",
       "coordinates":  [ 121.530758003486,25.033436992687 ]
    },
    "properties": {
    "序號":34,
    "行政區":"大安區",
    "機構名稱":"昕岸心理諮商所",
    "地址":"臺北市大安區信義路2段208號8樓"
    }
  },
  {
    "type": "Feature",
    "geometry": {
       "type": "Point",
       "coordinates":  [ 121.557386974598,25.04163902022 ]
    },
    "properties": {
    "序號":35,
    "行政區":"大安區",
    "機構名稱":"微光心理諮商所",
    "地址":"臺北市大安區忠孝東路4段341號10樓之3"
    }
  },
  {
    "type": "Feature",
    "geometry": {
       "type": "Point",
       "coordinates":  [ 121.535745990246,25.036583014315 ]
    },
    "properties": {
    "序號":36,
    "行政區":"大安區",
    "機構名稱":"竹心理諮商所",
    "地址":"臺北市大安區建國南路1段270巷29號1樓"
    }
  },
  {
    "type": "Feature",
    "geometry": {
       "type": "Point",
       "coordinates":  [ 121.549185030884,25.032825993855 ]
    },
    "properties": {
    "序號":37,
    "行政區":"大安區",
    "機構名稱":"芳嚮心理諮商所",
    "地址":"臺北市大安區敦化南路2段5號9樓之2"
    }
  },
  {
    "type": "Feature",
    "geometry": {
       "type": "Point",
       "coordinates":  [ 121.550029004714,25.033420019333 ]
    },
    "properties": {
    "序號":38,
    "行政區":"大安區",
    "機構名稱":"初和心理諮商所",
    "地址":"臺北市大安區信義路4段155號8樓"
    }
  },
  {
    "type": "Feature",
    "geometry": {
       "type": "Point",
       "coordinates":  [ 121.53779301864,25.041502898113 ]
    },
    "properties": {
    "序號":39,
    "行政區":"大安區",
    "機構名稱":"伴旅心理治療所",
    "地址":"臺北市大安區忠孝東路三段136號7樓之3"
    }
  },
  {
    "type": "Feature",
    "geometry": {
       "type": "Point",
       "coordinates":  [ 121.544150021646,25.036184999643 ]
    },
    "properties": {
    "序號":40,
    "行政區":"大安區",
    "機構名稱":"格桑美度心理諮商所",
    "地址":"臺北市大安區東豐街7號14樓"
    }
  },
  {
    "type": "Feature",
    "geometry": {
       "type": "Point",
       "coordinates":  [ 121.542871027041,25.033178997707 ]
    },
    "properties": {
    "序號":41,
    "行政區":"大安區",
    "機構名稱":"同伴心理諮商所",
    "地址":"臺北市大安區信義路3段190號10樓"
    }
  },
  {
    "type": "Feature",
    "geometry": {
       "type": "Point",
       "coordinates":  [ 121.543241004247,25.027439992422 ]
    },
    "properties": {
    "序號":42,
    "行政區":"大安區",
    "機構名稱":"歸心心理諮商所",
    "地址":"臺北市大安區復興南路二段178號3樓"
    }
  },
  {
    "type": "Feature",
    "geometry": {
       "type": "Point",
       "coordinates":  [ 121.550970962993,25.033614982401 ]
    },
    "properties": {
    "序號":43,
    "行政區":"大安區",
    "機構名稱":"綻芯安和心理諮商所",
    "地址":"臺北市大安區信義路四段187號7樓"
    }
  },
  {
    "type": "Feature",
    "geometry": {
       "type": "Point",
       "coordinates":  [ 121.550901812292,25.041689311639 ]
    },
    "properties": {
    "序號":44,
    "行政區":"大安區",
    "機構名稱":"立翎心理諮商所",
    "地址":"臺北市大安區忠孝東路4段183號3樓之6"
    }
  },
  {
    "type": "Feature",
    "geometry": {
       "type": "Point",
       "coordinates":  [ 121.548330998769,25.023698017478 ]
    },
    "properties": {
    "序號":45,
    "行政區":"大安區",
    "機構名稱":"邁愷爾心理治療所",
    "地址":"臺北市大安區敦化南路2段180號14樓之1"
    }
  },
  {
    "type": "Feature",
    "geometry": {
       "type": "Point",
       "coordinates":  [ 121.549194334796,25.031196300421 ]
    },
    "properties": {
    "序號":46,
    "行政區":"大安區",
    "機構名稱":"日好心理治療所",
    "地址":"臺北市大安區敦化南路2段59號7樓之1"
    }
  },
  {
    "type": "Feature",
    "geometry": {
       "type": "Point",
       "coordinates":  [ 121.54339917076,25.034134408941 ]
    },
    "properties": {
    "序號":47,
    "行政區":"大安區",
    "機構名稱":"特殊情緒心理諮商所",
    "地址":"臺北市大安區復興南路1段380號3樓"
    }
  },
  {
    "type": "Feature",
    "geometry": {
       "type": "Point",
       "coordinates":  [ 121.554035973528,25.033376014341 ]
    },
    "properties": {
    "序號":48,
    "行政區":"大安區",
    "機構名稱":"輕輕說心理諮商所",
    "地址":"臺北市大安區信義路4段263號11樓之5"
    }
  },
  {
    "type": "Feature",
    "geometry": {
       "type": "Point",
       "coordinates":  [ 121.546683032786,25.027352988267 ]
    },
    "properties": {
    "序號":49,
    "行政區":"大安區",
    "機構名稱":"沁心理諮商所",
    "地址":"臺北市大安區和平東路3段1巷56號2樓"
    }
  },
  {
    "type": "Feature",
    "geometry": {
       "type": "Point",
       "coordinates":  [ 121.545806369533,25.041792115682 ]
    },
    "properties": {
    "序號":50,
    "行政區":"大安區",
    "機構名稱":"晴韻心理諮商所",
    "地址":"臺北市大安區忠孝東路4段59號10樓之1"
    }
  },
  {
    "type": "Feature",
    "geometry": {
       "type": "Point",
       "coordinates":  [ 121.523792977223,25.053874000466 ]
    },
    "properties": {
    "序號":51,
    "行政區":"中山區",
    "機構名稱":"青蘊心理治療所",
    "地址":"臺北市中山區中山北路2段39巷10號5樓"
    }
  },
  {
    "type": "Feature",
    "geometry": {
       "type": "Point",
       "coordinates":  [ 121.522150040382,25.057702979565 ]
    },
    "properties": {
    "序號":52,
    "行政區":"中山區",
    "機構名稱":"馨培心理治療所",
    "地址":"臺北市中山區10448民生西路16號3樓之2"
    }
  },
  {
    "type": "Feature",
    "geometry": {
       "type": "Point",
       "coordinates":  [ 121.534973011136,25.051660004562 ]
    },
    "properties": {
    "序號":53,
    "行政區":"中山區",
    "機構名稱":"一二心理諮商所",
    "地址":"臺北市中山區南京東路2段176號11樓"
    }
  },
  {
    "type": "Feature",
    "geometry": {
       "type": "Point",
       "coordinates":  [ 121.543804016683,25.054244983501 ]
    },
    "properties": {
    "序號":54,
    "行政區":"中山區",
    "機構名稱":"愛的心理諮商所",
    "地址":"臺北市中山區復興北路178號4樓之9"
    }
  },
  {
    "type": "Feature",
    "geometry": {
       "type": "Point",
       "coordinates":  [ 121.542773629326,25.048380794492 ]
    },
    "properties": {
    "序號":55,
    "行政區":"中山區",
    "機構名稱":"亞和心理諮商所",
    "地址":"臺北市中山區長安東路2段189號7樓之8"
    }
  },
  {
    "type": "Feature",
    "geometry": {
       "type": "Point",
       "coordinates":  [ 121.546704993372,25.082249005829 ]
    },
    "properties": {
    "序號":56,
    "行政區":"中山區",
    "機構名稱":"晴風心理治療所",
    "地址":"臺北市中山區大直街33巷5號"
    }
  },
  {
    "type": "Feature",
    "geometry": {
       "type": "Point",
       "coordinates":  [ 121.543488018933,25.058629012228 ]
    },
    "properties": {
    "序號":57,
    "行政區":"中山區",
    "機構名稱":"綻芯心理諮商所",
    "地址":"臺北市中山區復興北路280巷2號3樓"
    }
  },
  {
    "type": "Feature",
    "geometry": {
       "type": "Point",
       "coordinates":  [ 121.530377967996,25.060923013399 ]
    },
    "properties": {
    "序號":58,
    "行政區":"中山區",
    "機構名稱":"以賽亞心理諮商所",
    "地址":"臺北市中山區吉林路231號3樓"
    }
  },
  {
    "type": "Feature",
    "geometry": {
       "type": "Point",
       "coordinates":  [ 121.553556025752,25.083454994058 ]
    },
    "properties": {
    "序號":59,
    "行政區":"中山區",
    "機構名稱":"蘇予昕心理諮商所",
    "地址":"臺北市中山區敬業一路128巷39號4F之2及3樓之1"
    }
  },
  {
    "type": "Feature",
    "geometry": {
       "type": "Point",
       "coordinates":  [ 121.522936011442,25.0520089851 ]
    },
    "properties": {
    "序號":60,
    "行政區":"中山區",
    "機構名稱":"知我心理治療所",
    "地址":"臺北市中山區南京東路一段2號11樓"
    }
  },
  {
    "type": "Feature",
    "geometry": {
       "type": "Point",
       "coordinates":  [ 121.524437126482,25.057928788037 ]
    },
    "properties": {
    "序號":61,
    "行政區":"中山區",
    "機構名稱":"舒心心理諮商所",
    "地址":"臺北市中山區民生東路1段42號11樓之2"
    }
  },
  {
    "type": "Feature",
    "geometry": {
       "type": "Point",
       "coordinates":  [ 121.533510620489,25.060435815277 ]
    },
    "properties": {
    "序號":62,
    "行政區":"中山區",
    "機構名稱":"點亮心燈諮商中心心理諮商所",
    "地址":"臺北市中山區松江路289-910號"
    }
  },
  {
    "type": "Feature",
    "geometry": {
       "type": "Point",
       "coordinates":  [ 121.522010984608,25.065367014643 ]
    },
    "properties": {
    "序號":63,
    "行政區":"中山區",
    "機構名稱":"向日葵心理諮商所",
    "地址":"臺北市中山區中山北路三段30號3樓之2"
    }
  },
  {
    "type": "Feature",
    "geometry": {
       "type": "Point",
       "coordinates":  [ 121.524437126482,25.057928788037 ]
    },
    "properties": {
    "序號":64,
    "行政區":"中山區",
    "機構名稱":"山陵路聆心理治療所",
    "地址":"臺北市中山區民生東路1段42號7樓"
    }
  },
  {
    "type": "Feature",
    "geometry": {
       "type": "Point",
       "coordinates":  [ 121.532907207279,25.057535886326 ]
    },
    "properties": {
    "序號":65,
    "行政區":"中山區",
    "機構名稱":"蘊寬心理諮商所",
    "地址":"臺北市中山區松江路206號9樓之1"
    }
  },
  {
    "type": "Feature",
    "geometry": {
       "type": "Point",
       "coordinates":  [ 121.553182025232,25.082102993076 ]
    },
    "properties": {
    "序號":66,
    "行政區":"中山區",
    "機構名稱":"幼思心理治療所",
    "地址":"臺北市中山區敬業二路69巷55號2樓"
    }
  },
  {
    "type": "Feature",
    "geometry": {
       "type": "Point",
       "coordinates":  [ 121.529934984413,25.051252979343 ]
    },
    "properties": {
    "序號":67,
    "行政區":"中山區",
    "機構名稱":"初色心理治療所",
    "地址":"臺北市中山區吉林路24號10樓、10樓之1"
    }
  },
  {
    "type": "Feature",
    "geometry": {
       "type": "Point",
       "coordinates":  [ 121.52095897194,25.061151001165 ]
    },
    "properties": {
    "序號":68,
    "行政區":"中山區",
    "機構名稱":"天光心理諮商所",
    "地址":"臺北市中山區天祥路22號2樓"
    }
  },
  {
    "type": "Feature",
    "geometry": {
       "type": "Point",
       "coordinates":  [ 121.543687005315,25.055723006397 ]
    },
    "properties": {
    "序號":69,
    "行政區":"中山區",
    "機構名稱":"2042心理諮商所",
    "地址":"臺北市中山區復興北路204號2樓"
    }
  },
  {
    "type": "Feature",
    "geometry": {
       "type": "Point",
       "coordinates":  [ 121.543773003641,25.050089990278 ]
    },
    "properties": {
    "序號":70,
    "行政區":"中山區",
    "機構名稱":"伴旅馥心心理治療所",
    "地址":"臺北市中山區復興北路58號7樓"
    }
  },
  {
    "type": "Feature",
    "geometry": {
       "type": "Point",
       "coordinates":  [ 121.545347963248,25.081206003707 ]
    },
    "properties": {
    "序號":71,
    "行政區":"中山區",
    "機構名稱":"張老師基金會台北心理諮商所",
    "地址":"臺北市中山區大直街20巷16號"
    }
  },
  {
    "type": "Feature",
    "geometry": {
       "type": "Point",
       "coordinates":  [ 121.523122005874,25.059617992984 ]
    },
    "properties": {
    "序號":72,
    "行政區":"中山區",
    "機構名稱":"元思心理諮商所",
    "地址":"臺北市中山區中山北路2段99號3樓之1"
    }
  },
  {
    "type": "Feature",
    "geometry": {
       "type": "Point",
       "coordinates":  [ 121.530731013758,25.058122996734 ]
    },
    "properties": {
    "序號":73,
    "行政區":"中山區",
    "機構名稱":"謐鏡心理諮商所",
    "地址":"臺北市中山區民生東路2段83號3樓之47"
    }
  },
  {
    "type": "Feature",
    "geometry": {
       "type": "Point",
       "coordinates":  [ 121.531152958763,25.051748014545 ]
    },
    "properties": {
    "序號":74,
    "行政區":"中山區",
    "機構名稱":"Enteroom心理諮商所",
    "地址":"臺北市中山區南京東路2段90號20樓之3"
    }
  },
  {
    "type": "Feature",
    "geometry": {
       "type": "Point",
       "coordinates":  [ 121.519486020095,25.046081009808 ]
    },
    "properties": {
    "序號":75,
    "行政區":"中正區",
    "機構名稱":"冬青心理治療所",
    "地址":"臺北市中正區中山北路1段2號6樓之6"
    }
  },
  {
    "type": "Feature",
    "geometry": {
       "type": "Point",
       "coordinates":  [ 121.523847040499,25.024807991006 ]
    },
    "properties": {
    "序號":76,
    "行政區":"中正區",
    "機構名稱":"暖心全人諮商中心心理諮商所",
    "地址":"臺北市中正區羅斯福路2段198號6樓之5"
    }
  },
  {
    "type": "Feature",
    "geometry": {
       "type": "Point",
       "coordinates":  [ 121.510808990109,25.042330988237 ]
    },
    "properties": {
    "序號":77,
    "行政區":"中正區",
    "機構名稱":"初衷心理諮商所",
    "地址":"臺北市中正區衡陽路85號4樓之5"
    }
  },
  {
    "type": "Feature",
    "geometry": {
       "type": "Point",
       "coordinates":  [ 121.523228958958,25.021505018241 ]
    },
    "properties": {
    "序號":78,
    "行政區":"中正區",
    "機構名稱":"心晨心理諮商所",
    "地址":"臺北市中正區金門街15號3樓"
    }
  },
  {
    "type": "Feature",
    "geometry": {
       "type": "Point",
       "coordinates":  [ 121.524321959132,25.024036981642 ]
    },
    "properties": {
    "序號":79,
    "行政區":"中正區",
    "機構名稱":"心曦心理諮商所",
    "地址":"臺北市中正區南昌路2段206號7樓"
    }
  },
  {
    "type": "Feature",
    "geometry": {
       "type": "Point",
       "coordinates":  [ 121.515846597737,25.03000690836 ]
    },
    "properties": {
    "序號":80,
    "行政區":"中正區",
    "機構名稱":"點晴心理諮商所",
    "地址":"臺北市中正區寧波西街87號7樓之2"
    }
  },
  {
    "type": "Feature",
    "geometry": {
       "type": "Point",
       "coordinates":  [ 121.515826984083,25.04622798648 ]
    },
    "properties": {
    "序號":81,
    "行政區":"中正區",
    "機構名稱":"小隱心理諮商所",
    "地址":"臺北市中正區忠孝西路一段50號18F之14"
    }
  },
  {
    "type": "Feature",
    "geometry": {
       "type": "Point",
       "coordinates":  [ 121.518411041013,25.04616998371 ]
    },
    "properties": {
    "序號":82,
    "行政區":"中正區",
    "機構名稱":"璞願心理諮商所",
    "地址":"臺北市中正區忠孝西路一段41號10樓之17"
    }
  },
  {
    "type": "Feature",
    "geometry": {
       "type": "Point",
       "coordinates":  [ 121.515826984083,25.04622798648 ]
    },
    "properties": {
    "序號":83,
    "行政區":"中正區",
    "機構名稱":"沐昂心理諮商所",
    "地址":"臺北市中正區忠孝西路一段50號17樓之13"
    }
  },
  {
    "type": "Feature",
    "geometry": {
       "type": "Point",
       "coordinates":  [ 121.511329003382,25.044675993288 ]
    },
    "properties": {
    "序號":84,
    "行政區":"中正區",
    "機構名稱":"擁抱心理博愛館心理諮商所",
    "地址":"臺北市中正區博愛路76號10樓之2"
    }
  },
  {
    "type": "Feature",
    "geometry": {
       "type": "Point",
       "coordinates":  [ 121.520844978057,25.028799998122 ]
    },
    "properties": {
    "序號":85,
    "行政區":"中正區",
    "機構名稱":"盛開兒青心理治療所",
    "地址":"臺北市中正區羅斯福路二段10號5樓"
    }
  },
  {
    "type": "Feature",
    "geometry": {
       "type": "Point",
       "coordinates":  [ 121.521195006334,25.027033009113 ]
    },
    "properties": {
    "序號":86,
    "行政區":"中正區",
    "機構名稱":"好窩心理諮商所",
    "地址":"臺北市中正區和平西路一段17號3樓"
    }
  },
  {
    "type": "Feature",
    "geometry": {
       "type": "Point",
       "coordinates":  [ 121.523840083519,25.024232615262 ]
    },
    "properties": {
    "序號":87,
    "行政區":"中正區",
    "機構名稱":"暖心泉恩心理諮商所",
    "地址":"臺北市中正區南昌路2段192號8樓之2"
    }
  },
  {
    "type": "Feature",
    "geometry": {
       "type": "Point",
       "coordinates":  [ 121.515826984083,25.04622798648 ]
    },
    "properties": {
    "序號":88,
    "行政區":"中正區",
    "機構名稱":"可言心理諮商所",
    "地址":"臺北市中正區忠孝西路1段50號13樓"
    }
  },
  {
    "type": "Feature",
    "geometry": {
       "type": "Point",
       "coordinates":  [ 121.524728984351,25.045965004268 ]
    },
    "properties": {
    "序號":89,
    "行政區":"中正區",
    "機構名稱":"彩虹樹心理諮商所",
    "地址":"臺北市中正區北平東路20號3樓"
    }
  },
  {
    "type": "Feature",
    "geometry": {
       "type": "Point",
       "coordinates":  [ 121.52203504067,25.027234007151 ]
    },
    "properties": {
    "序號":90,
    "行政區":"中正區",
    "機構名稱":"吉兒心理治療所",
    "地址":"臺北市中正區羅斯福路2段70號9樓"
    }
  },
  {
    "type": "Feature",
    "geometry": {
       "type": "Point",
       "coordinates":  [ 121.521663973816,25.027737005161 ]
    },
    "properties": {
    "序號":91,
    "行政區":"中正區",
    "機構名稱":"昕心理諮商所",
    "地址":"臺北市中正區羅斯福路2段56號7樓"
    }
  },
  {
    "type": "Feature",
    "geometry": {
       "type": "Point",
       "coordinates":  [ 121.531407014249,25.033861997087 ]
    },
    "properties": {
    "序號":92,
    "行政區":"中正區",
    "機構名稱":"時醞心理諮商所",
    "地址":"臺北市中正區信義路2段251號7樓之1"
    }
  },
  {
    "type": "Feature",
    "geometry": {
       "type": "Point",
       "coordinates":  [ 121.513329009299,25.04218698714 ]
    },
    "properties": {
    "序號":93,
    "行政區":"中正區",
    "機構名稱":"諦聽心理諮商所",
    "地址":"臺北市中正區重慶南路1段121號7樓之6"
    }
  },
  {
    "type": "Feature",
    "geometry": {
       "type": "Point",
       "coordinates":  [ 121.511050975654,25.045237999896 ]
    },
    "properties": {
    "序號":94,
    "行政區":"中正區",
    "機構名稱":"沁芳心理治療所",
    "地址":"臺北市中正區漢口街1段85號6樓之9"
    }
  },
  {
    "type": "Feature",
    "geometry": {
       "type": "Point",
       "coordinates":  [ 121.527257972177,25.036125991045 ]
    },
    "properties": {
    "序號":95,
    "行政區":"中正區",
    "機構名稱":"開心心理諮商所",
    "地址":"臺北市中正區杭州南路1段131巷35-1號"
    }
  },
  {
    "type": "Feature",
    "geometry": {
       "type": "Point",
       "coordinates":  [ 121.534289969846,25.014515013906 ]
    },
    "properties": {
    "序號":96,
    "行政區":"中正區",
    "機構名稱":"安然心理諮商所",
    "地址":"臺北市中正區羅斯福路4段68號8樓之10"
    }
  },
  {
    "type": "Feature",
    "geometry": {
       "type": "Point",
       "coordinates":  [ 121.530471007121,25.042762991527 ]
    },
    "properties": {
    "序號":97,
    "行政區":"中正區",
    "機構名稱":"捷思心理治療所",
    "地址":"臺北市中正區忠孝東路2段100號5樓之7"
    }
  },
  {
    "type": "Feature",
    "geometry": {
       "type": "Point",
       "coordinates":  [ 121.513371002634,25.043040013426 ]
    },
    "properties": {
    "序號":98,
    "行政區":"中正區",
    "機構名稱":"蘅芯心理諮商所",
    "地址":"臺北市中正區重慶南路1段99號11樓之6"
    }
  },
  {
    "type": "Feature",
    "geometry": {
       "type": "Point",
       "coordinates":  [ 121.591655966636,25.081711013374 ]
    },
    "properties": {
    "序號":99,
    "行政區":"內湖區",
    "機構名稱":"擁抱心理諮商所",
    "地址":"臺北市內湖區成功路四段32號4樓"
    }
  },
  {
    "type": "Feature",
    "geometry": {
       "type": "Point",
       "coordinates":  [ 121.575261969853,25.083029989657 ]
    },
    "properties": {
    "序號":100,
    "行政區":"內湖區",
    "機構名稱":"詠安心理諮商所",
    "地址":"臺北市內湖區港華街57號"
    }
  },
  {
    "type": "Feature",
    "geometry": {
       "type": "Point",
       "coordinates":  [ 121.574856034282,25.075866018923 ]
    },
    "properties": {
    "序號":101,
    "行政區":"內湖區",
    "機構名稱":"易思腦心理治療所",
    "地址":"臺北市內湖區港墘路187號10樓"
    }
  },
  {
    "type": "Feature",
    "geometry": {
       "type": "Point",
       "coordinates":  [ 121.608273005862,25.071022997178 ]
    },
    "properties": {
    "序號":102,
    "行政區":"內湖區",
    "機構名稱":"好好玩心理治療所",
    "地址":"臺北市內湖區康寧路三段16巷78號1樓"
    }
  },
  {
    "type": "Feature",
    "geometry": {
       "type": "Point",
       "coordinates":  [ 121.573720034945,25.080790009853 ]
    },
    "properties": {
    "序號":103,
    "行政區":"內湖區",
    "機構名稱":"如初薩提爾心理諮商所",
    "地址":"臺北市內湖區內湖路一段607號2樓"
    }
  },
  {
    "type": "Feature",
    "geometry": {
       "type": "Point",
       "coordinates":  [ 121.592196012657,25.082471000535 ]
    },
    "properties": {
    "序號":104,
    "行政區":"內湖區",
    "機構名稱":"沐云心理諮商所",
    "地址":"臺北市內湖區成功路四段30巷49號2樓"
    }
  },
  {
    "type": "Feature",
    "geometry": {
       "type": "Point",
       "coordinates":  [ 121.59279657602,25.083878405897 ]
    },
    "properties": {
    "序號":105,
    "行政區":"內湖區",
    "機構名稱":"擁抱心藝心理諮商所",
    "地址":"臺北市內湖區內湖路二段466號2樓"
    }
  },
  {
    "type": "Feature",
    "geometry": {
       "type": "Point",
       "coordinates":  [ 121.567804003864,25.080583982673 ]
    },
    "properties": {
    "序號":106,
    "行政區":"內湖區",
    "機構名稱":"財團法人中華民國兒童福利聯盟文教基金會附設心理諮商所",
    "地址":"臺北市內湖區瑞光路583巷21號7樓之4之5"
    }
  },
  {
    "type": "Feature",
    "geometry": {
       "type": "Point",
       "coordinates":  [ 121.61399097257,25.066492997607 ]
    },
    "properties": {
    "序號":107,
    "行政區":"內湖區",
    "機構名稱":"螺旋梯心理諮商所",
    "地址":"臺北市內湖區安康路261巷7號1樓"
    }
  },
  {
    "type": "Feature",
    "geometry": {
       "type": "Point",
       "coordinates":  [ 121.542729037601,24.990148989013 ]
    },
    "properties": {
    "序號":108,
    "行政區":"文山區",
    "機構名稱":"羅吉斯心理諮商所",
    "地址":"臺北市文山區景興路258號9樓"
    }
  },
  {
    "type": "Feature",
    "geometry": {
       "type": "Point",
       "coordinates":  [ 121.54686098059,24.996343005913 ]
    },
    "properties": {
    "序號":109,
    "行政區":"文山區",
    "機構名稱":"余老師心理治療所",
    "地址":"臺北市文山區景華街121巷4號2樓"
    }
  },
  {
    "type": "Feature",
    "geometry": {
       "type": "Point",
       "coordinates":  [ 121.559282961096,24.988578010811 ]
    },
    "properties": {
    "序號":110,
    "行政區":"文山區",
    "機構名稱":"利伯他茲心理諮商所",
    "地址":"臺北市文山區木柵路二段62號2樓"
    }
  },
  {
    "type": "Feature",
    "geometry": {
       "type": "Point",
       "coordinates":  [ 121.541351974728,24.994240992234 ]
    },
    "properties": {
    "序號":111,
    "行政區":"文山區",
    "機構名稱":"依懷心理諮商所",
    "地址":"臺北市文山區羅斯福路6段297號6樓"
    }
  },
  {
    "type": "Feature",
    "geometry": {
       "type": "Point",
       "coordinates":  [ 121.539374013217,25.000266993884 ]
    },
    "properties": {
    "序號":112,
    "行政區":"文山區",
    "機構名稱":"島語心理諮商所",
    "地址":"臺北市文山區羅斯福路6段10號4樓之2"
    }
  },
  {
    "type": "Feature",
    "geometry": {
       "type": "Point",
       "coordinates":  [ 121.540822992819,24.992299994916 ]
    },
    "properties": {
    "序號":113,
    "行政區":"文山區",
    "機構名稱":"拾月拾日心理治療所",
    "地址":"臺北市文山區羅斯福路6段391號2樓"
    }
  },
  {
    "type": "Feature",
    "geometry": {
       "type": "Point",
       "coordinates":  [ 121.538086971984,25.003843007145 ]
    },
    "properties": {
    "序號":114,
    "行政區":"文山區",
    "機構名稱":"微白心理諮商所",
    "地址":"臺北市文山區羅斯福路5段176巷3弄7號4樓"
    }
  },
  {
    "type": "Feature",
    "geometry": {
       "type": "Point",
       "coordinates":  [ 121.510998348958,25.113760476189 ]
    },
    "properties": {
    "序號":115,
    "行政區":"北投區",
    "機構名稱":"天母愛舒眠心理治療所",
    "地址":"臺北市北投區石牌路一段71巷3弄3號1樓"
    }
  },
  {
    "type": "Feature",
    "geometry": {
       "type": "Point",
       "coordinates":  [ 121.51800099831,25.109074993575 ]
    },
    "properties": {
    "序號":116,
    "行政區":"北投區",
    "機構名稱":"心不懶心理諮商所",
    "地址":"臺北市北投區西安街1段165巷9弄1號1樓、地下1樓"
    }
  },
  {
    "type": "Feature",
    "geometry": {
       "type": "Point",
       "coordinates":  [ 121.514095310066,25.118446561112 ]
    },
    "properties": {
    "序號":117,
    "行政區":"北投區",
    "機構名稱":"辰光心理治療所",
    "地址":"臺北市北投區立農街2段202巷2弄1號1樓、地下1樓"
    }
  },
  {
    "type": "Feature",
    "geometry": {
       "type": "Point",
       "coordinates":  [ 121.574987965438,25.049858985026 ]
    },
    "properties": {
    "序號":118,
    "行政區":"松山區",
    "機構名稱":"頭陀心理諮商所",
    "地址":"臺北市松山區八德路四段650號13樓之12"
    }
  },
  {
    "type": "Feature",
    "geometry": {
       "type": "Point",
       "coordinates":  [ 121.554460014009,25.044695020208 ]
    },
    "properties": {
    "序號":119,
    "行政區":"松山區",
    "機構名稱":"聊聊心理治療所",
    "地址":"臺北市松山區八德路3段106巷67號1樓"
    }
  },
  {
    "type": "Feature",
    "geometry": {
       "type": "Point",
       "coordinates":  [ 121.556706028784,25.051281980728 ]
    },
    "properties": {
    "序號":120,
    "行政區":"松山區",
    "機構名稱":"逸想心理諮商所",
    "地址":"臺北市松山區南京東路4段164號4樓之4"
    }
  },
  {
    "type": "Feature",
    "geometry": {
       "type": "Point",
       "coordinates":  [ 121.564395000024,25.058419003644 ]
    },
    "properties": {
    "序號":121,
    "行政區":"松山區",
    "機構名稱":"賦能心理治療所",
    "地址":"臺北市松山區民生東路5段202之3號1樓"
    }
  },
  {
    "type": "Feature",
    "geometry": {
       "type": "Point",
       "coordinates":  [ 121.55747942699,25.051358381776 ]
    },
    "properties": {
    "序號":122,
    "行政區":"松山區",
    "機構名稱":"山曉心理治療所",
    "地址":"臺北市松山區南京東路4段186號12樓之8"
    }
  },
  {
    "type": "Feature",
    "geometry": {
       "type": "Point",
       "coordinates":  [ 121.562671010179,25.051222008211 ]
    },
    "properties": {
    "序號":123,
    "行政區":"松山區",
    "機構名稱":"我們心理諮商所",
    "地址":"臺北市松山區南京東路五段154號9樓"
    }
  },
  {
    "type": "Feature",
    "geometry": {
       "type": "Point",
       "coordinates":  [ 121.554191038736,25.051842981508 ]
    },
    "properties": {
    "序號":124,
    "行政區":"松山區",
    "機構名稱":"耕云心理治療所",
    "地址":"臺北市松山區南京東路4段95號10樓"
    }
  },
  {
    "type": "Feature",
    "geometry": {
       "type": "Point",
       "coordinates":  [ 121.553461561703,25.051447104221 ]
    },
    "properties": {
    "序號":125,
    "行政區":"松山區",
    "機構名稱":"轉轉心理治療所",
    "地址":"臺北市松山區南京東路四段50號9樓之6"
    }
  },
  {
    "type": "Feature",
    "geometry": {
       "type": "Point",
       "coordinates":  [ 121.576085994754,25.049865019997 ]
    },
    "properties": {
    "序號":126,
    "行政區":"松山區",
    "機構名稱":"愛牽手心理諮商所",
    "地址":"臺北市松山區八德路4段666號6樓之1"
    }
  },
  {
    "type": "Feature",
    "geometry": {
       "type": "Point",
       "coordinates":  [ 121.553078005814,25.04605402008 ]
    },
    "properties": {
    "序號":127,
    "行政區":"松山區",
    "機構名稱":"劉玉文心理諮商所",
    "地址":"臺北市松山區延吉街30巷7號3樓"
    }
  },
  {
    "type": "Feature",
    "geometry": {
       "type": "Point",
       "coordinates":  [ 121.558055012281,25.059866013499 ]
    },
    "properties": {
    "序號":128,
    "行政區":"松山區",
    "機構名稱":"象家園心理諮商所",
    "地址":"臺北市松山區民生東路5段69巷25號1樓"
    }
  },
  {
    "type": "Feature",
    "geometry": {
       "type": "Point",
       "coordinates":  [ 121.544321766842,25.054746514677 ]
    },
    "properties": {
    "序號":129,
    "行政區":"松山區",
    "機構名稱":"財團法人加惠文教基金會附設心理諮商所",
    "地址":"臺北市松山區復興北路181號7樓之5"
    }
  },
  {
    "type": "Feature",
    "geometry": {
       "type": "Point",
       "coordinates":  [ 121.557705822195,25.050433983584 ]
    },
    "properties": {
    "序號":130,
    "行政區":"松山區",
    "機構名稱":"之間心理治療所",
    "地址":"臺北市松山區光復北路98號9樓之1"
    }
  },
  {
    "type": "Feature",
    "geometry": {
       "type": "Point",
       "coordinates":  [ 121.568073984966,25.056428008273 ]
    },
    "properties": {
    "序號":131,
    "行政區":"松山區",
    "機構名稱":"覓汨心理治療所",
    "地址":"臺北市松山區健康路325巷24弄8號"
    }
  },
  {
    "type": "Feature",
    "geometry": {
       "type": "Point",
       "coordinates":  [ 121.578029003729,25.040442000628 ]
    },
    "properties": {
    "序號":132,
    "行政區":"信義區",
    "機構名稱":"豁然心理治療所",
    "地址":"臺北市信義區松山路421號8樓之3"
    }
  },
  {
    "type": "Feature",
    "geometry": {
       "type": "Point",
       "coordinates":  [ 121.559646987151,25.027949989321 ]
    },
    "properties": {
    "序號":133,
    "行政區":"信義區",
    "機構名稱":"共渡心理諮商所",
    "地址":"臺北市信義區吳興街156巷33弄22號1樓"
    }
  },
  {
    "type": "Feature",
    "geometry": {
       "type": "Point",
       "coordinates":  [ 121.565585984646,25.042501979062 ]
    },
    "properties": {
    "序號":134,
    "行政區":"信義區",
    "機構名稱":"荳點心理諮商所",
    "地址":"臺北市信義區基隆路1段149號12樓之2"
    }
  },
  {
    "type": "Feature",
    "geometry": {
       "type": "Point",
       "coordinates":  [ 121.578015005951,25.038051020837 ]
    },
    "properties": {
    "序號":135,
    "行政區":"信義區",
    "機構名稱":"清芷心理諮商所",
    "地址":"臺北市信義區松山路518之1號1樓"
    }
  },
  {
    "type": "Feature",
    "geometry": {
       "type": "Point",
       "coordinates":  [ 121.59363803528,25.051885980671 ]
    },
    "properties": {
    "序號":136,
    "行政區":"南港區",
    "機構名稱":"蛹之生心理諮商所",
    "地址":"臺北市南港區昆陽街85號1樓"
    }
  },
  {
    "type": "Feature",
    "geometry": {
       "type": "Point",
       "coordinates":  [ 121.61637160071,25.052304908192 ]
    },
    "properties": {
    "序號":137,
    "行政區":"南港區",
    "機構名稱":"華昕藝心心理諮商所",
    "地址":"臺北市南港區研究院路1段99號2樓103室"
    }
  },
  {
    "type": "Feature",
    "geometry": {
       "type": "Point",
       "coordinates":  [ 121.503248010531,25.043506005334 ]
    },
    "properties": {
    "序號":138,
    "行政區":"萬華區",
    "機構名稱":"大隱心理諮商所",
    "地址":"臺北市萬華區成都路139號7樓"
    }
  },
  {
    "type": "Feature",
    "geometry": {
       "type": "Point",
       "coordinates":  [ 121.50538195926,25.039347994625 ]
    },
    "properties": {
    "序號":139,
    "行政區":"萬華區",
    "機構名稱":"哈米思心理諮商所",
    "地址":"臺北市萬華區柳州街6號4樓"
    }
  },
  {
    "type": "Feature",
    "geometry": {
       "type": "Point",
       "coordinates":  [ 121.506388039098,25.045867983739 ]
    },
    "properties": {
    "序號":140,
    "行政區":"萬華區",
    "機構名稱":"理馨西門?心理諮商所",
    "地址":"臺北市萬華區漢口街2段51號2樓"
    }
  }
]
}