{
   "type": "FeatureCollection",
   "features": [
  {
    "type": "Feature",
    "geometry": {
       "type": "Point",
       "coordinates":  [ 121.52149398882,25.104968992576 ]
    },
    "properties": {
    "序號":1,
    "行政區":"士林區",
    "機構名稱":"芯語心理治療所",
    "地址":"臺北市士林區德行西路93巷2弄9號"
    }
  },
  {
    "type": "Feature",
    "geometry": {
       "type": "Point",
       "coordinates":  [ 121.521560960227,25.104511005387 ]
    },
    "properties": {
    "序號":2,
    "行政區":"士林區",
    "機構名稱":"思塾心理諮商所",
    "地址":"臺北市士林區德行西路87號2F"
    }
  },
  {
    "type": "Feature",
    "geometry": {
       "type": "Point",
       "coordinates":  [ 121.523199035564,25.102744980297 ]
    },
    "properties": {
    "序號":3,
    "行政區":"士林區",
    "機構名稱":"用心說心理治療所",
    "地址":"臺北市士林區福國路56巷17號1樓"
    }
  },
  {
    "type": "Feature",
    "geometry": {
       "type": "Point",
       "coordinates":  [ 121.527841017362,25.094072979453 ]
    },
    "properties": {
    "序號":4,
    "行政區":"士林區",
    "機構名稱":"展立心理治療所",
    "地址":"臺北市士林區中山北路5段527號3樓"
    }
  },
  {
    "type": "Feature",
    "geometry": {
       "type": "Point",
       "coordinates":  [ 121.526767966117,25.093994985844 ]
    },
    "properties": {
    "序號":5,
    "行政區":"士林區",
    "機構名稱":"潛意心理諮商所",
    "地址":"臺北市士林區中正路213巷44號2樓"
    }
  },
  {
    "type": "Feature",
    "geometry": {
       "type": "Point",
       "coordinates":  [ 121.531079030377,25.122995993645 ]
    },
    "properties": {
    "序號":6,
    "行政區":"士林區",
    "機構名稱":"我的心理諮商所",
    "地址":"臺北市士林區中山北路7段141巷5號4樓"
    }
  },
  {
    "type": "Feature",
    "geometry": {
       "type": "Point",
       "coordinates":  [ 121.532118973104,25.107410012329 ]
    },
    "properties": {
    "序號":7,
    "行政區":"士林區",
    "機構名稱":"沐昕天母心理治療所",
    "地址":"臺北市士林區德行東路190巷31弄6號"
    }
  },
  {
    "type": "Feature",
    "geometry": {
       "type": "Point",
       "coordinates":  [ 121.525000977109,25.097329013561 ]
    },
    "properties": {
    "序號":8,
    "行政區":"士林區",
    "機構名稱":"翎馨心理治療所",
    "地址":"臺北市士林區中正路236巷32號1、2樓"
    }
  },
  {
    "type": "Feature",
    "geometry": {
       "type": "Point",
       "coordinates":  [ 121.518599969111,25.05584399917 ]
    },
    "properties": {
    "序號":9,
    "行政區":"大同區",
    "機構名稱":"宇聯心理治療所",
    "地址":"臺北市大同區承德路2段75巷5號1樓"
    }
  },
  {
    "type": "Feature",
    "geometry": {
       "type": "Point",
       "coordinates":  [ 121.519749966226,25.0529439864 ]
    },
    "properties": {
    "序號":10,
    "行政區":"大同區",
    "機構名稱":"人生設計心理諮商所",
    "地址":"臺北市大同區南京西路41號8樓之2"
    }
  },
  {
    "type": "Feature",
    "geometry": {
       "type": "Point",
       "coordinates":  [ 121.518002004138,25.072056988753 ]
    },
    "properties": {
    "序號":11,
    "行政區":"大同區",
    "機構名稱":"療寓心理諮商所",
    "地址":"臺北市大同區庫倫街37號3樓"
    }
  },
  {
    "type": "Feature",
    "geometry": {
       "type": "Point",
       "coordinates":  [ 121.516823005638,25.063786983985 ]
    },
    "properties": {
    "序號":12,
    "行政區":"大同區",
    "機構名稱":"北極星心理治療所",
    "地址":"臺北市大同區承德路3段8巷21號1樓"
    }
  },
  {
    "type": "Feature",
    "geometry": {
       "type": "Point",
       "coordinates":  [ 121.524145017156,25.025170005404 ]
    },
    "properties": {
    "序號":13,
    "行政區":"大安區",
    "機構名稱":"璞成心遇空間心理諮商所",
    "地址":"臺北市大安區羅斯福路2段93號24樓之1"
    }
  },
  {
    "type": "Feature",
    "geometry": {
       "type": "Point",
       "coordinates":  [ 121.555830958092,25.033598009047 ]
    },
    "properties": {
    "序號":14,
    "行政區":"大安區",
    "機構名稱":"格瑞思心理諮商所",
    "地址":"臺北市大安區信義路四段265巷21弄26號"
    }
  },
  {
    "type": "Feature",
    "geometry": {
       "type": "Point",
       "coordinates":  [ 121.534024012058,25.040761015863 ]
    },
    "properties": {
    "序號":15,
    "行政區":"大安區",
    "機構名稱":"拉第石心理諮商所",
    "地址":"臺北市大安區新生南路一段103巷9之1號1樓、9號6樓"
    }
  },
  {
    "type": "Feature",
    "geometry": {
       "type": "Point",
       "coordinates":  [ 121.53147700314,25.021133993296 ]
    },
    "properties": {
    "序號":16,
    "行政區":"大安區",
    "機構名稱":"心靈之美心理治療所",
    "地址":"臺北市大安區辛亥路一段84號2樓"
    }
  },
  {
    "type": "Feature",
    "geometry": {
       "type": "Point",
       "coordinates":  [ 121.535491012752,25.041725982466 ]
    },
    "properties": {
    "序號":17,
    "行政區":"大安區",
    "機構名稱":"中崙諮商中心心理諮商所",
    "地址":"臺北市大安區忠孝東路3段54號4樓之1"
    }
  },
  {
    "type": "Feature",
    "geometry": {
       "type": "Point",
       "coordinates":  [ 121.556792027111,25.038297993614 ]
    },
    "properties": {
    "序號":18,
    "行政區":"大安區",
    "機構名稱":"聯合心理諮商所",
    "地址":"臺北市大安區光復南路346巷23號4樓"
    }
  },
  {
    "type": "Feature",
    "geometry": {
       "type": "Point",
       "coordinates":  [ 121.548328987112,25.023578994453 ]
    },
    "properties": {
    "序號":19,
    "行政區":"大安區",
    "機構名稱":"天力亞太心理諮商所",
    "地址":"臺北市大安區敦化南路2段182號7樓"
    }
  },
  {
    "type": "Feature",
    "geometry": {
       "type": "Point",
       "coordinates":  [ 121.532040015576,25.026107982279 ]
    },
    "properties": {
    "序號":20,
    "行政區":"大安區",
    "機構名稱":"淨開心心理治療所",
    "地址":"臺北市大安區和平東路1段218號5樓之1"
    }
  },
  {
    "type": "Feature",
    "geometry": {
       "type": "Point",
       "coordinates":  [ 121.545377970461,25.032979005497 ]
    },
    "properties": {
    "序號":21,
    "行政區":"大安區",
    "機構名稱":"福樂心理治療所",
    "地址":"臺北市大安區信義路4段58號12樓之3"
    }
  },
  {
    "type": "Feature",
    "geometry": {
       "type": "Point",
       "coordinates":  [ 121.545749959324,25.026459016384 ]
    },
    "properties": {
    "序號":22,
    "行政區":"大安區",
    "機構名稱":"盼心理諮商所",
    "地址":"臺北市大安區四維路198巷38弄11號3樓"
    }
  },
  {
    "type": "Feature",
    "geometry": {
       "type": "Point",
       "coordinates":  [ 121.54351601449,25.041868013815 ]
    },
    "properties": {
    "序號":23,
    "行政區":"大安區",
    "機構名稱":"看見心理諮商所",
    "地址":"臺北市大安區忠孝東路3段305號5樓之2"
    }
  },
  {
    "type": "Feature",
    "geometry": {
       "type": "Point",
       "coordinates":  [ 121.543768980328,25.028695014784 ]
    },
    "properties": {
    "序號":24,
    "行政區":"大安區",
    "機構名稱":"力人心理治療所",
    "地址":"臺北市大安區復興南路2段139號10樓"
    }
  },
  {
    "type": "Feature",
    "geometry": {
       "type": "Point",
       "coordinates":  [ 121.532790028273,25.028530980939 ]
    },
    "properties": {
    "序號":25,
    "行政區":"大安區",
    "機構名稱":"國立臺灣師範大學社區諮商中心心田心理諮商所",
    "地址":"臺北市大安區青田街5巷16號"
    }
  },
  {
    "type": "Feature",
    "geometry": {
       "type": "Point",
       "coordinates":  [ 121.544150021646,25.036184999643 ]
    },
    "properties": {
    "序號":26,
    "行政區":"大安區",
    "機構名稱":"啟宗心理諮商所",
    "地址":"臺北市大安區東豐街7號5樓之2"
    }
  },
  {
    "type": "Feature",
    "geometry": {
       "type": "Point",
       "coordinates":  [ 121.538960031019,25.025237982639 ]
    },
    "properties": {
    "序號":27,
    "行政區":"大安區",
    "機構名稱":"愛心理諮商所",
    "地址":"臺北市大安區和平東路二段66號6樓之1"
    }
  },
  {
    "type": "Feature",
    "geometry": {
       "type": "Point",
       "coordinates":  [ 121.538304482372,25.033280502555 ]
    },
    "properties": {
    "序號":28,
    "行政區":"大安區",
    "機構名稱":"心園心理治療所",
    "地址":"臺北市大安區信義路三段106號8樓之6"
    }
  },
  {
    "type": "Feature",
    "geometry": {
       "type": "Point",
       "coordinates":  [ 121.54351601449,25.041868013815 ]
    },
    "properties": {
    "序號":29,
    "行政區":"大安區",
    "機構名稱":"看見心理忠孝心理諮商所",
    "地址":"臺北市大安區忠孝東路三段305號5樓"
    }
  },
  {
    "type": "Feature",
    "geometry": {
       "type": "Point",
       "coordinates":  [ 121.543324320364,25.033181302731 ]
    },
    "properties": {
    "序號":30,
    "行政區":"大安區",
    "機構名稱":"毛蟲藝術心理諮商所",
    "地址":"臺北市大安區信義路3段202號6樓之1"
    }
  },
  {
    "type": "Feature",
    "geometry": {
       "type": "Point",
       "coordinates":  [ 121.542871027041,25.033178997707 ]
    },
    "properties": {
    "序號":31,
    "行政區":"大安區",
    "機構名稱":"童伴心理治療所",
    "地址":"臺北市大安區信義路3段190號6樓"
    }
  },
  {
    "type": "Feature",
    "geometry": {
       "type": "Point",
       "coordinates":  [ 121.525846962596,25.023044019483 ]
    },
    "properties": {
    "序號":32,
    "行政區":"大安區",
    "機構名稱":"心寓心理諮商所",
    "地址":"臺北市大安區羅斯福路3段61號2樓"
    }
  },
  {
    "type": "Feature",
    "geometry": {
       "type": "Point",
       "coordinates":  [ 121.544711022426,25.024604981311 ]
    },
    "properties": {
    "序號":33,
    "行政區":"大安區",
    "機構名稱":"國立臺北教育大學心理諮商暨健康促進研究中心芳蘭心理諮商所",
    "地址":"臺北市大安區和平東路2段134之18號"
    }
  },
  {
    "type": "Feature",
    "geometry": {
       "type": "Point",
       "coordinates":  [ 121.530758003486,25.033436992687 ]
    },
    "properties": {
    "序號":34,
    "行政區":"大安區",
    "機構名稱":"昕岸心理諮商所",
    "地址":"臺北市大安區信義路2段208號8樓"
    }
  },
  {
    "type": "Feature",
    "geometry": {
       "type": "Point",
       "coordinates":  [ 121.557386974598,25.04163902022 ]
    },
    "properties": {
    "序號":35,
    "行政區":"大安區",
    "機構名稱":"微光心理諮商所",
    "地址":"臺北市大安區忠孝東路4段341號10樓之3"
    }
  },
  {
    "type": "Feature",
    "geometry": {
       "type": "Point",
       "coordinates":  [ 121.535745990246,25.036583014315 ]
    },
    "properties": {
    "序號":36,
    "行政區":"大安區",
    "機構名稱":"竹心理諮商所",
    "地址":"臺北市大安區建國南路1段270巷29號1樓"
    }
  },
  {
    "type": "Feature",
    "geometry": {
       "type": "Point",
       "coordinates":  [ 121.549185030884,25.032825993855 ]
    },
    "properties": {
    "序號":37,
    "行政區":"大安區",
    "機構名稱":"芳嚮心理諮商所",
    "地址":"臺北市大安區敦化南路2段5號9樓之2"
    }
  },
  {
    "type": "Feature",
    "geometry": {
       "type": "Point",
       "coordinates":  [ 121.550029004714,25.033420019333 ]
    },
    "properties": {
    "序號":38,
    "行政區":"大安區",
    "機構名稱":"初和心理諮商所",
    "地址":"臺北市大安區信義路4段155號8樓"
    }
  },
  {
    "type": "Feature",
    "geometry": {
       "type": "Point",
       "coordinates":  [ 121.53779301864,25.041502898113 ]
    },
    "properties": {
    "序號":39,
    "行政區":"大安區",
    "機構名稱":"伴旅心理治療所",
    "地址":"臺北市大安區忠孝東路三段136號7樓之3"
    }
  },
  {
    "type": "Feature",
    "geometry": {
       "type": "Point",
       "coordinates":  [ 121.544150021646,25.036184999643 ]
    },
    "properties": {
    "序號":40,
    "行政區":"大安區",
    "機構名稱":"格桑美度心理諮商所",
    "地址":"臺北市大安區東豐街7號14樓"
    }
  },
  {
    "type": "Feature",
    "geometry": {
       "type": "Point",
       "coordinates":  [ 121.542871027041,25.033178997707 ]
    },
    "properties": {
    "序號":41,
    "行政區":"大安區",
    "機構名稱":"同伴心理諮商所",
    "地址":"臺北市大安區信義路3段190號10樓"
    }
  },
  {
    "type": "Feature",
    "geometry": {
       "type": "Point",
       "coordinates":  [ 121.543241004247,25.027439992422 ]
    },
    "properties": {
    "序號":42,
    "行政區":"大安區",
    "機構名稱":"歸心心理諮商所",
    "地址":"臺北市大安區復興南路二段178號3樓"
    }
  },
  {
    "type": "Feature",
    "geometry": {
       "type": "Point",
       "coordinates":  [ 121.550970962993,25.033614982401 ]
    },
    "properties": {
    "序號":43,
    "行政區":"大安區",
    "機構名稱":"綻芯安和心理諮商所",
    "地址":"臺北市大安區信義路四段187號7樓"
    }
  },
  {
    "type": "Feature",
    "geometry": {
       "type": "Point",
       "coordinates":  [ 121.550901812292,25.041689311639 ]
    },
    "properties": {
    "序號":44,
    "行政區":"大安區",
    "機構名稱":"立翎心理諮商所",
    "地址":"臺北市大安區忠孝東路4段183號3樓之6"
    }
  },
  {
    "type": "Feature",
    "geometry": {
       "type": "Point",
       "coordinates":  [ 121.548330998769,25.023698017478 ]
    },
    "properties": {
    "序號":45,
    "行政區":"大安區",
    "機構名稱":"邁愷爾心理治療所",
    "地址":"臺北市大安區敦化南路2段180號14樓之1"
    }
  },
  {
    "type": "Feature",
    "geometry": {
       "type": "Point",
       "coordinates":  [ 121.549194334796,25.031196300421 ]
    },
    "properties": {
    "序號":46,
    "行政區":"大安區",
    "機構名稱":"日好心理治療所",
    "地址":"臺北市大安區敦化南路2段59號7樓之1"
    }
  },
  {
    "type": "Feature",
    "geometry": {
       "type": "Point",
       "coordinates":  [ 121.54339917076,25.034134408941 ]
    },
    "properties": {
    "序號":47,
    "行政區":"大安區",
    "機構名稱":"特殊情緒心理諮商所",
    "地址":"臺北市大安區復興南路1段380號3樓"
    }
  },
  {
    "type": "Feature",
    "geometry": {
       "type": "Point",
       "coordinates":  [ 121.554035973528,25.033376014341 ]
    },
    "properties": {
    "序號":48,
    "行政區":"大安區",
    "機構名稱":"輕輕說心理諮商所",
    "地址":"臺北市大安區信義路4段263號11樓之5"
    }
  },
  {
    "type": "Feature",
    "geometry": {
       "type": "Point",
       "coordinates":  [ 121.546683032786,25.027352988267 ]
    },
    "properties": {
    "序號":49,
    "行政區":"大安區",
    "機構名稱":"沁心理諮商所",
    "地址":"臺北市大安區和平東路3段1巷56號2樓"
    }
  },
  {
    "type": "Feature",
    "geometry": {
       "type": "Point",
       "coordinates":  [ 121.545806369533,25.041792115682 ]
    },
    "properties": {
    "序號":50,
    "行政區":"大安區",
    "機構名稱":"晴韻心理諮商所",
    "地址":"臺北市大安區忠孝東路4段59號10樓之1"
    }
  },
  {
    "type": "Feature",
    "geometry": {
       "type": "Point",
       "coordinates":  [ 121.523792977223,25.053874000466 ]
    },
    "properties": {
    "序號":51,
    "行政區":"中山區",
    "機構名稱":"青蘊心理治療所",
    "地址":"臺北市中山區中山北路2段39巷10號5樓"
    }
  },
  {
    "type": "Feature",
    "geometry": {
       "type": "Point",
       "coordinates":  [ 121.522150040382,25.057702979565 ]
    },
    "properties": {
    "序號":52,
    "行政區":"中山區",
    "機構名稱":"馨培心理治療所",
    "地址":"臺北市中山區10448民生西路16號3樓之2"
    }
  },
  {
    "type": "Feature",
    "geometry": {
       "type": "Point",
       "coordinates":  [ 121.534973011136,25.051660004562 ]
    },
    "properties": {
    "序號":53,
    "行政區":"中山區",
    "機構名稱":"一二心理諮商所",
    "地址":"臺北市中山區南京東路2段176號11樓"
    }
  },
  {
    "type": "Feature",
    "geometry": {
       "type": "Point",
       "coordinates":  [ 121.543804016683,25.054244983501 ]
    },
    "properties": {
    "序號":54,
    "行政區":"中山區",
    "機構名稱":"愛的心理諮商所",
    "地址":"臺北市中山區復興北路178號4樓之9"
    }
  },
  {
    "type": "Feature",
    "geometry": {
       "type": "Point",
       "coordinates":  [ 121.542773629326,25.048380794492 ]
    },
    "properties": {
    "序號":55,
    "行政區":"中山區",
    "機構名稱":"亞和心理諮商所",
    "地址":"臺北市中山區長安東路2段189號7樓之8"
    }
  },
  {
    "type": "Feature",
    "geometry": {
       "type": "Point",
       "coordinates":  [ 121.546704993372,25.082249005829 ]
    },
    "properties": {
    "序號":56,
    "行政區":"中山區",
    "機構名稱":"晴風心理治療所",
    "地址":"臺北市中山區大直街33巷5號"
    }
  },
  {
    "type": "Feature",
    "geometry": {
       "type": "Point",
       "coordinates":  [ 121.543488018933,25.058629012228 ]
    },
    "properties": {
    "序號":57,
    "行政區":"中山區",
    "機構名稱":"綻芯心理諮商所",
    "地址":"臺北市中山區復興北路280巷2號3樓"
    }
  },
  {
    "type": "Feature",
    "geometry": {
       "type": "Point",
       "coordinates":  [ 121.530377967996,25.060923013399 ]
    },
    "properties": {
    "序號":58,
    "行政區":"中山區",
    "機構名稱":"以賽亞心理諮商所",
    "地址":"臺北市中山區吉林路231號3樓"
    }
  },
  {
    "type": "Feature",
    "geometry": {
       "type": "Point",
       "coordinates":  [ 121.553556025752,25.083454994058 ]
    },
    "properties": {
    "序號":59,
    "行政區":"中山區",
    "機構名稱":"蘇予昕心理諮商所",
    "地址":"臺北市中山區敬業一路128巷39號4F之2及3樓之1"
    }
  },
  {
    "type": "Feature",
    "geometry": {
       "type": "Point",
       "coordinates":  [ 121.522936011442,25.0520089851 ]
    },
    "properties": {
    "序號":60,
    "行政區":"中山區",
    "機構名稱":"知我心理治療所",
    "地址":"臺北市中山區南京東路一段2號11樓"
    }
  },
  {
    "type": "Feature",
    "geometry": {
       "type": "Point",
       "coordinates":  [ 121.524437126482,25.057928788037 ]
    },
    "properties": {
    "序號":61,
    "行政區":"中山區",
    "機構名稱":"舒心心理諮商所",
    "地址":"臺北市中山區民生東路1段42號11樓之2"
    }
  },
  {
    "type": "Feature",
    "geometry": {
       "type": "Point",
       "coordinates":  [ 121.533510620489,25.060435815277 ]
    },
    "properties": {
    "序號":62,
    "行政區":"中山區",
    "機構名稱":"點亮心燈諮商中心心理諮商所",
    "地址":"臺北市中山區松江路289-910號"
    }
  },
  {
    "type": "Feature",
    "geometry": {
       "type": "Point",
       "coordinates":  [ 121.522010984608,25.065367014643 ]
    },
    "properties": {
    "序號":63,
    "行政區":"中山區",
    "機構名稱":"向日葵心理諮商所",
    "地址":"臺北市中山區中山北路三段30號3樓之2"
    }
  },
  {
    "type": "Feature",
    "geometry": {
       "type": "Point",
       "coordinates":  [ 121.524437126482,25.057928788037 ]
    },
    "properties": {
    "序號":64,
    "行政區":"中山區",
    "機構名稱":"山陵路聆心理治療所",
    "地址":"臺北市中山區民生東路1段42號7樓"
    }
  },
  {
    "type": "Feature",
    "geometry": {
       "type": "Point",
       "coordinates":  [ 121.532907207279,25.057535886326 ]
    },
    "properties": {
    "序號":65,
    "行政區":"中山區",
    "機構名稱":"蘊寬心理諮商所",
    "地址":"臺北市中山區松江路206號9樓之1"
    }
  },
  {
    "type": "Feature",
    "geometry": {
       "type": "Point",
       "coordinates":  [ 121.553182025232,25.082102993076 ]
    },
    "properties": {
    "序號":66,
    "行政區":"中山區",
    "機構名稱":"幼思心理治療所",
    "地址":"臺北市中山區敬業二路69巷55號2樓"
    }
  },
  {
    "type": "Feature",
    "geometry": {
       "type": "Point",
       "coordinates":  [ 121.529934984413,25.051252979343 ]
    },
    "properties": {
    "序號":67,
    "行政區":"中山區",
    "機構名稱":"初色心理治療所",
    "地址":"臺北市中山區吉林路24號10樓、10樓之1"
    }
  },
  {
    "type": "Feature",
    "geometry": {
       "type": "Point",
       "coordinates":  [ 121.52095897194,25.061151001165 ]
    },
    "properties": {
    "序號":68,
    "行政區":"中山區",
    "機構名稱":"天光心理諮商所",
    "地址":"臺北市中山區天祥路22號2樓"
    }
  },
  {
    "type": "Feature",
    "geometry": {
       "type": "Point",
       "coordinates":  [ 121.543687005315,25.055723006397 ]
    },
    "properties": {
    "序號":69,
    "行政區":"中山區",
    "機構名稱":"2042心理諮商所",
    "地址":"臺北市中山區復興北路204號2樓"
    }
  },
  {
    "type": "Feature",
    "geometry": {
       "type": "Point",
       "coordinates":  [ 121.543773003641,25.050089990278 ]
    },
    "properties": {
    "序號":70,
    "行政區":"中山區",
    "機構名稱":"伴旅馥心心理治療所",
    "地址":"臺北市中山區復興北路58號7樓"
    }
  },
  {
    "type": "Feature",
    "geometry": {
       "type": "Point",
       "coordinates":  [ 121.545347963248,25.081206003707 ]
    },
    "properties": {
    "序號":71,
    "行政區":"中山區",
    "機構名稱":"張老師基金會台北心理諮商所",
    "地址":"臺北市中山區大直街20巷16號"
    }
  },
  {
    "type": "Feature",
    "geometry": {
       "type": "Point",
       "coordinates":  [ 121.523122005874,25.059617992984 ]
    },
    "properties": {
    "序號":72,
    "行政區":"中山區",
    "機構名稱":"元思心理諮商所",
    "地址":"臺北市中山區中山北路2段99號3樓之1"
    }
  },
  {
    "type": "Feature",
    "geometry": {
       "type": "Point",
       "coordinates":  [ 121.530731013758,25.058122996734 ]
    },
    "properties": {
    "序號":73,
    "行政區":"中山區",
    "機構名稱":"謐鏡心理諮商所",
    "地址":"臺北市中山區民生東路2段83號3樓之47"
    }
  },
  {
    "type": "Feature",
    "geometry": {
       "type": "Point",
       "coordinates":  [ 121.531152958763,25.051748014545 ]
    },
    "properties": {
    "序號":74,
    "行政區":"中山區",
    "機構名稱":"Enteroom心理諮商所",
    "地址":"臺北市中山區南京東路2段90號20樓之3"
    }
  },
  {
    "type": "Feature",
    "geometry": {
       "type": "Point",
       "coordinates":  [ 121.519486020095,25.046081009808 ]
    },
    "properties": {
    "序號":75,
    "行政區":"中正區",
    "機構名稱":"冬青心理治療所",
    "地址":"臺北市中正區中山北路1段2號6樓之6"
    }
  },
  {
    "type": "Feature",
    "geometry": {
       "type": "Point",
       "coordinates":  [ 121.523847040499,25.024807991006 ]
    },
    "properties": {
    "序號":76,
    "行政區":"中正區",
    "機構名稱":"暖心全人諮商中心心理諮商所",
    "地址":"臺北市中正區羅斯福路2段198號6樓之5"
    }
  },
  {
    "type": "Feature",
    "geometry": {
       "type": "Point",
       "coordinates":  [ 121.510808990109,25.042330988237 ]
    },
    "properties": {
    "序號":77,
    "行政區":"中正區",
    "機構名稱":"初衷心理諮商所",
    "地址":"臺北市中正區衡陽路85號4樓之5"
    }
  },
  {
    "type": "Feature",
    "geometry": {
       "type": "Point",
       "coordinates":  [ 121.523228958958,25.021505018241 ]
    },
    "properties": {
    "序號":78,
    "行政區":"中正區",
    "機構名稱":"心晨心理諮商所",
    "地址":"臺北市中正區金門街15號3樓"
    }
  },
  {
    "type": "Feature",
    "geometry": {
       "type": "Point",
       "coordinates":  [ 121.524321959132,25.024036981642 ]
    },
    "properties": {
    "序號":79,
    "行政區":"中正區",
    "機構名稱":"心曦心理諮商所",
    "地址":"臺北市中正區南昌路2段206號7樓"
    }
  },
  {
    "type": "Feature",
    "geometry": {
       "type": "Point",
       "coordinates":  [ 121.515846597737,25.03000690836 ]
    },
    "properties": {
    "序號":80,
    "行政區":"中正區",
    "機構名稱":"點晴心理諮商所",
    "地址":"臺北市中正區寧波西街87號7樓之2"
    }
  },
  {
    "type": "Feature",
    "geometry": {
       "type": "Point",
       "coordinates":  [ 121.515826984083,25.04622798648 ]
    },
    "properties": {
    "序號":81,
    "行政區":"中正區",
    "機構名稱":"小隱心理諮商所",
    "地址":"臺北市中正區忠孝西路一段50號18F之14"
    }
  },
  {
    "type": "Feature",
    "geometry": {
       "type": "Point",
       "coordinates":  [ 121.518411041013,25.04616998371 ]
    },
    "properties": {
    "序號":82,
    "行政區":"中正區",
    "機構名稱":"璞願心理諮商所",
    "地址":"臺北市中正區忠孝西路一段41號10樓之17"
    }
  },
  {
    "type": "Feature",
    "geometry": {
       "type": "Point",
       "coordinates":  [ 121.515826984083,25.04622798648 ]
    },
    "properties": {
    "序號":83,
    "行政區":"中正區",
    "機構名稱":"沐昂心理諮商所",
    "地址":"臺北市中正區忠孝西路一段50號17樓之13"
    }
  },
  {
    "type": "Feature",
    "geometry": {
       "type": "Point",
       "coordinates":  [ 121.511329003382,25.044675993288 ]
    },
    "properties": {
    "序號":84,
    "行政區":"中正區",
    "機構名稱":"擁抱心理博愛館心理諮商所",
    "地址":"臺北市中正區博愛路76號10樓之2"
    }
  },
  {
    "type": "Feature",
    "geometry": {
       "type": "Point",
       "coordinates":  [ 121.520844978057,25.028799998122 ]
    },
    "properties": {
    "序號":85,
    "行政區":"中正區",
    "機構名稱":"盛開兒青心理治療所",
    "地址":"臺北市中正區羅斯福路二段10號5樓"
    }
  },
  {
    "type": "Feature",
    "geometry": {
       "type": "Point",
       "coordinates":  [ 121.521195006334,25.027033009113 ]
    },
    "properties": {
    "序號":86,
    "行政區":"中正區",
    "機構名稱":"好窩心理諮商所",
    "地址":"臺北市中正區和平西路一段17號3樓"
    }
  },
  {
    "type": "Feature",
    "geometry": {
       "type": "Point",
       "coordinates":  [ 121.523840083519,25.024232615262 ]
    },
    "properties": {
    "序號":87,
    "行政區":"中正區",
    "機構名稱":"暖心泉恩心理諮商所",
    "地址":"臺北市中正區南昌路2段192號8樓之2"
    }
  },
  {
    "type": "Feature",
    "geometry": {
       "type": "Point",
       "coordinates":  [ 121.515826984083,25.04622798648 ]
    },
    "properties": {
    "序號":88,
    "行政區":"中正區",
    "機構名稱":"可言心理諮商所",
    "地址":"臺北市中正區忠孝西路1段50號13樓"
    }
  },
  {
    "type": "Feature",
    "geometry": {
       "type": "Point",
       "coordinates":  [ 121.524728984351,25.045965004268 ]
    },
    "properties": {
    "序號":89,
    "行政區":"中正區",
    "機構名稱":"彩虹樹心理諮商所",
    "地址":"臺北市中正區北平東路20號3樓"
    }
  },
  {
    "type": "Feature",
    "geometry": {
       "type": "Point",
       "coordinates":  [ 121.52203504067,25.027234007151 ]
    },
    "properties": {
    "序號":90,
    "行政區":"中正區",
    "機構名稱":"吉兒心理治療所",
    "地址":"臺北市中正區羅斯福路2段70號9樓"
    }
  },
  {
    "type": "Feature",
    "geometry": {
       "type": "Point",
       "coordinates":  [ 121.521663973816,25.027737005161 ]
    },
    "properties": {
    "序號":91,
    "行政區":"中正區",
    "機構名稱":"昕心理諮商所",
    "地址":"臺北市中正區羅斯福路2段56號7樓"
    }
  },
  {
    "type": "Feature",
    "geometry": {
       "type": "Point",
       "coordinates":  [ 121.531407014249,25.033861997087 ]
    },
    "properties": {
    "序號":92,
    "行政區":"中正區",
    "機構名稱":"時醞心理諮商所",
    "地址":"臺北市中正區信義路2段251號7樓之1"
    }
  },
  {
    "type": "Feature",
    "geometry": {
       "type": "Point",
       "coordinates":  [ 121.513329009299,25.04218698714 ]
    },
    "properties": {
    "序號":93,
    "行政區":"中正區",
    "機構名稱":"諦聽心理諮商所",
    "地址":"臺北市中正區重慶南路1段121號7樓之6"
    }
  },
  {
    "type": "Feature",
    "geometry": {
       "type": "Point",
       "coordinates":  [ 121.511050975654,25.045237999896 ]
    },
    "properties": {
    "序號":94,
    "行政區":"中正區",
    "機構名稱":"沁芳心理治療所",
    "地址":"臺北市中正區漢口街1段85號6樓之9"
    }
  },
  {
    "type": "Feature",
    "geometry": {
       "type": "Point",
       "coordinates":  [ 121.527257972177,25.036125991045 ]
    },
    "properties": {
    "序號":95,
    "行政區":"中正區",
    "機構名稱":"開心心理諮商所",
    "地址":"臺北市中正區杭州南路1段131巷35-1號"
    }
  },
  {
    "type": "Feature",
    "geometry": {
       "type": "Point",
       "coordinates":  [ 121.534289969846,25.014515013906 ]
    },
    "properties": {
    "序號":96,
    "行政區":"中正區",
    "機構名稱":"安然心理諮商所",
    "地址":"臺北市中正區羅斯福路4段68號8樓之10"
    }
  },
  {
    "type": "Feature",
    "geometry": {
       "type": "Point",
       "coordinates":  [ 121.530471007121,25.042762991527 ]
    },
    "properties": {
    "序號":97,
    "行政區":"中正區",
    "機構名稱":"捷思心理治療所",
    "地址":"臺北市中正區忠孝東路2段100號5樓之7"
    }
  },
  {
    "type": "Feature",
    "geometry": {
       "type": "Point",
       "coordinates":  [ 121.513371002634,25.043040013426 ]
    },
    "properties": {
    "序號":98,
    "行政區":"中正區",
    "機構名稱":"蘅芯心理諮商所",
    "地址":"臺北市中正區重慶南路1段99號11樓之6"
    }
  },
  {
    "type": "Feature",
    "geometry": {
       "type": "Point",
       "coordinates":  [ 121.591655966636,25.081711013374 ]
    },
    "properties": {
    "序號":99,
    "行政區":"內湖區",
    "機構名稱":"擁抱心理諮商所",
    "地址":"臺北市內湖區成功路四段32號4樓"
    }
  },
  {
    "type": "Feature",
    "geometry": {
       "type": "Point",
       "coordinates":  [ 121.575261969853,25.083029989657 ]
    },
    "properties": {
    "序號":100,
    "行政區":"內湖區",
    "機構名稱":"詠安心理諮商所",
    "地址":"臺北市內湖區港華街57號"
    }
  },
  {
    "type": "Feature",
    "geometry": {
       "type": "Point",
       "coordinates":  [ 121.574856034282,25.075866018923 ]
    },
    "properties": {
    "序號":101,
    "行政區":"內湖區",
    "機構名稱":"易思腦心理治療所",
    "地址":"臺北市內湖區港墘路187號10樓"
    }
  },
  {
    "type": "Feature",
    "geometry": {
       "type": "Point",
       "coordinates":  [ 121.608273005862,25.071022997178 ]
    },
    "properties": {
    "序號":102,
    "行政區":"內湖區",
    "機構名稱":"好好玩心理治療所",
    "地址":"臺北市內湖區康寧路三段16巷78號1樓"
    }
  },
  {
    "type": "Feature",
    "geometry": {
       "type": "Point",
       "coordinates":  [ 121.573720034945,25.080790009853 ]
    },
    "properties": {
    "序號":103,
    "行政區":"內湖區",
    "機構名稱":"如初薩提爾心理諮商所",
    "地址":"臺北市內湖區內湖路一段607號2樓"
    }
  },
  {
    "type": "Feature",
    "geometry": {
       "type": "Point",
       "coordinates":  [ 121.592196012657,25.082471000535 ]
    },
    "properties": {
    "序號":104,
    "行政區":"內湖區",
    "機構名稱":"沐云心理諮商所",
    "地址":"臺北市內湖區成功路四段30巷49號2樓"
    }
  },
  {
    "type": "Feature",
    "geometry": {
       "type": "Point",
       "coordinates":  [ 121.59279657602,25.083878405897 ]
    },
    "properties": {
    "序號":105,
    "行政區":"內湖區",
    "機構名稱":"擁抱心藝心理諮商所",
    "地址":"臺北市內湖區內湖路二段466號2樓"
    }
  },
  {
    "type": "Feature",
    "geometry": {
       "type": "Point",
       "coordinates":  [ 121.567804003864,25.080583982673 ]
    },
    "properties": {
    "序號":106,
    "行政區":"內湖區",
    "機構名稱":"財團法人中華民國兒童福利聯盟文教基金會附設心理諮商所",
    "地址":"臺北市內湖區瑞光路583巷21號7樓之4之5"
    }
  },
  {
    "type": "Feature",
    "geometry": {
       "type": "Point",
       "coordinates":  [ 121.61399097257,25.066492997607 ]
    },
    "properties": {
    "序號":107,
    "行政區":"內湖區",
    "機構名稱":"螺旋梯心理諮商所",
    "地址":"臺北市內湖區安康路261巷7號1樓"
    }
  },
  {
    "type": "Feature",
    "geometry": {
       "type": "Point",
       "coordinates":  [ 121.542729037601,24.990148989013 ]
    },
    "properties": {
    "序號":108,
    "行政區":"文山區",
    "機構名稱":"羅吉斯心理諮商所",
    "地址":"臺北市文山區景興路258號9樓"
    }
  },
  {
    "type": "Feature",
    "geometry": {
       "type": "Point",
       "coordinates":  [ 121.54686098059,24.996343005913 ]
    },
    "properties": {
    "序號":109,
    "行政區":"文山區",
    "機構名稱":"余老師心理治療所",
    "地址":"臺北市文山區景華街121巷4號2樓"
    }
  },
  {
    "type": "Feature",
    "geometry": {
       "type": "Point",
       "coordinates":  [ 121.559282961096,24.988578010811 ]
    },
    "properties": {
    "序號":110,
    "行政區":"文山區",
    "機構名稱":"利伯他茲心理諮商所",
    "地址":"臺北市文山區木柵路二段62號2樓"
    }
  },
  {
    "type": "Feature",
    "geometry": {
       "type": "Point",
       "coordinates":  [ 121.541351974728,24.994240992234 ]
    },
    "properties": {
    "序號":111,
    "行政區":"文山區",
    "機構名稱":"依懷心理諮商所",
    "地址":"臺北市文山區羅斯福路6段297號6樓"
    }
  },
  {
    "type": "Feature",
    "geometry": {
       "type": "Point",
       "coordinates":  [ 121.539374013217,25.000266993884 ]
    },
    "properties": {
    "序號":112,
    "行政區":"文山區",
    "機構名稱":"島語心理諮商所",
    "地址":"臺北市文山區羅斯福路6段10號4樓之2"
    }
  },
  {
    "type": "Feature",
    "geometry": {
       "type": "Point",
       "coordinates":  [ 121.540822992819,24.992299994916 ]
    },
    "properties": {
    "序號":113,
    "行政區":"文山區",
    "機構名稱":"拾月拾日心理治療所",
    "地址":"臺北市文山區羅斯福路6段391號2樓"
    }
  },
  {
    "type": "Feature",
    "geometry": {
       "type": "Point",
       "coordinates":  [ 121.538086971984,25.003843007145 ]
    },
    "properties": {
    "序號":114,
    "行政區":"文山區",
    "機構名稱":"微白心理諮商所",
    "地址":"臺北市文山區羅斯福路5段176巷3弄7號4樓"
    }
  },
  {
    "type": "Feature",
    "geometry": {
       "type": "Point",
       "coordinates":  [ 121.510998348958,25.113760476189 ]
    },
    "properties": {
    "序號":115,
    "行政區":"北投區",
    "機構名稱":"天母愛舒眠心理治療所",
    "地址":"臺北市北投區石牌路一段71巷3弄3號1樓"
    }
  },
  {
    "type": "Feature",
    "geometry": {
       "type": "Point",
       "coordinates":  [ 121.51800099831,25.109074993575 ]
    },
    "properties": {
    "序號":116,
    "行政區":"北投區",
    "機構名稱":"心不懶心理諮商所",
    "地址":"臺北市北投區西安街1段165巷9弄1號1樓、地下1樓"
    }
  },
  {
    "type": "Feature",
    "geometry": {
       "type": "Point",
       "coordinates":  [ 121.514095310066,25.118446561112 ]
    },
    "properties": {
    "序號":117,
    "行政區":"北投區",
    "機構名稱":"辰光心理治療所",
    "地址":"臺北市北投區立農街2段202巷2弄1號1樓、地下1樓"
    }
  },
  {
    "type": "Feature",
    "geometry": {
       "type": "Point",
       "coordinates":  [ 121.574987965438,25.049858985026 ]
    },
    "properties": {
    "序號":118,
    "行政區":"松山區",
    "機構名稱":"頭陀心理諮商所",
    "地址":"臺北市松山區八德路四段650號13樓之12"
    }
  },
  {
    "type": "Feature",
    "geometry": {
       "type": "Point",
       "coordinates":  [ 121.554460014009,25.044695020208 ]
    },
    "properties": {
    "序號":119,
    "行政區":"松山區",
    "機構名稱":"聊聊心理治療所",
    "地址":"臺北市松山區八德路3段106巷67號1樓"
    }
  },
  {
    "type": "Feature",
    "geometry": {
       "type": "Point",
       "coordinates":  [ 121.556706028784,25.051281980728 ]
    },
    "properties": {
    "序號":120,
    "行政區":"松山區",
    "機構名稱":"逸想心理諮商所",
    "地址":"臺北市松山區南京東路4段164號4樓之4"
    }
  },
  {
    "type": "Feature",
    "geometry": {
       "type": "Point",
       "coordinates":  [ 121.564395000024,25.058419003644 ]
    },
    "properties": {
    "序號":121,
    "行政區":"松山區",
    "機構名稱":"賦能心理治療所",
    "地址":"臺北市松山區民生東路5段202之3號1樓"
    }
  },
  {
    "type": "Feature",
    "geometry": {
       "type": "Point",
       "coordinates":  [ 121.55747942699,25.051358381776 ]
    },
    "properties": {
    "序號":122,
    "行政區":"松山區",
    "機構名稱":"山曉心理治療所",
    "地址":"臺北市松山區南京東路4段186號12樓之8"
    }
  },
  {
    "type": "Feature",
    "geometry": {
       "type": "Point",
       "coordinates":  [ 121.562671010179,25.051222008211 ]
    },
    "properties": {
    "序號":123,
    "行政區":"松山區",
    "機構名稱":"我們心理諮商所",
    "地址":"臺北市松山區南京東路五段154號9樓"
    }
  },
  {
    "type": "Feature",
    "geometry": {
       "type": "Point",
       "coordinates":  [ 121.554191038736,25.051842981508 ]
    },
    "properties": {
    "序號":124,
    "行政區":"松山區",
    "機構名稱":"耕云心理治療所",
    "地址":"臺北市松山區南京東路4段95號10樓"
    }
  },
  {
    "type": "Feature",
    "geometry": {
       "type": "Point",
       "coordinates":  [ 121.553461561703,25.051447104221 ]
    },
    "properties": {
    "序號":125,
    "行政區":"松山區",
    "機構名稱":"轉轉心理治療所",
    "地址":"臺北市松山區南京東路四段50號9樓之6"
    }
  },
  {
    "type": "Feature",
    "geometry": {
       "type": "Point",
       "coordinates":  [ 121.576085994754,25.049865019997 ]
    },
    "properties": {
    "序號":126,
    "行政區":"松山區",
    "機構名稱":"愛牽手心理諮商所",
    "地址":"臺北市松山區八德路4段666號6樓之1"
    }
  },
  {
    "type": "Feature",
    "geometry": {
       "type": "Point",
       "coordinates":  [ 121.553078005814,25.04605402008 ]
    },
    "properties": {
    "序號":127,
    "行政區":"松山區",
    "機構名稱":"劉玉文心理諮商所",
    "地址":"臺北市松山區延吉街30巷7號3樓"
    }
  },
  {
    "type": "Feature",
    "geometry": {
       "type": "Point",
       "coordinates":  [ 121.558055012281,25.059866013499 ]
    },
    "properties": {
    "序號":128,
    "行政區":"松山區",
    "機構名稱":"象家園心理諮商所",
    "地址":"臺北市松山區民生東路5段69巷25號1樓"
    }
  },
  {
    "type": "Feature",
    "geometry": {
       "type": "Point",
       "coordinates":  [ 121.544321766842,25.054746514677 ]
    },
    "properties": {
    "序號":129,
    "行政區":"松山區",
    "機構名稱":"財團法人加惠文教基金會附設心理諮商所",
    "地址":"臺北市松山區復興北路181號7樓之5"
    }
  },
  {
    "type": "Feature",
    "geometry": {
       "type": "Point",
       "coordinates":  [ 121.557705822195,25.050433983584 ]
    },
    "properties": {
    "序號":130,
    "行政區":"松山區",
    "機構名稱":"之間心理治療所",
    "地址":"臺北市松山區光復北路98號9樓之1"
    }
  },
  {
    "type": "Feature",
    "geometry": {
       "type": "Point",
       "coordinates":  [ 121.568073984966,25.056428008273 ]
    },
    "properties": {
    "序號":131,
    "行政區":"松山區",
    "機構名稱":"覓汨心理治療所",
    "地址":"臺北市松山區健康路325巷24弄8號"
    }
  },
  {
    "type": "Feature",
    "geometry": {
       "type": "Point",
       "coordinates":  [ 121.578029003729,25.040442000628 ]
    },
    "properties": {
    "序號":132,
    "行政區":"信義區",
    "機構名稱":"豁然心理治療所",
    "地址":"臺北市信義區松山路421號8樓之3"
    }
  },
  {
    "type": "Feature",
    "geometry": {
       "type": "Point",
       "coordinates":  [ 121.559646987151,25.027949989321 ]
    },
    "properties": {
    "序號":133,
    "行政區":"信義區",
    "機構名稱":"共渡心理諮商所",
    "地址":"臺北市信義區吳興街156巷33弄22號1樓"
    }
  },
  {
    "type": "Feature",
    "geometry": {
       "type": "Point",
       "coordinates":  [ 121.565585984646,25.042501979062 ]
    },
    "properties": {
    "序號":134,
    "行政區":"信義區",
    "機構名稱":"荳點心理諮商所",
    "地址":"臺北市信義區基隆路1段149號12樓之2"
    }
  },
  {
    "type": "Feature",
    "geometry": {
       "type": "Point",
       "coordinates":  [ 121.578015005951,25.038051020837 ]
    },
    "properties": {
    "序號":135,
    "行政區":"信義區",
    "機構名稱":"清芷心理諮商所",
    "地址":"臺北市信義區松山路518之1號1樓"
    }
  },
  {
    "type": "Feature",
    "geometry": {
       "type": "Point",
       "coordinates":  [ 121.59363803528,25.051885980671 ]
    },
    "properties": {
    "序號":136,
    "行政區":"南港區",
    "機構名稱":"蛹之生心理諮商所",
    "地址":"臺北市南港區昆陽街85號1樓"
    }
  },
  {
    "type": "Feature",
    "geometry": {
       "type": "Point",
       "coordinates":  [ 121.61637160071,25.052304908192 ]
    },
    "properties": {
    "序號":137,
    "行政區":"南港區",
    "機構名稱":"華昕藝心心理諮商所",
    "地址":"臺北市南港區研究院路1段99號2樓103室"
    }
  },
  {
    "type": "Feature",
    "geometry": {
       "type": "Point",
       "coordinates":  [ 121.503248010531,25.043506005334 ]
    },
    "properties": {
    "序號":138,
    "行政區":"萬華區",
    "機構名稱":"大隱心理諮商所",
    "地址":"臺北市萬華區成都路139號7樓"
    }
  },
  {
    "type": "Feature",
    "geometry": {
       "type": "Point",
       "coordinates":  [ 121.50538195926,25.039347994625 ]
    },
    "properties": {
    "序號":139,
    "行政區":"萬華區",
    "機構名稱":"哈米思心理諮商所",
    "地址":"臺北市萬華區柳州街6號4樓"
    }
  },
  {
    "type": "Feature",
    "geometry": {
       "type": "Point",
       "coordinates":  [ 121.506388039098,25.045867983739 ]
    },
    "properties": {
    "序號":140,
    "行政區":"萬華區",
    "機構名稱":"理馨西門?心理諮商所",
    "地址":"臺北市萬華區漢口街2段51號2樓"
    }
  },
  {
    "type": "Feature",
    "geometry": {
       "type": "Point",
       "coordinates":  [ 121.458019512985,25.023710336438 ]
    },
    "properties": {
    "序號":141,
    "行政區":"板橋區",
    "機構名稱":"新北市社區心理衛生中心",
    "地址":"新北市板橋區英士路192-1號"
    }
  },
  {
    "type": "Feature",
    "geometry": {
       "type": "Point",
       "coordinates":  [ 121.440843735561,25.172777709166 ]
    },
    "properties": {
    "序號":142,
    "行政區":"淡水區",
    "機構名稱":"淡水區衛生所",
    "地址":"新北市淡水區中山路158號"
    }
  },
  {
    "type": "Feature",
    "geometry": {
       "type": "Point",
       "coordinates":  [ 121.491392311403,25.061191988672 ]
    },
    "properties": {
    "序號":143,
    "行政區":"三重區",
    "機構名稱":"三重區衛生所",
    "地址":"新北市三重區新北大道1段1號"
    }
  },
  {
    "type": "Feature",
    "geometry": {
       "type": "Point",
       "coordinates":  [ 121.501637595474,24.998692118096 ]
    },
    "properties": {
    "序號":144,
    "行政區":"中和區",
    "機構名稱":"中和區衛生所",
    "地址":"新北市中和區南山路4巷3號"
    }
  },
  {
    "type": "Feature",
    "geometry": {
       "type": "Point",
       "coordinates":  [ 121.452247566288,25.036409383191 ]
    },
    "properties": {
    "序號":145,
    "行政區":"新莊區",
    "機構名稱":"新莊區衛生所",
    "地址":"新北市新莊區中華路一段2號"
    }
  },
  {
    "type": "Feature",
    "geometry": {
       "type": "Point",
       "coordinates":  [ 121.516274996808,25.004947993441 ]
    },
    "properties": {
    "序號":146,
    "行政區":"永和區",
    "機構名稱":"永和區衛生所",
    "地址":"新北市永和區秀朗路一段137號"
    }
  },
  {
    "type": "Feature",
    "geometry": {
       "type": "Point",
       "coordinates":  [ 121.473336015583,25.083914992904 ]
    },
    "properties": {
    "序號":147,
    "行政區":"蘆洲區",
    "機構名稱":"蘆洲區衛生所",
    "地址":"新北市蘆洲區中央路58號"
    }
  },
  {
    "type": "Feature",
    "geometry": {
       "type": "Point",
       "coordinates":  [ 121.436818326561,25.083583195267 ]
    },
    "properties": {
    "序號":148,
    "行政區":"五股區",
    "機構名稱":"五股區衛生所",
    "地址":"新北市五股區中興路四段67-1號"
    }
  },
  {
    "type": "Feature",
    "geometry": {
       "type": "Point",
       "coordinates":  [ 121.352647003416,24.950512016635 ]
    },
    "properties": {
    "序號":149,
    "行政區":"鶯歌區",
    "機構名稱":"鶯歌區衛生所",
    "地址":"新北市鶯歌區文化路389號"
    }
  },
  {
    "type": "Feature",
    "geometry": {
       "type": "Point",
       "coordinates":  [ 121.443158984856,24.972868019237 ]
    },
    "properties": {
    "序號":150,
    "行政區":"土城區",
    "機構名稱":"土城區衛生所",
    "地址":"新北市土城區和平路26號"
    }
  },
  {
    "type": "Feature",
    "geometry": {
       "type": "Point",
       "coordinates":  [ 121.543040006209,24.967365006435 ]
    },
    "properties": {
    "序號":151,
    "行政區":"新店區",
    "機構名稱":"新店區衛生所",
    "地址":"新北市新店區北新路一段88巷11號"
    }
  },
  {
    "type": "Feature",
    "geometry": {
       "type": "Point",
       "coordinates":  [ 121.414823961172,24.984029990148 ]
    },
    "properties": {
    "序號":152,
    "行政區":"樹林區",
    "機構名稱":"樹林區衛生所",
    "地址":"新北市樹林區中山路二段80-1號"
    }
  },
  {
    "type": "Feature",
    "geometry": {
       "type": "Point",
       "coordinates":  [ 121.658534333882,25.063512811932 ]
    },
    "properties": {
    "序號":153,
    "行政區":"汐止區",
    "機構名稱":"汐止區衛生所",
    "地址":"新北市汐止區新台五路一段266號"
    }
  },
  {
    "type": "Feature",
    "geometry": {
       "type": "Point",
       "coordinates":  [ 121.433653403741,25.056130618349 ]
    },
    "properties": {
    "序號":154,
    "行政區":"泰山區",
    "機構名稱":"泰山區衛生所",
    "地址":"新北市泰山區全興路212號3樓"
    }
  },
  {
    "type": "Feature",
    "geometry": {
       "type": "Point",
       "coordinates":  [ 121.390197007633,25.079456993881 ]
    },
    "properties": {
    "序號":155,
    "行政區":"林口區",
    "機構名稱":"林口區衛生所",
    "地址":"新北市林口區林口路70號"
    }
  },
  {
    "type": "Feature",
    "geometry": {
       "type": "Point",
       "coordinates":  [ 121.500776019646,25.258240013038 ]
    },
    "properties": {
    "序號":156,
    "行政區":"三芝區",
    "機構名稱":"三芝區衛生所",
    "地址":"新北市三芝區中山路一段12號"
    }
  },
  {
    "type": "Feature",
    "geometry": {
       "type": "Point",
       "coordinates":  [ 121.80905797603,25.107356996791 ]
    },
    "properties": {
    "序號":157,
    "行政區":"瑞芳區",
    "機構名稱":"瑞芳區衛生所",
    "地址":"新北市瑞芳區明燈路三段1號"
    }
  },
  {
    "type": "Feature",
    "geometry": {
       "type": "Point",
       "coordinates":  [ 121.547978036826,24.871967004087 ]
    },
    "properties": {
    "序號":158,
    "行政區":"烏來區",
    "機構名稱":"烏來區衛生所",
    "地址":"新北市烏來區忠治里新烏路五段109號"
    }
  },
  {
    "type": "Feature",
    "geometry": {
       "type": "Point",
       "coordinates":  [ 121.641164013017,25.220460805679 ]
    },
    "properties": {
    "序號":159,
    "行政區":"金山區",
    "機構名稱":"金山區衛生所",
    "地址":"新北市金山區大同里民生路59號"
    }
  },
  {
    "type": "Feature",
    "geometry": {
       "type": "Point",
       "coordinates":  [ 121.612750889854,25.001108322025 ]
    },
    "properties": {
    "序號":160,
    "行政區":"深坑區",
    "機構名稱":"深坑區衛生所",
    "地址":"新北市深坑區深坑街165號"
    }
  },
  {
    "type": "Feature",
    "geometry": {
       "type": "Point",
       "coordinates":  [ 121.376129324257,24.928296620458 ]
    },
    "properties": {
    "序號":161,
    "行政區":"三峽區",
    "機構名稱":"三峽區衛生所",
    "地址":"新北市三峽區光明路71號3樓"
    }
  },
  {
    "type": "Feature",
    "geometry": {
       "type": "Point",
       "coordinates":  [ 121.400060998928,25.147095013013 ]
    },
    "properties": {
    "序號":162,
    "行政區":"八里區",
    "機構名稱":"八里區衛生所",
    "地址":"新北市八里區舊城里舊城路16號"
    }
  },
  {
    "type": "Feature",
    "geometry": {
       "type": "Point",
       "coordinates":  [ 121.6894295,25.1780809 ]
    },
    "properties": {
    "序號":163,
    "行政區":"萬里區",
    "機構名稱":"萬里區衛生所",
    "地址":"新北市萬里區瑪鍊路157號"
    }
  },
  {
    "type": "Feature",
    "geometry": {
       "type": "Point",
       "coordinates":  [ 121.565975324049,25.290164083843 ]
    },
    "properties": {
    "序號":164,
    "行政區":"石門區",
    "機構名稱":"石門區衛生所",
    "地址":"新北市石門區中山路28-1號"
    }
  },
  {
    "type": "Feature",
    "geometry": {
       "type": "Point",
       "coordinates":  [ 121.711844226876,24.936121824196 ]
    },
    "properties": {
    "序號":165,
    "行政區":"坪林區",
    "機構名稱":"坪林區衛生所",
    "地址":"新北市坪林區坪林街104號"
    }
  },
  {
    "type": "Feature",
    "geometry": {
       "type": "Point",
       "coordinates":  [ 121.927567022819,25.05496100758 ]
    },
    "properties": {
    "序號":166,
    "行政區":"貢寮區",
    "機構名稱":"貢寮區衛生所",
    "地址":"新北市貢寮區仁愛路128號"
    }
  },
  {
    "type": "Feature",
    "geometry": {
       "type": "Point",
       "coordinates":  [ 121.657612995085,24.991343996949 ]
    },
    "properties": {
    "序號":167,
    "行政區":"石碇區",
    "機構名稱":"石碇區衛生所",
    "地址":"新北市石碇區碇坪路一段82號"
    }
  },
  {
    "type": "Feature",
    "geometry": {
       "type": "Point",
       "coordinates":  [ 121.737583778626,25.024924006356 ]
    },
    "properties": {
    "序號":168,
    "行政區":"平溪區",
    "機構名稱":"平溪區衛生所",
    "地址":"新北市平溪區石底里公園街17號"
    }
  },
  {
    "type": "Feature",
    "geometry": {
       "type": "Point",
       "coordinates":  [ 121.86641450127,25.037778315618 ]
    },
    "properties": {
    "序號":169,
    "行政區":"雙溪區",
    "機構名稱":"雙溪區衛生所",
    "地址":"新北市雙溪區新基南街18號"
    }
  },
  {
    "type": "Feature",
    "geometry": {
       "type": "Point",
       "coordinates":  [ 121.540507414164,24.969646895756 ]
    },
    "properties": {
    "序號":170,
    "行政區":"新店區",
    "機構名稱":"荷光心理諮商所",
    "地址":"新北市新店區中華路60巷2弄3號3樓"
    }
  },
  {
    "type": "Feature",
    "geometry": {
       "type": "Point",
       "coordinates":  [ 121.541637965265,24.968831001301 ]
    },
    "properties": {
    "序號":171,
    "行政區":"新店區",
    "機構名稱":"芸光心理諮商所",
    "地址":"新北市新店區北新路一段337號2樓"
    }
  },
  {
    "type": "Feature",
    "geometry": {
       "type": "Point",
       "coordinates":  [ 121.527994741466,24.975424415886 ]
    },
    "properties": {
    "序號":172,
    "行政區":"新店區",
    "機構名稱":"賽斯心理治療所",
    "地址":"新北市新店區中央里中央五街51號1樓"
    }
  },
  {
    "type": "Feature",
    "geometry": {
       "type": "Point",
       "coordinates":  [ 121.518031005523,25.015747991864 ]
    },
    "properties": {
    "序號":173,
    "行政區":"永和區",
    "機構名稱":"養心心理治療所",
    "地址":"新北市永和區博愛街20巷1號1樓"
    }
  },
  {
    "type": "Feature",
    "geometry": {
       "type": "Point",
       "coordinates":  [ 121.518728631324,25.007455607414 ]
    },
    "properties": {
    "序號":174,
    "行政區":"永和區",
    "機構名稱":"沛智心理治療所",
    "地址":"新北市永和區福和路229之1號2樓"
    }
  },
  {
    "type": "Feature",
    "geometry": {
       "type": "Point",
       "coordinates":  [ 121.520749307779,25.008884753408 ]
    },
    "properties": {
    "序號":175,
    "行政區":"永和區",
    "機構名稱":"頂溪心理諮商所",
    "地址":"新北市永和區竹林路21號3F"
    }
  },
  {
    "type": "Feature",
    "geometry": {
       "type": "Point",
       "coordinates":  [ 121.498190034879,24.997878989669 ]
    },
    "properties": {
    "序號":176,
    "行政區":"中和區",
    "機構名稱":"米露谷心理治療所",
    "地址":"新北市中和區連城里連勝街28號2樓"
    }
  },
  {
    "type": "Feature",
    "geometry": {
       "type": "Point",
       "coordinates":  [ 121.49603697541,25.068992020129 ]
    },
    "properties": {
    "序號":177,
    "行政區":"三重區",
    "機構名稱":"好日子心理治療所",
    "地址":"新北市三重區正義北路227號2樓"
    }
  },
  {
    "type": "Feature",
    "geometry": {
       "type": "Point",
       "coordinates":  [ 121.471902877778,25.049435698916 ]
    },
    "properties": {
    "序號":178,
    "行政區":"三重區",
    "機構名稱":"佳好+good心理諮商所",
    "地址":"新北市三重區光復路一段70號4樓"
    }
  },
  {
    "type": "Feature",
    "geometry": {
       "type": "Point",
       "coordinates":  [ 121.491466994161,25.070060000322 ]
    },
    "properties": {
    "序號":179,
    "行政區":"三重區",
    "機構名稱":"喜樂心理諮商所",
    "地址":"新北市三重區重陽路四段42號2樓"
    }
  },
  {
    "type": "Feature",
    "geometry": {
       "type": "Point",
       "coordinates":  [ 121.486880081467,25.059179703267 ]
    },
    "properties": {
    "序號":180,
    "行政區":"三重區",
    "機構名稱":"方煦心理諮商所",
    "地址":"新北市三重區重陽路一段89號6樓之5"
    }
  },
  {
    "type": "Feature",
    "geometry": {
       "type": "Point",
       "coordinates":  [ 121.500567980809,25.060596999275 ]
    },
    "properties": {
    "序號":181,
    "行政區":"三重區",
    "機構名稱":"點心語心理諮商所",
    "地址":"新北市三重區中央南路95巷25號2樓"
    }
  },
  {
    "type": "Feature",
    "geometry": {
       "type": "Point",
       "coordinates":  [ 121.456968673252,25.039665417299 ]
    },
    "properties": {
    "序號":182,
    "行政區":"新莊區",
    "機構名稱":"漱心坊心理治療所",
    "地址":"新北市新莊區明中街38號8樓之1"
    }
  },
  {
    "type": "Feature",
    "geometry": {
       "type": "Point",
       "coordinates":  [ 121.656741025698,25.063308000128 ]
    },
    "properties": {
    "序號":183,
    "行政區":"汐止區",
    "機構名稱":"謝宏杰身心精神科診所",
    "地址":"新北市汐止區新台五路1段232號1樓"
    }
  },
  {
    "type": "Feature",
    "geometry": {
       "type": "Point",
       "coordinates":  [ 121.494900976072,25.070322982534 ]
    },
    "properties": {
    "序號":184,
    "行政區":"三重區",
    "機構名稱":"陳信任精神科診所",
    "地址":"新北市三重區正義北路320號1樓"
    }
  },
  {
    "type": "Feature",
    "geometry": {
       "type": "Point",
       "coordinates":  [ 121.469512023716,25.084720996714 ]
    },
    "properties": {
    "序號":185,
    "行政區":"蘆洲區",
    "機構名稱":"壬康精神科診所",
    "地址":"新北市蘆洲區中正路114號1樓"
    }
  },
  {
    "type": "Feature",
    "geometry": {
       "type": "Point",
       "coordinates":  [ 121.461788016121,25.001905991231 ]
    },
    "properties": {
    "序號":186,
    "行政區":"板橋區",
    "機構名稱":"放開心身心精神科診所",
    "地址":"新北市板橋區忠孝路92號1樓"
    }
  },
  {
    "type": "Feature",
    "geometry": {
       "type": "Point",
       "coordinates":  [ 121.491226014444,25.0690169982 ]
    },
    "properties": {
    "序號":187,
    "行政區":"三重區",
    "機構名稱":"林南診所",
    "地址":"新北市三重區重陽路4段11號1樓"
    }
  },
  {
    "type": "Feature",
    "geometry": {
       "type": "Point",
       "coordinates":  [ 121.496203691464,25.067526989182 ]
    },
    "properties": {
    "序號":188,
    "行政區":"三重區",
    "機構名稱":"美麗心成人兒童精神科診所",
    "地址":"新北市三重區正義北路210號1樓"
    }
  },
  {
    "type": "Feature",
    "geometry": {
       "type": "Point",
       "coordinates":  [ 121.454256037927,24.986906994594 ]
    },
    "properties": {
    "序號":189,
    "行政區":"土城區",
    "機構名稱":"悠活精神科診所",
    "地址":"新北市土城區學府路1段158號1樓"
    }
  },
  {
    "type": "Feature",
    "geometry": {
       "type": "Point",
       "coordinates":  [ 121.424142039113,24.992886979595 ]
    },
    "properties": {
    "序號":190,
    "行政區":"樹林區",
    "機構名稱":"喜悅診所",
    "地址":"新北市樹林區中山路1段10號1樓"
    }
  },
  {
    "type": "Feature",
    "geometry": {
       "type": "Point",
       "coordinates":  [ 121.464699134913,25.018564017964 ]
    },
    "properties": {
    "序號":191,
    "行政區":"板橋區",
    "機構名稱":"楊孟達身心精神科診所",
    "地址":"新北市板橋區文化路1段275號1樓"
    }
  },
  {
    "type": "Feature",
    "geometry": {
       "type": "Point",
       "coordinates":  [ 121.475259997638,25.081362996754 ]
    },
    "properties": {
    "序號":192,
    "行政區":"蘆洲區",
    "機構名稱":"長建身心診所",
    "地址":"新北市蘆洲區中山1路165號1樓"
    }
  },
  {
    "type": "Feature",
    "geometry": {
       "type": "Point",
       "coordinates":  [ 121.468783887787,25.023943313874 ]
    },
    "properties": {
    "序號":193,
    "行政區":"板橋區",
    "機構名稱":"楊思亮診所",
    "地址":"新北市板橋區文化路2段4號"
    }
  },
  {
    "type": "Feature",
    "geometry": {
       "type": "Point",
       "coordinates":  [ 121.35595701698,24.955956020838 ]
    },
    "properties": {
    "序號":194,
    "行政區":"鶯歌區",
    "機構名稱":"養心診所",
    "地址":"新北市鶯歌區建國路36號1樓"
    }
  },
  {
    "type": "Feature",
    "geometry": {
       "type": "Point",
       "coordinates":  [ 121.469115978791,25.085240004158 ]
    },
    "properties": {
    "序號":195,
    "行政區":"蘆洲區",
    "機構名稱":"福田診所",
    "地址":"新北市蘆洲區中正路140號1樓"
    }
  },
  {
    "type": "Feature",
    "geometry": {
       "type": "Point",
       "coordinates":  [ 121.476086704748,25.027444099555 ]
    },
    "properties": {
    "序號":196,
    "行政區":"板橋區",
    "機構名稱":"家樺聯合診所",
    "地址":"新北市板橋區雙十路2段42號1樓"
    }
  },
  {
    "type": "Feature",
    "geometry": {
       "type": "Point",
       "coordinates":  [ 121.529593002763,24.975119985163 ]
    },
    "properties": {
    "序號":197,
    "行政區":"新店區",
    "機構名稱":"賽斯身心靈診所",
    "地址":"新北市新店區中央七街26號2樓"
    }
  },
  {
    "type": "Feature",
    "geometry": {
       "type": "Point",
       "coordinates":  [ 121.509170998591,25.00909900526 ]
    },
    "properties": {
    "序號":198,
    "行政區":"永和區",
    "機構名稱":"永平身心診所",
    "地址":"新北市永和區中山路1段174號1樓"
    }
  },
  {
    "type": "Feature",
    "geometry": {
       "type": "Point",
       "coordinates":  [ 121.447166959498,25.037880993931 ]
    },
    "properties": {
    "序號":199,
    "行政區":"新莊區",
    "機構名稱":"育心身心精神科診所",
    "地址":"新北市新莊區新泰路193號1、2樓"
    }
  },
  {
    "type": "Feature",
    "geometry": {
       "type": "Point",
       "coordinates":  [ 121.511580041382,24.992350998797 ]
    },
    "properties": {
    "序號":200,
    "行政區":"中和區",
    "機構名稱":"樂活精神科診所",
    "地址":"新北市中和區安樂路25號1樓"
    }
  },
  {
    "type": "Feature",
    "geometry": {
       "type": "Point",
       "coordinates":  [ 121.517261965907,25.005729019179 ]
    },
    "properties": {
    "序號":201,
    "行政區":"永和區",
    "機構名稱":"中永和身心精神科診所",
    "地址":"新北市永和區中正路558號1、2樓"
    }
  },
  {
    "type": "Feature",
    "geometry": {
       "type": "Point",
       "coordinates":  [ 121.514900029411,25.010367983491 ]
    },
    "properties": {
    "序號":202,
    "行政區":"永和區",
    "機構名稱":"明心診所",
    "地址":"新北市永和區中正路748號1樓"
    }
  },
  {
    "type": "Feature",
    "geometry": {
       "type": "Point",
       "coordinates":  [ 121.464116005909,25.005648008085 ]
    },
    "properties": {
    "序號":203,
    "行政區":"板橋區",
    "機構名稱":"幸福身心精神科診所",
    "地址":"新北市板橋區實踐路83號1、2樓"
    }
  },
  {
    "type": "Feature",
    "geometry": {
       "type": "Point",
       "coordinates":  [ 121.512438432086,25.003103094643 ]
    },
    "properties": {
    "序號":204,
    "行政區":"中和區",
    "機構名稱":"寧靜海診所",
    "地址":"新北市中和區永貞路239巷20號1樓"
    }
  },
  {
    "type": "Feature",
    "geometry": {
       "type": "Point",
       "coordinates":  [ 121.373748025565,24.932637985299 ]
    },
    "properties": {
    "序號":205,
    "行政區":"三峽區",
    "機構名稱":"王湘琦身心診所",
    "地址":"新北市三峽區中華路28巷8號1樓"
    }
  },
  {
    "type": "Feature",
    "geometry": {
       "type": "Point",
       "coordinates":  [ 121.547297007193,24.975284982927 ]
    },
    "properties": {
    "序號":206,
    "行政區":"新店區",
    "機構名稱":"楊聰才診所",
    "地址":"新北市新店區中興路2段239號2樓"
    }
  },
  {
    "type": "Feature",
    "geometry": {
       "type": "Point",
       "coordinates":  [ 121.401914,24.906017 ]
    },
    "properties": {
    "序號":207,
    "行政區":"三峽區",
    "機構名稱":"國軍退除役官兵輔導委員會台北榮譽國民之家(醫務室)",
    "地址":"新北市三峽區白雞路129號"
    }
  },
  {
    "type": "Feature",
    "geometry": {
       "type": "Point",
       "coordinates":  [ 121.450842004945,25.179501001341 ]
    },
    "properties": {
    "序號":208,
    "行政區":"淡水區",
    "機構名稱":"陳灼彭身心醫診所",
    "地址":"新北市淡水區北新路192-1號"
    }
  },
  {
    "type": "Feature",
    "geometry": {
       "type": "Point",
       "coordinates":  [ 121.46295762689,25.019049581615 ]
    },
    "properties": {
    "序號":209,
    "行政區":"板橋區",
    "機構名稱":"樂為診所",
    "地址":"新北市板橋區漢生西路68號1樓"
    }
  },
  {
    "type": "Feature",
    "geometry": {
       "type": "Point",
       "coordinates":  [ 121.460380024025,25.137121009239 ]
    },
    "properties": {
    "序號":210,
    "行政區":"淡水區",
    "機構名稱":"知見身心診所",
    "地址":"新北市淡水區民族路9號2樓"
    }
  },
  {
    "type": "Feature",
    "geometry": {
       "type": "Point",
       "coordinates":  [ 121.51881731186,25.00767500373 ]
    },
    "properties": {
    "序號":211,
    "行政區":"永和區",
    "機構名稱":"福和身心診所",
    "地址":"新北市永和區福和路240號1樓"
    }
  },
  {
    "type": "Feature",
    "geometry": {
       "type": "Point",
       "coordinates":  [ 121.476956997754,25.017010013115 ]
    },
    "properties": {
    "序號":212,
    "行政區":"板橋區",
    "機構名稱":"順心診所",
    "地址":"新北市板橋區中山路2段160號1樓"
    }
  },
  {
    "type": "Feature",
    "geometry": {
       "type": "Point",
       "coordinates":  [ 121.434504334551,25.032475001659 ]
    },
    "properties": {
    "序號":213,
    "行政區":"新莊區",
    "機構名稱":"晴美身心診所",
    "地址":"新北市新莊區中正路575號2樓及577號2樓"
    }
  },
  {
    "type": "Feature",
    "geometry": {
       "type": "Point",
       "coordinates":  [ 121.45982296274,25.003377979157 ]
    },
    "properties": {
    "序號":214,
    "行政區":"板橋區",
    "機構名稱":"喜樂診所",
    "地址":"新北市板橋區四川路一段154號1樓"
    }
  },
  {
    "type": "Feature",
    "geometry": {
       "type": "Point",
       "coordinates":  [ 121.660971911824,25.068358973212 ]
    },
    "properties": {
    "序號":215,
    "行政區":"汐止區",
    "機構名稱":"合康診所",
    "地址":"新北市汐止區大同路二段512號1樓"
    }
  },
  {
    "type": "Feature",
    "geometry": {
       "type": "Point",
       "coordinates":  [ 121.351028793189,24.953081489053 ]
    },
    "properties": {
    "序號":216,
    "行政區":"鶯歌區",
    "機構名稱":"欣慈診所",
    "地址":"新北市鶯歌區國慶街160號1樓"
    }
  },
  {
    "type": "Feature",
    "geometry": {
       "type": "Point",
       "coordinates":  [ 121.453829399056,25.04395041384 ]
    },
    "properties": {
    "序號":217,
    "行政區":"新莊區",
    "機構名稱":"好心情身心精神科診所",
    "地址":"新北市新莊區復興路二段10號1樓"
    }
  },
  {
    "type": "Feature",
    "geometry": {
       "type": "Point",
       "coordinates":  [ 121.46483701722,24.986475997132 ]
    },
    "properties": {
    "序號":218,
    "行政區":"土城區",
    "機構名稱":"合康身心診所",
    "地址":"新北市土城區金城路三段17號1樓"
    }
  },
  {
    "type": "Feature",
    "geometry": {
       "type": "Point",
       "coordinates":  [ 121.449946985324,24.987135988188 ]
    },
    "properties": {
    "序號":219,
    "行政區":"土城區",
    "機構名稱":"永康身心診所",
    "地址":"新北市土城區裕民路82號1樓"
    }
  },
  {
    "type": "Feature",
    "geometry": {
       "type": "Point",
       "coordinates":  [ 121.472849027008,25.015170981649 ]
    },
    "properties": {
    "序號":220,
    "行政區":"板橋區",
    "機構名稱":"心康診所",
    "地址":"新北市板橋區中山路2段34號1樓"
    }
  },
  {
    "type": "Feature",
    "geometry": {
       "type": "Point",
       "coordinates":  [ 121.51745902445,25.014697990853 ]
    },
    "properties": {
    "序號":221,
    "行政區":"永和區",
    "機構名稱":"心晴診所",
    "地址":"新北市永和區竹林路27號1樓"
    }
  },
  {
    "type": "Feature",
    "geometry": {
       "type": "Point",
       "coordinates":  [ 121.426383024746,25.021728018775 ]
    },
    "properties": {
    "序號":222,
    "行政區":"新莊區",
    "機構名稱":"永悅診所",
    "地址":"新北市新莊區民安西路6號1樓"
    }
  },
  {
    "type": "Feature",
    "geometry": {
       "type": "Point",
       "coordinates":  [ 121.472832011745,25.015056987766 ]
    },
    "properties": {
    "序號":223,
    "行政區":"板橋區",
    "機構名稱":"實健診所",
    "地址":"新北市板橋區中山路2段32號1樓"
    }
  },
  {
    "type": "Feature",
    "geometry": {
       "type": "Point",
       "coordinates":  [ 121.501637595474,24.998692118096 ]
    },
    "properties": {
    "序號":224,
    "行政區":"中和區",
    "機構名稱":"衛生福利部八里療養院附設中和社區復健中心",
    "地址":"新北市中和區南山路4巷3號5樓"
    }
  },
  {
    "type": "Feature",
    "geometry": {
       "type": "Point",
       "coordinates":  [ 121.448495311821,25.033677796075 ]
    },
    "properties": {
    "序號":225,
    "行政區":"新莊區",
    "機構名稱":"社團法人新北市康復之友協會附設新莊工作坊",
    "地址":"新北市新莊區景德路256、258號1-2樓"
    }
  },
  {
    "type": "Feature",
    "geometry": {
       "type": "Point",
       "coordinates":  [ 121.477104016336,25.033870001805 ]
    },
    "properties": {
    "序號":226,
    "行政區":"板橋區",
    "機構名稱":"社團法人新北市康復之友協會附設心橋工作坊",
    "地址":"新北市板橋區文化路二段548巷31號1樓"
    }
  },
  {
    "type": "Feature",
    "geometry": {
       "type": "Point",
       "coordinates":  [ 121.460011974657,24.989075979678 ]
    },
    "properties": {
    "序號":227,
    "行政區":"土城區",
    "機構名稱":"得揚工作坊",
    "地址":"新北市土城區青雲路10-2號"
    }
  },
  {
    "type": "Feature",
    "geometry": {
       "type": "Point",
       "coordinates":  [ 121.44328579697,25.027055814529 ]
    },
    "properties": {
    "序號":228,
    "行政區":"新莊區",
    "機構名稱":"財團法人台灣省私立台北仁濟院附設仁濟療養院新莊分院社區復健中心",
    "地址":"新北市新莊區瓊林路100巷21號1樓"
    }
  },
  {
    "type": "Feature",
    "geometry": {
       "type": "Point",
       "coordinates":  [ 121.534575038373,24.982307006131 ]
    },
    "properties": {
    "序號":229,
    "行政區":"新店區",
    "機構名稱":"私立新店怡園康復之家",
    "地址":"新北市新店區民權路145號2-3樓、147號3樓"
    }
  },
  {
    "type": "Feature",
    "geometry": {
       "type": "Point",
       "coordinates":  [ 121.411949,25.139642 ]
    },
    "properties": {
    "序號":230,
    "行政區":"八里區",
    "機構名稱":"衛生福利部八里療養院附設第二所康復之家",
    "地址":"新北市八里區華富山33號"
    }
  },
  {
    "type": "Feature",
    "geometry": {
       "type": "Point",
       "coordinates":  [ 121.402671684402,25.147518298411 ]
    },
    "properties": {
    "序號":231,
    "行政區":"八里區",
    "機構名稱":"衛生福利部八里療養院附設八里康復之家",
    "地址":"新北市八里區中華路二段310、312號2樓"
    }
  },
  {
    "type": "Feature",
    "geometry": {
       "type": "Point",
       "coordinates":  [ 121.373615004762,24.931983987303 ]
    },
    "properties": {
    "序號":232,
    "行政區":"三峽區",
    "機構名稱":"私立永丞康復之家",
    "地址":"新北市三峽區中華路13-5號5樓及5樓之1"
    }
  },
  {
    "type": "Feature",
    "geometry": {
       "type": "Point",
       "coordinates":  [ 121.458195364782,25.00796321547 ]
    },
    "properties": {
    "序號":233,
    "行政區":"板橋區",
    "機構名稱":"私立全安康復之家",
    "地址":"新北市板橋區東門街34號3樓及36號2-5樓"
    }
  },
  {
    "type": "Feature",
    "geometry": {
       "type": "Point",
       "coordinates":  [ 121.445716303515,25.034568591525 ]
    },
    "properties": {
    "序號":234,
    "行政區":"新莊區",
    "機構名稱":"鴻安康復之家",
    "地址":"新北市新莊區中正路391、393號6樓"
    }
  },
  {
    "type": "Feature",
    "geometry": {
       "type": "Point",
       "coordinates":  [ 121.448187037114,25.065293295805 ]
    },
    "properties": {
    "序號":235,
    "行政區":"五股區",
    "機構名稱":"私立五股康復之家",
    "地址":"新北市五股區五權路7巷8號之1，1、2樓"
    }
  },
  {
    "type": "Feature",
    "geometry": {
       "type": "Point",
       "coordinates":  [ 121.463092072617,25.040301897116 ]
    },
    "properties": {
    "序號":236,
    "行政區":"新莊區",
    "機構名稱":"私立佳瑩康復之家",
    "地址":"新北市新莊區中正路55之5號"
    }
  },
  {
    "type": "Feature",
    "geometry": {
       "type": "Point",
       "coordinates":  [ 121.4431050054,25.029964998844 ]
    },
    "properties": {
    "序號":237,
    "行政區":"新莊區",
    "機構名稱":"私立全人康復之家",
    "地址":"新北市新莊區瓊泰路95號1-3樓"
    }
  },
  {
    "type": "Feature",
    "geometry": {
       "type": "Point",
       "coordinates":  [ 121.634398895146,25.062705299381 ]
    },
    "properties": {
    "序號":238,
    "行政區":"汐止區",
    "機構名稱":"私立鹽光康復之家",
    "地址":"新北市汐止區中興路100號2樓、2樓之1"
    }
  },
  {
    "type": "Feature",
    "geometry": {
       "type": "Point",
       "coordinates":  [ 121.373615004762,24.931983987303 ]
    },
    "properties": {
    "序號":239,
    "行政區":"三峽區",
    "機構名稱":"私立安溪康復之家",
    "地址":"新北市三峽區中華路13-5號3樓"
    }
  },
  {
    "type": "Feature",
    "geometry": {
       "type": "Point",
       "coordinates":  [ 121.45428696715,25.036421997955 ]
    },
    "properties": {
    "序號":240,
    "行政區":"新莊區",
    "機構名稱":"私立文德康復之家",
    "地址":"新北市新莊區中正路175-1號3樓"
    }
  },
  {
    "type": "Feature",
    "geometry": {
       "type": "Point",
       "coordinates":  [ 121.447207024995,25.188349986071 ]
    },
    "properties": {
    "序號":241,
    "行政區":"淡水區",
    "機構名稱":"陽光康復之家",
    "地址":"新北市淡水區商工路141號、143號1、2樓"
    }
  },
  {
    "type": "Feature",
    "geometry": {
       "type": "Point",
       "coordinates":  [ 121.459669070998,25.007347480863 ]
    },
    "properties": {
    "序號":242,
    "行政區":"板橋區",
    "機構名稱":"永吉康復之家",
    "地址":"新北市板橋區中山路一段2號4樓之2"
    }
  },
  {
    "type": "Feature",
    "geometry": {
       "type": "Point",
       "coordinates":  [ 121.628362919031,25.065576604132 ]
    },
    "properties": {
    "序號":243,
    "行政區":"汐止區",
    "機構名稱":"私立汐止康復之家",
    "地址":"新北市汐止區中興路183巷1號2-4樓"
    }
  },
  {
    "type": "Feature",
    "geometry": {
       "type": "Point",
       "coordinates":  [ 121.462913036481,25.000593267062 ]
    },
    "properties": {
    "序號":244,
    "行政區":"板橋區",
    "機構名稱":"祐成康復之家",
    "地址":"新北市板橋區重慶路260、262號9樓"
    }
  },
  {
    "type": "Feature",
    "geometry": {
       "type": "Point",
       "coordinates":  [ 121.454811003737,25.008329001725 ]
    },
    "properties": {
    "序號":245,
    "行政區":"板橋區",
    "機構名稱":"湳雅康復之家",
    "地址":"新北市板橋區館前西路207號4樓、4樓之1"
    }
  },
  {
    "type": "Feature",
    "geometry": {
       "type": "Point",
       "coordinates":  [ 121.500478964998,25.001248011832 ]
    },
    "properties": {
    "序號":246,
    "行政區":"中和區",
    "機構名稱":"私立中和康復之家",
    "地址":"新北市中和區中和路59號4樓"
    }
  },
  {
    "type": "Feature",
    "geometry": {
       "type": "Point",
       "coordinates":  [ 121.448470010165,24.983108986627 ]
    },
    "properties": {
    "序號":247,
    "行政區":"土城區",
    "機構名稱":"私立迦百農康復之家",
    "地址":"新北市土城區明德路二段62號9樓、9樓之1"
    }
  },
  {
    "type": "Feature",
    "geometry": {
       "type": "Point",
       "coordinates":  [ 121.533424119248,24.986331283574 ]
    },
    "properties": {
    "序號":248,
    "行政區":"新店區",
    "機構名稱":"禾欣康復之家",
    "地址":"新北市新店區中正路539-2號4樓"
    }
  },
  {
    "type": "Feature",
    "geometry": {
       "type": "Point",
       "coordinates":  [ 121.4404435,25.1694686 ]
    },
    "properties": {
    "序號":249,
    "行政區":"淡水區",
    "機構名稱":"私立淡水康復之家",
    "地址":"新北市淡水區後洲子15-3號"
    }
  },
  {
    "type": "Feature",
    "geometry": {
       "type": "Point",
       "coordinates":  [ 121.411949,25.139642 ]
    },
    "properties": {
    "序號":250,
    "行政區":"八里區",
    "機構名稱":"衛生福利部八里療養院附設精神護理之家",
    "地址":"新北市八里區華富山33號"
    }
  },
  {
    "type": "Feature",
    "geometry": {
       "type": "Point",
       "coordinates":  [ 121.513950192143,24.958906283117 ]
    },
    "properties": {
    "序號":251,
    "行政區":"新店區",
    "機構名稱":"怡濟慈園醫療社團法人附設怡濟精神護理之家",
    "地址":"新北市新店區安忠路57巷5號4、5樓"
    }
  },
  {
    "type": "Feature",
    "geometry": {
       "type": "Point",
       "coordinates":  [ 121.457197,25.228916 ]
    },
    "properties": {
    "序號":252,
    "行政區":"淡水區",
    "機構名稱":"私立晨恩精神護理之家",
    "地址":"新北市淡水區賢孝里番子田132號1-2樓"
    }
  },
  {
    "type": "Feature",
    "geometry": {
       "type": "Point",
       "coordinates":  [ 121.602935996653,25.001851005946 ]
    },
    "properties": {
    "序號":253,
    "行政區":"深坑區",
    "機構名稱":"私立樂活精神護理之家",
    "地址":"新北市深坑區北深路3段141巷24號2樓"
    }
  },
  {
    "type": "Feature",
    "geometry": {
       "type": "Point",
       "coordinates":  [ 121.46110422046,25.087686094962 ]
    },
    "properties": {
    "序號":254,
    "行政區":"蘆洲區",
    "機構名稱":"敏金精神護理之家",
    "地址":"新北市蘆洲區光明路85巷15號1-3樓"
    }
  },
  {
    "type": "Feature",
    "geometry": {
       "type": "Point",
       "coordinates":  [ 121.602935996653,25.001851005946 ]
    },
    "properties": {
    "序號":255,
    "行政區":"深坑區",
    "機構名稱":"私立樂天精神護理之家",
    "地址":"新北市深坑區北深路3段141巷24號3樓"
    }
  },
  {
    "type": "Feature",
    "geometry": {
       "type": "Point",
       "coordinates":  [ 121.459638728509,25.087898618117 ]
    },
    "properties": {
    "序號":256,
    "行政區":"蘆洲區",
    "機構名稱":"家妘精神護理之家",
    "地址":"新北市蘆洲區長榮路410號2-4樓"
    }
  },
  {
    "type": "Feature",
    "geometry": {
       "type": "Point",
       "coordinates":  [ 121.676691799274,25.073561414645 ]
    },
    "properties": {
    "序號":257,
    "行政區":"汐止區",
    "機構名稱":"元康精神護理之家",
    "地址":"新北市汐止區大同路三段369巷26號1-3樓"
    }
  },
  {
    "type": "Feature",
    "geometry": {
       "type": "Point",
       "coordinates":  [ 121.352827968706,24.956631979419 ]
    },
    "properties": {
    "序號":258,
    "行政區":"鶯歌區",
    "機構名稱":"禾軒精神護理之家",
    "地址":"新北市鶯歌區中正一路165號1-4樓"
    }
  },
  {
    "type": "Feature",
    "geometry": {
       "type": "Point",
       "coordinates":  [ 121.362952972466,24.938420995576 ]
    },
    "properties": {
    "序號":259,
    "行政區":"三峽區",
    "機構名稱":"行天宮醫療志業醫療財團法人恩主公醫院",
    "地址":"新北市三峽區復興路399號"
    }
  },
  {
    "type": "Feature",
    "geometry": {
       "type": "Point",
       "coordinates":  [ 121.661084527923,25.072872296475 ]
    },
    "properties": {
    "序號":260,
    "行政區":"汐止區",
    "機構名稱":"國泰醫療財團法人汐止國泰綜合醫院",
    "地址":"新北市汐止區建成路59巷2號"
    }
  },
  {
    "type": "Feature",
    "geometry": {
       "type": "Point",
       "coordinates":  [ 121.46200395093,25.137990194712 ]
    },
    "properties": {
    "序號":261,
    "行政區":"淡水區",
    "機構名稱":"台灣基督長老教會馬偕醫療財團法人淡水馬偕紀念醫院",
    "地址":"新北市淡水區民生路45號"
    }
  },
  {
    "type": "Feature",
    "geometry": {
       "type": "Point",
       "coordinates":  [ 121.49084027926,25.060869494947 ]
    },
    "properties": {
    "序號":262,
    "行政區":"三重區",
    "機構名稱":"新北市立聯合醫院(三重院區)",
    "地址":"新北市三重區新北大道1段3號"
    }
  },
  {
    "type": "Feature",
    "geometry": {
       "type": "Point",
       "coordinates":  [ 121.457708460026,25.023683810152 ]
    },
    "properties": {
    "序號":263,
    "行政區":"板橋區",
    "機構名稱":"新北市立聯合醫院(板橋院區)",
    "地址":"新北市板橋區英士路198號"
    }
  },
  {
    "type": "Feature",
    "geometry": {
       "type": "Point",
       "coordinates":  [ 121.493774699743,24.993095814713 ]
    },
    "properties": {
    "序號":264,
    "行政區":"中和區",
    "機構名稱":"衛生福利部雙和醫院",
    "地址":"新北市中和區中正路291號"
    }
  },
  {
    "type": "Feature",
    "geometry": {
       "type": "Point",
       "coordinates":  [ 121.452311771667,24.997313420753 ]
    },
    "properties": {
    "序號":265,
    "行政區":"板橋區",
    "機構名稱":"醫療財團法人徐元智先生醫藥基金會亞東紀念醫院",
    "地址":"新北市板橋區南雅南路2段21號及高爾富路300號"
    }
  },
  {
    "type": "Feature",
    "geometry": {
       "type": "Point",
       "coordinates":  [ 121.504536560506,24.95397688586 ]
    },
    "properties": {
    "序號":266,
    "行政區":"新店區",
    "機構名稱":"天主教耕莘醫療財團法人耕莘醫院安康院區",
    "地址":"新北市新店區車子路15號"
    }
  },
  {
    "type": "Feature",
    "geometry": {
       "type": "Point",
       "coordinates":  [ 121.535619004413,24.976083820209 ]
    },
    "properties": {
    "序號":267,
    "行政區":"新店區",
    "機構名稱":"天主教耕莘醫療財團法人耕莘醫院",
    "地址":"新北市新店區中正路362號"
    }
  },
  {
    "type": "Feature",
    "geometry": {
       "type": "Point",
       "coordinates":  [ 121.459622635254,25.043241095284 ]
    },
    "properties": {
    "序號":268,
    "行政區":"新莊區",
    "機構名稱":"衛生福利部臺北醫院",
    "地址":"新北市新莊區思源路127號"
    }
  },
  {
    "type": "Feature",
    "geometry": {
       "type": "Point",
       "coordinates":  [ 121.535557984158,24.984354998443 ]
    },
    "properties": {
    "序號":269,
    "行政區":"新店區",
    "機構名稱":"佛教慈濟醫療財團法人台北慈濟醫院",
    "地址":"新北市新店區建國路277號"
    }
  },
  {
    "type": "Feature",
    "geometry": {
       "type": "Point",
       "coordinates":  [ 121.517869486249,25.011874211492 ]
    },
    "properties": {
    "序號":270,
    "行政區":"永和區",
    "機構名稱":"天主教耕莘醫療財團法人永和耕莘醫院",
    "地址":"新北市永和區中興街80號"
    }
  },
  {
    "type": "Feature",
    "geometry": {
       "type": "Point",
       "coordinates":  [ 121.411070964025,25.021692982419 ]
    },
    "properties": {
    "序號":271,
    "行政區":"新莊區",
    "機構名稱":"衛生福利部樂生療養院",
    "地址":"新北市新莊區中正路794號桃園縣龜山鄉萬壽路1段50巷2號"
    }
  },
  {
    "type": "Feature",
    "geometry": {
       "type": "Point",
       "coordinates":  [ 121.513950192143,24.958906283117 ]
    },
    "properties": {
    "序號":272,
    "行政區":"新店區",
    "機構名稱":"怡濟慈園醫療社團法人宏濟神經精神科醫院",
    "地址":"新北市新店區安忠路57巷5號"
    }
  },
  {
    "type": "Feature",
    "geometry": {
       "type": "Point",
       "coordinates":  [ 121.48804759676,24.938643283648 ]
    },
    "properties": {
    "序號":273,
    "行政區":"新店區",
    "機構名稱":"宏慈療養院",
    "地址":"新北市新店區安泰路157號"
    }
  },
  {
    "type": "Feature",
    "geometry": {
       "type": "Point",
       "coordinates":  [ 121.502347,25.209869 ]
    },
    "properties": {
    "序號":274,
    "行政區":"三芝區",
    "機構名稱":"台安醫院",
    "地址":"新北市三芝區興華里楓子林路四十二之五號"
    }
  },
  {
    "type": "Feature",
    "geometry": {
       "type": "Point",
       "coordinates":  [ 121.411949,25.139642 ]
    },
    "properties": {
    "序號":275,
    "行政區":"八里區",
    "機構名稱":"衛生福利部八里療養院",
    "地址":"新北市八里區華富山33號"
    }
  },
  {
    "type": "Feature",
    "geometry": {
       "type": "Point",
       "coordinates":  [ 121.324932994938,24.973279989778 ]
    },
    "properties": {
    "序號":276,
    "行政區":"鶯歌區",
    "機構名稱":"名恩療養院",
    "地址":"新北市鶯歌區鶯桃路2段62號及64號1至4樓"
    }
  },
  {
    "type": "Feature",
    "geometry": {
       "type": "Point",
       "coordinates":  [ 121.438730993047,25.210515007009 ]
    },
    "properties": {
    "序號":277,
    "行政區":"淡水區",
    "機構名稱":"泓安醫院",
    "地址":"新北市淡水區下圭柔山91巷2號"
    }
  },
  {
    "type": "Feature",
    "geometry": {
       "type": "Point",
       "coordinates":  [ 121.464513391938,25.089310004883 ]
    },
    "properties": {
    "序號":278,
    "行政區":"蘆洲區",
    "機構名稱":"衛生福利部八里療養院附設蘆洲門診部",
    "地址":"新北市蘆洲區光榮路116號1樓"
    }
  },
  {
    "type": "Feature",
    "geometry": {
       "type": "Point",
       "coordinates":  [ 121.45945611013,24.986578958763 ]
    },
    "properties": {
    "序號":279,
    "行政區":"土城區",
    "機構名稱":"衛生福利部八里療養院附設土城門診部",
    "地址":"新北市土城區青雲路6號1、2樓"
    }
  },
  {
    "type": "Feature",
    "geometry": {
       "type": "Point",
       "coordinates":  [ 121.4404435,25.1694686 ]
    },
    "properties": {
    "序號":280,
    "行政區":"淡水區",
    "機構名稱":"北新醫療社團法人北新醫院",
    "地址":"新北市淡水區忠寮里演戲埔腳1-2號"
    }
  },
  {
    "type": "Feature",
    "geometry": {
       "type": "Point",
       "coordinates":  [ 121.442724718453,25.026737002203 ]
    },
    "properties": {
    "序號":281,
    "行政區":"新莊區",
    "機構名稱":"財團法人台灣省私立台北仁濟院附設新莊仁濟醫院",
    "地址":"新北市新莊區中環路1段28號"
    }
  },
  {
    "type": "Feature",
    "geometry": {
       "type": "Point",
       "coordinates":  [ 121.46200395093,25.137990194712 ]
    },
    "properties": {
    "序號":282,
    "行政區":"淡水區",
    "機構名稱":"馬偕紀念醫院(淡水院區)",
    "地址":"新北市淡水區民生路45號"
    }
  },
  {
    "type": "Feature",
    "geometry": {
       "type": "Point",
       "coordinates":  [ 121.535619004413,24.976083820209 ]
    },
    "properties": {
    "序號":283,
    "行政區":"新店區",
    "機構名稱":"天主教耕莘醫療財團法人耕莘醫院(新店院區)",
    "地址":"新北市新店區中正路362號"
    }
  },
  {
    "type": "Feature",
    "geometry": {
       "type": "Point",
       "coordinates":  [ 121.661084527923,25.072872296475 ]
    },
    "properties": {
    "序號":284,
    "行政區":"汐止區",
    "機構名稱":"國泰醫療財團法人汐止國泰綜合醫院",
    "地址":"新北市汐止區建成路59巷2號"
    }
  },
  {
    "type": "Feature",
    "geometry": {
       "type": "Point",
       "coordinates":  [ 121.457708460026,25.023683810152 ]
    },
    "properties": {
    "序號":285,
    "行政區":"板橋區",
    "機構名稱":"新北市立聯合醫院(板橋院區)",
    "地址":"新北市板橋區英士路198號"
    }
  },
  {
    "type": "Feature",
    "geometry": {
       "type": "Point",
       "coordinates":  [ 121.49084027926,25.060869494947 ]
    },
    "properties": {
    "序號":286,
    "行政區":"三重區",
    "機構名稱":"新北市立聯合醫院(三重院區)",
    "地址":"新北市三重區新北大道1段3號"
    }
  },
  {
    "type": "Feature",
    "geometry": {
       "type": "Point",
       "coordinates":  [ 121.45945611013,24.986578958763 ]
    },
    "properties": {
    "序號":287,
    "行政區":"土城區",
    "機構名稱":"衛生福利部八里療養院土城門診部",
    "地址":"新北市土城區青雲路6號1、2樓"
    }
  },
  {
    "type": "Feature",
    "geometry": {
       "type": "Point",
       "coordinates":  [ 121.535557984158,24.984354998443 ]
    },
    "properties": {
    "序號":288,
    "行政區":"新店區",
    "機構名稱":"佛教慈濟醫療財團法人台北慈濟醫院",
    "地址":"新北市新店區建國路277號"
    }
  },
  {
    "type": "Feature",
    "geometry": {
       "type": "Point",
       "coordinates":  [ 121.493774699743,24.993095814713 ]
    },
    "properties": {
    "序號":289,
    "行政區":"中和區",
    "機構名稱":"衛生福利部雙和醫院",
    "地址":"新北市中和區中正路291號"
    }
  },
  {
    "type": "Feature",
    "geometry": {
       "type": "Point",
       "coordinates":  [ 121.491692634994,25.05978889999 ]
    },
    "properties": {
    "序號":290,
    "行政區":"三重區",
    "機構名稱":"安興精神科診所",
    "地址":"新北市三重區重新路三段132號"
    }
  },
  {
    "type": "Feature",
    "geometry": {
       "type": "Point",
       "coordinates":  [ 121.452311771667,24.997313420753 ]
    },
    "properties": {
    "序號":291,
    "行政區":"板橋區",
    "機構名稱":"亞東紀念醫院",
    "地址":"新北市板橋區南雅南路2段21號"
    }
  },
  {
    "type": "Feature",
    "geometry": {
       "type": "Point",
       "coordinates":  [ 121.511580041382,24.992350998797 ]
    },
    "properties": {
    "序號":292,
    "行政區":"中和區",
    "機構名稱":"樂活精神科診所",
    "地址":"新北市中和區安樂路25號1樓"
    }
  },
  {
    "type": "Feature",
    "geometry": {
       "type": "Point",
       "coordinates":  [ 121.430353292579,25.039728048116 ]
    },
    "properties": {
    "序號":293,
    "行政區":"泰山區",
    "機構名稱":"輔仁大學學校財團法人輔仁大學附設醫院",
    "地址":"新北市泰山區貴子路69號"
    }
  },
  {
    "type": "Feature",
    "geometry": {
       "type": "Point",
       "coordinates":  [ 121.457234966316,25.017725995284 ]
    },
    "properties": {
    "序號":294,
    "行政區":"板橋區",
    "機構名稱":"心世界身心精神科診所",
    "地址":"新北市板橋區國光路33號1樓"
    }
  },
  {
    "type": "Feature",
    "geometry": {
       "type": "Point",
       "coordinates":  [ 121.434193030668,25.032931019102 ]
    },
    "properties": {
    "序號":295,
    "行政區":"新莊區",
    "機構名稱":"輔大診所",
    "地址":"新北市新莊區中正路510號醫學大樓(國璽樓)1樓"
    }
  },
  {
    "type": "Feature",
    "geometry": {
       "type": "Point",
       "coordinates":  [ 121.368465079632,25.071341006584 ]
    },
    "properties": {
    "序號":296,
    "行政區":"林口區",
    "機構名稱":"欣泉身心診所",
    "地址":"新北市林口區文化二路一段156號"
    }
  }
]
}