{"type": "FeatureCollection", "features": [{"type": "Feature", "geometry": {"type": "Polygon", "coordinates": [[[121.29, 24.58], [121.32000000000001, 24.58], [121.32000000000001, 24.61], [121.29, 24.61], [121.29, 24.58]]]}, "properties": {"temperature": 15.0}}, {"type": "Feature", "geometry": {"type": "Polygon", "coordinates": [[[121.32, 24.58], [121.35, 24.58], [121.35, 24.61], [121.32, 24.61], [121.32, 24.58]]]}, "properties": {"temperature": 22.3}}, {"type": "Feature", "geometry": {"type": "Polygon", "coordinates": [[[121.35, 24.58], [121.38, 24.58], [121.38, 24.61], [121.35, 24.61], [121.35, 24.58]]]}, "properties": {"temperature": 18.7}}, {"type": "Feature", "geometry": {"type": "Polygon", "coordinates": [[[121.38, 24.58], [121.41, 24.58], [121.41, 24.61], [121.38, 24.61], [121.38, 24.58]]]}, "properties": {"temperature": 16.7}}, {"type": "Feature", "geometry": {"type": "Polygon", "coordinates": [[[121.41, 24.58], [121.44, 24.58], [121.44, 24.61], [121.41, 24.61], [121.41, 24.58]]]}, "properties": {"temperature": 20.7}}, {"type": "Feature", "geometry": {"type": "Polygon", "coordinates": [[[121.44, 24.58], [121.47, 24.58], [121.47, 24.61], [121.44, 24.61], [121.44, 24.58]]]}, "properties": {"temperature": 24.6}}, {"type": "Feature", "geometry": {"type": "Polygon", "coordinates": [[[121.47, 24.58], [121.5, 24.58], [121.5, 24.61], [121.47, 24.61], [121.47, 24.58]]]}, "properties": {"temperature": 28.5}}, {"type": "Feature", "geometry": {"type": "Polygon", "coordinates": [[[121.5, 24.58], [121.53, 24.58], [121.53, 24.61], [121.5, 24.61], [121.5, 24.58]]]}, "properties": {"temperature": 28.7}}, {"type": "Feature", "geometry": {"type": "Polygon", "coordinates": [[[121.53, 24.58], [121.56, 24.58], [121.56, 24.61], [121.53, 24.61], [121.53, 24.58]]]}, "properties": {"temperature": 27.2}}, {"type": "Feature", "geometry": {"type": "Polygon", "coordinates": [[[121.56, 24.58], [121.59, 24.58], [121.59, 24.61], [121.56, 24.61], [121.56, 24.58]]]}, "properties": {"temperature": 22.1}}, {"type": "Feature", "geometry": {"type": "Polygon", "coordinates": [[[121.59, 24.58], [121.62, 24.58], [121.62, 24.61], [121.59, 24.61], [121.59, 24.58]]]}, "properties": {"temperature": 24.1}}, {"type": "Feature", "geometry": {"type": "Polygon", "coordinates": [[[121.62, 24.58], [121.65, 24.58], [121.65, 24.61], [121.62, 24.61], [121.62, 24.58]]]}, "properties": {"temperature": 24.9}}, {"type": "Feature", "geometry": {"type": "Polygon", "coordinates": [[[121.65, 24.58], [121.68, 24.58], [121.68, 24.61], [121.65, 24.61], [121.65, 24.58]]]}, "properties": {"temperature": 23.3}}, {"type": "Feature", "geometry": {"type": "Polygon", "coordinates": [[[121.68, 24.58], [121.71000000000001, 24.58], [121.71000000000001, 24.61], [121.68, 24.61], [121.68, 24.58]]]}, "properties": {"temperature": 27.8}}, {"type": "Feature", "geometry": {"type": "Polygon", "coordinates": [[[121.71, 24.58], [121.74, 24.58], [121.74, 24.61], [121.71, 24.61], [121.71, 24.58]]]}, "properties": {"temperature": 26.4}}, {"type": "Feature", "geometry": {"type": "Polygon", "coordinates": [[[121.74, 24.58], [121.77, 24.58], [121.77, 24.61], [121.74, 24.61], [121.74, 24.58]]]}, "properties": {"temperature": 23.9}}, {"type": "Feature", "geometry": {"type": "Polygon", "coordinates": [[[121.77, 24.58], [121.8, 24.58], [121.8, 24.61], [121.77, 24.61], [121.77, 24.58]]]}, "properties": {"temperature": 26.1}}, {"type": "Feature", "geometry": {"type": "Polygon", "coordinates": [[[121.8, 24.58], [121.83, 24.58], [121.83, 24.61], [121.8, 24.61], [121.8, 24.58]]]}, "properties": {"temperature": 27.3}}, {"type": "Feature", "geometry": {"type": "Polygon", "coordinates": [[[121.83, 24.58], [121.86, 24.58], [121.86, 24.61], [121.83, 24.61], [121.83, 24.58]]]}, "properties": {"temperature": 28.1}}, {"type": "Feature", "geometry": {"type": "Polygon", "coordinates": [[[121.29, 24.61], [121.32000000000001, 24.61], [121.32000000000001, 24.64], [121.29, 24.64], [121.29, 24.61]]]}, "properties": {"temperature": 23.6}}, {"type": "Feature", "geometry": {"type": "Polygon", "coordinates": [[[121.32, 24.61], [121.35, 24.61], [121.35, 24.64], [121.32, 24.64], [121.32, 24.61]]]}, "properties": {"temperature": 18.2}}, {"type": "Feature", "geometry": {"type": "Polygon", "coordinates": [[[121.35, 24.61], [121.38, 24.61], [121.38, 24.64], [121.35, 24.64], [121.35, 24.61]]]}, "properties": {"temperature": 16.7}}, {"type": "Feature", "geometry": {"type": "Polygon", "coordinates": [[[121.38, 24.61], [121.41, 24.61], [121.41, 24.64], [121.38, 24.64], [121.38, 24.61]]]}, "properties": {"temperature": 19.9}}, {"type": "Feature", "geometry": {"type": "Polygon", "coordinates": [[[121.41, 24.61], [121.44, 24.61], [121.44, 24.64], [121.41, 24.64], [121.41, 24.61]]]}, "properties": {"temperature": 21.2}}, {"type": "Feature", "geometry": {"type": "Polygon", "coordinates": [[[121.44, 24.61], [121.47, 24.61], [121.47, 24.64], [121.44, 24.64], [121.44, 24.61]]]}, "properties": {"temperature": 20.8}}, {"type": "Feature", "geometry": {"type": "Polygon", "coordinates": [[[121.47, 24.61], [121.5, 24.61], [121.5, 24.64], [121.47, 24.64], [121.47, 24.61]]]}, "properties": {"temperature": 23.2}}, {"type": "Feature", "geometry": {"type": "Polygon", "coordinates": [[[121.5, 24.61], [121.53, 24.61], [121.53, 24.64], [121.5, 24.64], [121.5, 24.61]]]}, "properties": {"temperature": 26.8}}, {"type": "Feature", "geometry": {"type": "Polygon", "coordinates": [[[121.53, 24.61], [121.56, 24.61], [121.56, 24.64], [121.53, 24.64], [121.53, 24.61]]]}, "properties": {"temperature": 28.5}}, {"type": "Feature", "geometry": {"type": "Polygon", "coordinates": [[[121.56, 24.61], [121.59, 24.61], [121.59, 24.64], [121.56, 24.64], [121.56, 24.61]]]}, "properties": {"temperature": 27.9}}, {"type": "Feature", "geometry": {"type": "Polygon", "coordinates": [[[121.59, 24.61], [121.62, 24.61], [121.62, 24.64], [121.59, 24.64], [121.59, 24.61]]]}, "properties": {"temperature": 26.5}}, {"type": "Feature", "geometry": {"type": "Polygon", "coordinates": [[[121.62, 24.61], [121.65, 24.61], [121.65, 24.64], [121.62, 24.64], [121.62, 24.61]]]}, "properties": {"temperature": 27.0}}, {"type": "Feature", "geometry": {"type": "Polygon", "coordinates": [[[121.65, 24.61], [121.68, 24.61], [121.68, 24.64], [121.65, 24.64], [121.65, 24.61]]]}, "properties": {"temperature": 27.1}}, {"type": "Feature", "geometry": {"type": "Polygon", "coordinates": [[[121.68, 24.61], [121.71000000000001, 24.61], [121.71000000000001, 24.64], [121.68, 24.64], [121.68, 24.61]]]}, "properties": {"temperature": 28.0}}, {"type": "Feature", "geometry": {"type": "Polygon", "coordinates": [[[121.71, 24.61], [121.74, 24.61], [121.74, 24.64], [121.71, 24.64], [121.71, 24.61]]]}, "properties": {"temperature": 27.4}}, {"type": "Feature", "geometry": {"type": "Polygon", "coordinates": [[[121.74, 24.61], [121.77, 24.61], [121.77, 24.64], [121.74, 24.64], [121.74, 24.61]]]}, "properties": {"temperature": 28.2}}, {"type": "Feature", "geometry": {"type": "Polygon", "coordinates": [[[121.77, 24.61], [121.8, 24.61], [121.8, 24.64], [121.77, 24.64], [121.77, 24.61]]]}, "properties": {"temperature": 27.8}}, {"type": "Feature", "geometry": {"type": "Polygon", "coordinates": [[[121.8, 24.61], [121.83, 24.61], [121.83, 24.64], [121.8, 24.64], [121.8, 24.61]]]}, "properties": {"temperature": 28.3}}, {"type": "Feature", "geometry": {"type": "Polygon", "coordinates": [[[121.83, 24.61], [121.86, 24.61], [121.86, 24.64], [121.83, 24.64], [121.83, 24.61]]]}, "properties": {"temperature": 28.1}}, {"type": "Feature", "geometry": {"type": "Polygon", "coordinates": [[[121.29, 24.64], [121.32000000000001, 24.64], [121.32000000000001, 24.67], [121.29, 24.67], [121.29, 24.64]]]}, "properties": {"temperature": 23.8}}, {"type": "Feature", "geometry": {"type": "Polygon", "coordinates": [[[121.32, 24.64], [121.35, 24.64], [121.35, 24.67], [121.32, 24.67], [121.32, 24.64]]]}, "properties": {"temperature": 22.6}}, {"type": "Feature", "geometry": {"type": "Polygon", "coordinates": [[[121.35, 24.64], [121.38, 24.64], [121.38, 24.67], [121.35, 24.67], [121.35, 24.64]]]}, "properties": {"temperature": 18.9}}, {"type": "Feature", "geometry": {"type": "Polygon", "coordinates": [[[121.38, 24.64], [121.41, 24.64], [121.41, 24.67], [121.38, 24.67], [121.38, 24.64]]]}, "properties": {"temperature": 17.6}}, {"type": "Feature", "geometry": {"type": "Polygon", "coordinates": [[[121.41, 24.64], [121.44, 24.64], [121.44, 24.67], [121.41, 24.67], [121.41, 24.64]]]}, "properties": {"temperature": 24.6}}, {"type": "Feature", "geometry": {"type": "Polygon", "coordinates": [[[121.44, 24.64], [121.47, 24.64], [121.47, 24.67], [121.44, 24.67], [121.44, 24.64]]]}, "properties": {"temperature": 22.8}}, {"type": "Feature", "geometry": {"type": "Polygon", "coordinates": [[[121.47, 24.64], [121.5, 24.64], [121.5, 24.67], [121.47, 24.67], [121.47, 24.64]]]}, "properties": {"temperature": 20.2}}, {"type": "Feature", "geometry": {"type": "Polygon", "coordinates": [[[121.5, 24.64], [121.53, 24.64], [121.53, 24.67], [121.5, 24.67], [121.5, 24.64]]]}, "properties": {"temperature": 26.2}}, {"type": "Feature", "geometry": {"type": "Polygon", "coordinates": [[[121.53, 24.64], [121.56, 24.64], [121.56, 24.67], [121.53, 24.67], [121.53, 24.64]]]}, "properties": {"temperature": 26.0}}, {"type": "Feature", "geometry": {"type": "Polygon", "coordinates": [[[121.56, 24.64], [121.59, 24.64], [121.59, 24.67], [121.56, 24.67], [121.56, 24.64]]]}, "properties": {"temperature": 28.1}}, {"type": "Feature", "geometry": {"type": "Polygon", "coordinates": [[[121.59, 24.64], [121.62, 24.64], [121.62, 24.67], [121.59, 24.67], [121.59, 24.64]]]}, "properties": {"temperature": 28.0}}, {"type": "Feature", "geometry": {"type": "Polygon", "coordinates": [[[121.62, 24.64], [121.65, 24.64], [121.65, 24.67], [121.62, 24.67], [121.62, 24.64]]]}, "properties": {"temperature": 26.3}}, {"type": "Feature", "geometry": {"type": "Polygon", "coordinates": [[[121.65, 24.64], [121.68, 24.64], [121.68, 24.67], [121.65, 24.67], [121.65, 24.64]]]}, "properties": {"temperature": 25.4}}, {"type": "Feature", "geometry": {"type": "Polygon", "coordinates": [[[121.68, 24.64], [121.71000000000001, 24.64], [121.71000000000001, 24.67], [121.68, 24.67], [121.68, 24.64]]]}, "properties": {"temperature": 27.2}}, {"type": "Feature", "geometry": {"type": "Polygon", "coordinates": [[[121.71, 24.64], [121.74, 24.64], [121.74, 24.67], [121.71, 24.67], [121.71, 24.64]]]}, "properties": {"temperature": 28.4}}, {"type": "Feature", "geometry": {"type": "Polygon", "coordinates": [[[121.74, 24.64], [121.77, 24.64], [121.77, 24.67], [121.74, 24.67], [121.74, 24.64]]]}, "properties": {"temperature": 28.6}}, {"type": "Feature", "geometry": {"type": "Polygon", "coordinates": [[[121.77, 24.64], [121.8, 24.64], [121.8, 24.67], [121.77, 24.67], [121.77, 24.64]]]}, "properties": {"temperature": 28.4}}, {"type": "Feature", "geometry": {"type": "Polygon", "coordinates": [[[121.8, 24.64], [121.83, 24.64], [121.83, 24.67], [121.8, 24.67], [121.8, 24.64]]]}, "properties": {"temperature": 28.3}}, {"type": "Feature", "geometry": {"type": "Polygon", "coordinates": [[[121.83, 24.64], [121.86, 24.64], [121.86, 24.67], [121.83, 24.67], [121.83, 24.64]]]}, "properties": {"temperature": 28.1}}, {"type": "Feature", "geometry": {"type": "Polygon", "coordinates": [[[121.29, 24.669999999999998], [121.32000000000001, 24.669999999999998], [121.32000000000001, 24.7], [121.29, 24.7], [121.29, 24.669999999999998]]]}, "properties": {"temperature": 21.2}}, {"type": "Feature", "geometry": {"type": "Polygon", "coordinates": [[[121.32, 24.669999999999998], [121.35, 24.669999999999998], [121.35, 24.7], [121.32, 24.7], [121.32, 24.669999999999998]]]}, "properties": {"temperature": 23.9}}, {"type": "Feature", "geometry": {"type": "Polygon", "coordinates": [[[121.35, 24.669999999999998], [121.38, 24.669999999999998], [121.38, 24.7], [121.35, 24.7], [121.35, 24.669999999999998]]]}, "properties": {"temperature": 25.2}}, {"type": "Feature", "geometry": {"type": "Polygon", "coordinates": [[[121.38, 24.669999999999998], [121.41, 24.669999999999998], [121.41, 24.7], [121.38, 24.7], [121.38, 24.669999999999998]]]}, "properties": {"temperature": 25.4}}, {"type": "Feature", "geometry": {"type": "Polygon", "coordinates": [[[121.41, 24.669999999999998], [121.44, 24.669999999999998], [121.44, 24.7], [121.41, 24.7], [121.41, 24.669999999999998]]]}, "properties": {"temperature": 22.5}}, {"type": "Feature", "geometry": {"type": "Polygon", "coordinates": [[[121.44, 24.669999999999998], [121.47, 24.669999999999998], [121.47, 24.7], [121.44, 24.7], [121.44, 24.669999999999998]]]}, "properties": {"temperature": 21.2}}, {"type": "Feature", "geometry": {"type": "Polygon", "coordinates": [[[121.47, 24.669999999999998], [121.5, 24.669999999999998], [121.5, 24.7], [121.47, 24.7], [121.47, 24.669999999999998]]]}, "properties": {"temperature": 14.0}}, {"type": "Feature", "geometry": {"type": "Polygon", "coordinates": [[[121.5, 24.669999999999998], [121.53, 24.669999999999998], [121.53, 24.7], [121.5, 24.7], [121.5, 24.669999999999998]]]}, "properties": {"temperature": 21.8}}, {"type": "Feature", "geometry": {"type": "Polygon", "coordinates": [[[121.53, 24.669999999999998], [121.56, 24.669999999999998], [121.56, 24.7], [121.53, 24.7], [121.53, 24.669999999999998]]]}, "properties": {"temperature": 22.8}}, {"type": "Feature", "geometry": {"type": "Polygon", "coordinates": [[[121.56, 24.669999999999998], [121.59, 24.669999999999998], [121.59, 24.7], [121.56, 24.7], [121.56, 24.669999999999998]]]}, "properties": {"temperature": 25.8}}, {"type": "Feature", "geometry": {"type": "Polygon", "coordinates": [[[121.59, 24.669999999999998], [121.62, 24.669999999999998], [121.62, 24.7], [121.59, 24.7], [121.59, 24.669999999999998]]]}, "properties": {"temperature": 27.6}}, {"type": "Feature", "geometry": {"type": "Polygon", "coordinates": [[[121.62, 24.669999999999998], [121.65, 24.669999999999998], [121.65, 24.7], [121.62, 24.7], [121.62, 24.669999999999998]]]}, "properties": {"temperature": 28.0}}, {"type": "Feature", "geometry": {"type": "Polygon", "coordinates": [[[121.65, 24.669999999999998], [121.68, 24.669999999999998], [121.68, 24.7], [121.65, 24.7], [121.65, 24.669999999999998]]]}, "properties": {"temperature": 27.1}}, {"type": "Feature", "geometry": {"type": "Polygon", "coordinates": [[[121.68, 24.669999999999998], [121.71000000000001, 24.669999999999998], [121.71000000000001, 24.7], [121.68, 24.7], [121.68, 24.669999999999998]]]}, "properties": {"temperature": 28.6}}, {"type": "Feature", "geometry": {"type": "Polygon", "coordinates": [[[121.71, 24.669999999999998], [121.74, 24.669999999999998], [121.74, 24.7], [121.71, 24.7], [121.71, 24.669999999999998]]]}, "properties": {"temperature": 28.7}}, {"type": "Feature", "geometry": {"type": "Polygon", "coordinates": [[[121.74, 24.669999999999998], [121.77, 24.669999999999998], [121.77, 24.7], [121.74, 24.7], [121.74, 24.669999999999998]]]}, "properties": {"temperature": 28.6}}, {"type": "Feature", "geometry": {"type": "Polygon", "coordinates": [[[121.77, 24.669999999999998], [121.8, 24.669999999999998], [121.8, 24.7], [121.77, 24.7], [121.77, 24.669999999999998]]]}, "properties": {"temperature": 28.2}}, {"type": "Feature", "geometry": {"type": "Polygon", "coordinates": [[[121.8, 24.669999999999998], [121.83, 24.669999999999998], [121.83, 24.7], [121.8, 24.7], [121.8, 24.669999999999998]]]}, "properties": {"temperature": 28.1}}, {"type": "Feature", "geometry": {"type": "Polygon", "coordinates": [[[121.83, 24.669999999999998], [121.86, 24.669999999999998], [121.86, 24.7], [121.83, 24.7], [121.83, 24.669999999999998]]]}, "properties": {"temperature": 27.7}}, {"type": "Feature", "geometry": {"type": "Polygon", "coordinates": [[[121.29, 24.7], [121.32000000000001, 24.7], [121.32000000000001, 24.73], [121.29, 24.73], [121.29, 24.7]]]}, "properties": {"temperature": 16.6}}, {"type": "Feature", "geometry": {"type": "Polygon", "coordinates": [[[121.32, 24.7], [121.35, 24.7], [121.35, 24.73], [121.32, 24.73], [121.32, 24.7]]]}, "properties": {"temperature": 17.5}}, {"type": "Feature", "geometry": {"type": "Polygon", "coordinates": [[[121.35, 24.7], [121.38, 24.7], [121.38, 24.73], [121.35, 24.73], [121.35, 24.7]]]}, "properties": {"temperature": 21.1}}, {"type": "Feature", "geometry": {"type": "Polygon", "coordinates": [[[121.38, 24.7], [121.41, 24.7], [121.41, 24.73], [121.38, 24.73], [121.38, 24.7]]]}, "properties": {"temperature": 25.4}}, {"type": "Feature", "geometry": {"type": "Polygon", "coordinates": [[[121.41, 24.7], [121.44, 24.7], [121.44, 24.73], [121.41, 24.73], [121.41, 24.7]]]}, "properties": {"temperature": 17.5}}, {"type": "Feature", "geometry": {"type": "Polygon", "coordinates": [[[121.44, 24.7], [121.47, 24.7], [121.47, 24.73], [121.44, 24.73], [121.44, 24.7]]]}, "properties": {"temperature": 15.9}}, {"type": "Feature", "geometry": {"type": "Polygon", "coordinates": [[[121.47, 24.7], [121.5, 24.7], [121.5, 24.73], [121.47, 24.73], [121.47, 24.7]]]}, "properties": {"temperature": 17.2}}, {"type": "Feature", "geometry": {"type": "Polygon", "coordinates": [[[121.5, 24.7], [121.53, 24.7], [121.53, 24.73], [121.5, 24.73], [121.5, 24.7]]]}, "properties": {"temperature": 20.8}}, {"type": "Feature", "geometry": {"type": "Polygon", "coordinates": [[[121.53, 24.7], [121.56, 24.7], [121.56, 24.73], [121.53, 24.73], [121.53, 24.7]]]}, "properties": {"temperature": 18.1}}, {"type": "Feature", "geometry": {"type": "Polygon", "coordinates": [[[121.56, 24.7], [121.59, 24.7], [121.59, 24.73], [121.56, 24.73], [121.56, 24.7]]]}, "properties": {"temperature": 24.4}}, {"type": "Feature", "geometry": {"type": "Polygon", "coordinates": [[[121.59, 24.7], [121.62, 24.7], [121.62, 24.73], [121.59, 24.73], [121.59, 24.7]]]}, "properties": {"temperature": 25.3}}, {"type": "Feature", "geometry": {"type": "Polygon", "coordinates": [[[121.62, 24.7], [121.65, 24.7], [121.65, 24.73], [121.62, 24.73], [121.62, 24.7]]]}, "properties": {"temperature": 27.7}}, {"type": "Feature", "geometry": {"type": "Polygon", "coordinates": [[[121.65, 24.7], [121.68, 24.7], [121.68, 24.73], [121.65, 24.73], [121.65, 24.7]]]}, "properties": {"temperature": 28.3}}, {"type": "Feature", "geometry": {"type": "Polygon", "coordinates": [[[121.68, 24.7], [121.71000000000001, 24.7], [121.71000000000001, 24.73], [121.68, 24.73], [121.68, 24.7]]]}, "properties": {"temperature": 28.4}}, {"type": "Feature", "geometry": {"type": "Polygon", "coordinates": [[[121.71, 24.7], [121.74, 24.7], [121.74, 24.73], [121.71, 24.73], [121.71, 24.7]]]}, "properties": {"temperature": 28.5}}, {"type": "Feature", "geometry": {"type": "Polygon", "coordinates": [[[121.74, 24.7], [121.77, 24.7], [121.77, 24.73], [121.74, 24.73], [121.74, 24.7]]]}, "properties": {"temperature": 28.4}}, {"type": "Feature", "geometry": {"type": "Polygon", "coordinates": [[[121.77, 24.7], [121.8, 24.7], [121.8, 24.73], [121.77, 24.73], [121.77, 24.7]]]}, "properties": {"temperature": 28.2}}, {"type": "Feature", "geometry": {"type": "Polygon", "coordinates": [[[121.8, 24.7], [121.83, 24.7], [121.83, 24.73], [121.8, 24.73], [121.8, 24.7]]]}, "properties": {"temperature": 27.9}}, {"type": "Feature", "geometry": {"type": "Polygon", "coordinates": [[[121.29, 24.73], [121.32000000000001, 24.73], [121.32000000000001, 24.76], [121.29, 24.76], [121.29, 24.73]]]}, "properties": {"temperature": 18.8}}, {"type": "Feature", "geometry": {"type": "Polygon", "coordinates": [[[121.32, 24.73], [121.35, 24.73], [121.35, 24.76], [121.32, 24.76], [121.32, 24.73]]]}, "properties": {"temperature": 20.2}}, {"type": "Feature", "geometry": {"type": "Polygon", "coordinates": [[[121.35, 24.73], [121.38, 24.73], [121.38, 24.76], [121.35, 24.76], [121.35, 24.73]]]}, "properties": {"temperature": 25.5}}, {"type": "Feature", "geometry": {"type": "Polygon", "coordinates": [[[121.38, 24.73], [121.41, 24.73], [121.41, 24.76], [121.38, 24.76], [121.38, 24.73]]]}, "properties": {"temperature": 22.5}}, {"type": "Feature", "geometry": {"type": "Polygon", "coordinates": [[[121.41, 24.73], [121.44, 24.73], [121.44, 24.76], [121.41, 24.76], [121.41, 24.73]]]}, "properties": {"temperature": 20.1}}, {"type": "Feature", "geometry": {"type": "Polygon", "coordinates": [[[121.44, 24.73], [121.47, 24.73], [121.47, 24.76], [121.44, 24.76], [121.44, 24.73]]]}, "properties": {"temperature": 15.9}}, {"type": "Feature", "geometry": {"type": "Polygon", "coordinates": [[[121.47, 24.73], [121.5, 24.73], [121.5, 24.76], [121.47, 24.76], [121.47, 24.73]]]}, "properties": {"temperature": 21.7}}, {"type": "Feature", "geometry": {"type": "Polygon", "coordinates": [[[121.5, 24.73], [121.53, 24.73], [121.53, 24.76], [121.5, 24.76], [121.5, 24.73]]]}, "properties": {"temperature": 21.6}}, {"type": "Feature", "geometry": {"type": "Polygon", "coordinates": [[[121.53, 24.73], [121.56, 24.73], [121.56, 24.76], [121.53, 24.76], [121.53, 24.73]]]}, "properties": {"temperature": 18.6}}, {"type": "Feature", "geometry": {"type": "Polygon", "coordinates": [[[121.56, 24.73], [121.59, 24.73], [121.59, 24.76], [121.56, 24.76], [121.56, 24.73]]]}, "properties": {"temperature": 22.3}}, {"type": "Feature", "geometry": {"type": "Polygon", "coordinates": [[[121.59, 24.73], [121.62, 24.73], [121.62, 24.76], [121.59, 24.76], [121.59, 24.73]]]}, "properties": {"temperature": 21.2}}, {"type": "Feature", "geometry": {"type": "Polygon", "coordinates": [[[121.62, 24.73], [121.65, 24.73], [121.65, 24.76], [121.62, 24.76], [121.62, 24.73]]]}, "properties": {"temperature": 26.9}}, {"type": "Feature", "geometry": {"type": "Polygon", "coordinates": [[[121.65, 24.73], [121.68, 24.73], [121.68, 24.76], [121.65, 24.76], [121.65, 24.73]]]}, "properties": {"temperature": 26.4}}, {"type": "Feature", "geometry": {"type": "Polygon", "coordinates": [[[121.68, 24.73], [121.71000000000001, 24.73], [121.71000000000001, 24.76], [121.68, 24.76], [121.68, 24.73]]]}, "properties": {"temperature": 28.2}}, {"type": "Feature", "geometry": {"type": "Polygon", "coordinates": [[[121.71, 24.73], [121.74, 24.73], [121.74, 24.76], [121.71, 24.76], [121.71, 24.73]]]}, "properties": {"temperature": 28.3}}, {"type": "Feature", "geometry": {"type": "Polygon", "coordinates": [[[121.74, 24.73], [121.77, 24.73], [121.77, 24.76], [121.74, 24.76], [121.74, 24.73]]]}, "properties": {"temperature": 28.2}}, {"type": "Feature", "geometry": {"type": "Polygon", "coordinates": [[[121.77, 24.73], [121.8, 24.73], [121.8, 24.76], [121.77, 24.76], [121.77, 24.73]]]}, "properties": {"temperature": 26.8}}, {"type": "Feature", "geometry": {"type": "Polygon", "coordinates": [[[121.8, 24.73], [121.83, 24.73], [121.83, 24.76], [121.8, 24.76], [121.8, 24.73]]]}, "properties": {"temperature": 27.6}}, {"type": "Feature", "geometry": {"type": "Polygon", "coordinates": [[[121.29, 24.759999999999998], [121.32000000000001, 24.759999999999998], [121.32000000000001, 24.79], [121.29, 24.79], [121.29, 24.759999999999998]]]}, "properties": {"temperature": 20.7}}, {"type": "Feature", "geometry": {"type": "Polygon", "coordinates": [[[121.32, 24.759999999999998], [121.35, 24.759999999999998], [121.35, 24.79], [121.32, 24.79], [121.32, 24.759999999999998]]]}, "properties": {"temperature": 21.4}}, {"type": "Feature", "geometry": {"type": "Polygon", "coordinates": [[[121.35, 24.759999999999998], [121.38, 24.759999999999998], [121.38, 24.79], [121.35, 24.79], [121.35, 24.759999999999998]]]}, "properties": {"temperature": 25.7}}, {"type": "Feature", "geometry": {"type": "Polygon", "coordinates": [[[121.38, 24.759999999999998], [121.41, 24.759999999999998], [121.41, 24.79], [121.38, 24.79], [121.38, 24.759999999999998]]]}, "properties": {"temperature": 21.1}}, {"type": "Feature", "geometry": {"type": "Polygon", "coordinates": [[[121.41, 24.759999999999998], [121.44, 24.759999999999998], [121.44, 24.79], [121.41, 24.79], [121.41, 24.759999999999998]]]}, "properties": {"temperature": 16.3}}, {"type": "Feature", "geometry": {"type": "Polygon", "coordinates": [[[121.44, 24.759999999999998], [121.47, 24.759999999999998], [121.47, 24.79], [121.44, 24.79], [121.44, 24.759999999999998]]]}, "properties": {"temperature": 20.1}}, {"type": "Feature", "geometry": {"type": "Polygon", "coordinates": [[[121.47, 24.759999999999998], [121.5, 24.759999999999998], [121.5, 24.79], [121.47, 24.79], [121.47, 24.759999999999998]]]}, "properties": {"temperature": 23.4}}, {"type": "Feature", "geometry": {"type": "Polygon", "coordinates": [[[121.5, 24.759999999999998], [121.53, 24.759999999999998], [121.53, 24.79], [121.5, 24.79], [121.5, 24.759999999999998]]]}, "properties": {"temperature": 25.4}}, {"type": "Feature", "geometry": {"type": "Polygon", "coordinates": [[[121.53, 24.759999999999998], [121.56, 24.759999999999998], [121.56, 24.79], [121.53, 24.79], [121.53, 24.759999999999998]]]}, "properties": {"temperature": 24.3}}, {"type": "Feature", "geometry": {"type": "Polygon", "coordinates": [[[121.56, 24.759999999999998], [121.59, 24.759999999999998], [121.59, 24.79], [121.56, 24.79], [121.56, 24.759999999999998]]]}, "properties": {"temperature": 23.0}}, {"type": "Feature", "geometry": {"type": "Polygon", "coordinates": [[[121.59, 24.759999999999998], [121.62, 24.759999999999998], [121.62, 24.79], [121.59, 24.79], [121.59, 24.759999999999998]]]}, "properties": {"temperature": 22.8}}, {"type": "Feature", "geometry": {"type": "Polygon", "coordinates": [[[121.62, 24.759999999999998], [121.65, 24.759999999999998], [121.65, 24.79], [121.62, 24.79], [121.62, 24.759999999999998]]]}, "properties": {"temperature": 23.2}}, {"type": "Feature", "geometry": {"type": "Polygon", "coordinates": [[[121.65, 24.759999999999998], [121.68, 24.759999999999998], [121.68, 24.79], [121.65, 24.79], [121.65, 24.759999999999998]]]}, "properties": {"temperature": 26.3}}, {"type": "Feature", "geometry": {"type": "Polygon", "coordinates": [[[121.68, 24.759999999999998], [121.71000000000001, 24.759999999999998], [121.71000000000001, 24.79], [121.68, 24.79], [121.68, 24.759999999999998]]]}, "properties": {"temperature": 27.6}}, {"type": "Feature", "geometry": {"type": "Polygon", "coordinates": [[[121.71, 24.759999999999998], [121.74, 24.759999999999998], [121.74, 24.79], [121.71, 24.79], [121.71, 24.759999999999998]]]}, "properties": {"temperature": 28.1}}, {"type": "Feature", "geometry": {"type": "Polygon", "coordinates": [[[121.74, 24.759999999999998], [121.77, 24.759999999999998], [121.77, 24.79], [121.74, 24.79], [121.74, 24.759999999999998]]]}, "properties": {"temperature": 28.0}}, {"type": "Feature", "geometry": {"type": "Polygon", "coordinates": [[[121.77, 24.759999999999998], [121.8, 24.759999999999998], [121.8, 24.79], [121.77, 24.79], [121.77, 24.759999999999998]]]}, "properties": {"temperature": 27.8}}, {"type": "Feature", "geometry": {"type": "Polygon", "coordinates": [[[121.8, 24.759999999999998], [121.83, 24.759999999999998], [121.83, 24.79], [121.8, 24.79], [121.8, 24.759999999999998]]]}, "properties": {"temperature": 27.7}}, {"type": "Feature", "geometry": {"type": "Polygon", "coordinates": [[[121.29, 24.79], [121.32000000000001, 24.79], [121.32000000000001, 24.82], [121.29, 24.82], [121.29, 24.79]]]}, "properties": {"temperature": 24.9}}, {"type": "Feature", "geometry": {"type": "Polygon", "coordinates": [[[121.32, 24.79], [121.35, 24.79], [121.35, 24.82], [121.32, 24.82], [121.32, 24.79]]]}, "properties": {"temperature": 24.7}}, {"type": "Feature", "geometry": {"type": "Polygon", "coordinates": [[[121.35, 24.79], [121.38, 24.79], [121.38, 24.82], [121.35, 24.82], [121.35, 24.79]]]}, "properties": {"temperature": 23.4}}, {"type": "Feature", "geometry": {"type": "Polygon", "coordinates": [[[121.38, 24.79], [121.41, 24.79], [121.41, 24.82], [121.38, 24.82], [121.38, 24.79]]]}, "properties": {"temperature": 24.5}}, {"type": "Feature", "geometry": {"type": "Polygon", "coordinates": [[[121.41, 24.79], [121.44, 24.79], [121.44, 24.82], [121.41, 24.82], [121.41, 24.79]]]}, "properties": {"temperature": 21.7}}, {"type": "Feature", "geometry": {"type": "Polygon", "coordinates": [[[121.44, 24.79], [121.47, 24.79], [121.47, 24.82], [121.44, 24.82], [121.44, 24.79]]]}, "properties": {"temperature": 16.8}}, {"type": "Feature", "geometry": {"type": "Polygon", "coordinates": [[[121.47, 24.79], [121.5, 24.79], [121.5, 24.82], [121.47, 24.82], [121.47, 24.79]]]}, "properties": {"temperature": 21.1}}, {"type": "Feature", "geometry": {"type": "Polygon", "coordinates": [[[121.5, 24.79], [121.53, 24.79], [121.53, 24.82], [121.5, 24.82], [121.5, 24.79]]]}, "properties": {"temperature": 25.1}}, {"type": "Feature", "geometry": {"type": "Polygon", "coordinates": [[[121.53, 24.79], [121.56, 24.79], [121.56, 24.82], [121.53, 24.82], [121.53, 24.79]]]}, "properties": {"temperature": 19.4}}, {"type": "Feature", "geometry": {"type": "Polygon", "coordinates": [[[121.56, 24.79], [121.59, 24.79], [121.59, 24.82], [121.56, 24.82], [121.56, 24.79]]]}, "properties": {"temperature": 18.2}}, {"type": "Feature", "geometry": {"type": "Polygon", "coordinates": [[[121.59, 24.79], [121.62, 24.79], [121.62, 24.82], [121.59, 24.82], [121.59, 24.79]]]}, "properties": {"temperature": 19.4}}, {"type": "Feature", "geometry": {"type": "Polygon", "coordinates": [[[121.62, 24.79], [121.65, 24.79], [121.65, 24.82], [121.62, 24.82], [121.62, 24.79]]]}, "properties": {"temperature": 19.3}}, {"type": "Feature", "geometry": {"type": "Polygon", "coordinates": [[[121.65, 24.79], [121.68, 24.79], [121.68, 24.82], [121.65, 24.82], [121.65, 24.79]]]}, "properties": {"temperature": 26.1}}, {"type": "Feature", "geometry": {"type": "Polygon", "coordinates": [[[121.68, 24.79], [121.71000000000001, 24.79], [121.71000000000001, 24.82], [121.68, 24.82], [121.68, 24.79]]]}, "properties": {"temperature": 26.9}}, {"type": "Feature", "geometry": {"type": "Polygon", "coordinates": [[[121.71, 24.79], [121.74, 24.79], [121.74, 24.82], [121.71, 24.82], [121.71, 24.79]]]}, "properties": {"temperature": 27.8}}, {"type": "Feature", "geometry": {"type": "Polygon", "coordinates": [[[121.74, 24.79], [121.77, 24.79], [121.77, 24.82], [121.74, 24.82], [121.74, 24.79]]]}, "properties": {"temperature": 27.9}}, {"type": "Feature", "geometry": {"type": "Polygon", "coordinates": [[[121.77, 24.79], [121.8, 24.79], [121.8, 24.82], [121.77, 24.82], [121.77, 24.79]]]}, "properties": {"temperature": 27.7}}, {"type": "Feature", "geometry": {"type": "Polygon", "coordinates": [[[121.8, 24.79], [121.83, 24.79], [121.83, 24.82], [121.8, 24.82], [121.8, 24.79]]]}, "properties": {"temperature": 27.6}}, {"type": "Feature", "geometry": {"type": "Polygon", "coordinates": [[[121.29, 24.82], [121.32000000000001, 24.82], [121.32000000000001, 24.85], [121.29, 24.85], [121.29, 24.82]]]}, "properties": {"temperature": 25.6}}, {"type": "Feature", "geometry": {"type": "Polygon", "coordinates": [[[121.32, 24.82], [121.35, 24.82], [121.35, 24.85], [121.32, 24.85], [121.32, 24.82]]]}, "properties": {"temperature": 25.4}}, {"type": "Feature", "geometry": {"type": "Polygon", "coordinates": [[[121.35, 24.82], [121.38, 24.82], [121.38, 24.85], [121.35, 24.85], [121.35, 24.82]]]}, "properties": {"temperature": 22.9}}, {"type": "Feature", "geometry": {"type": "Polygon", "coordinates": [[[121.38, 24.82], [121.41, 24.82], [121.41, 24.85], [121.38, 24.85], [121.38, 24.82]]]}, "properties": {"temperature": 24.7}}, {"type": "Feature", "geometry": {"type": "Polygon", "coordinates": [[[121.41, 24.82], [121.44, 24.82], [121.44, 24.85], [121.41, 24.85], [121.41, 24.82]]]}, "properties": {"temperature": 20.5}}, {"type": "Feature", "geometry": {"type": "Polygon", "coordinates": [[[121.44, 24.82], [121.47, 24.82], [121.47, 24.85], [121.44, 24.85], [121.44, 24.82]]]}, "properties": {"temperature": 22.9}}, {"type": "Feature", "geometry": {"type": "Polygon", "coordinates": [[[121.47, 24.82], [121.5, 24.82], [121.5, 24.85], [121.47, 24.85], [121.47, 24.82]]]}, "properties": {"temperature": 20.5}}, {"type": "Feature", "geometry": {"type": "Polygon", "coordinates": [[[121.5, 24.82], [121.53, 24.82], [121.53, 24.85], [121.5, 24.85], [121.5, 24.82]]]}, "properties": {"temperature": 23.9}}, {"type": "Feature", "geometry": {"type": "Polygon", "coordinates": [[[121.53, 24.82], [121.56, 24.82], [121.56, 24.85], [121.53, 24.85], [121.53, 24.82]]]}, "properties": {"temperature": 24.6}}, {"type": "Feature", "geometry": {"type": "Polygon", "coordinates": [[[121.56, 24.82], [121.59, 24.82], [121.59, 24.85], [121.56, 24.85], [121.56, 24.82]]]}, "properties": {"temperature": 21.4}}, {"type": "Feature", "geometry": {"type": "Polygon", "coordinates": [[[121.59, 24.82], [121.62, 24.82], [121.62, 24.85], [121.59, 24.85], [121.59, 24.82]]]}, "properties": {"temperature": 24.5}}, {"type": "Feature", "geometry": {"type": "Polygon", "coordinates": [[[121.62, 24.82], [121.65, 24.82], [121.65, 24.85], [121.62, 24.85], [121.62, 24.82]]]}, "properties": {"temperature": 21.1}}, {"type": "Feature", "geometry": {"type": "Polygon", "coordinates": [[[121.65, 24.82], [121.68, 24.82], [121.68, 24.85], [121.65, 24.85], [121.65, 24.82]]]}, "properties": {"temperature": 21.8}}, {"type": "Feature", "geometry": {"type": "Polygon", "coordinates": [[[121.68, 24.82], [121.71000000000001, 24.82], [121.71000000000001, 24.85], [121.68, 24.85], [121.68, 24.82]]]}, "properties": {"temperature": 21.6}}, {"type": "Feature", "geometry": {"type": "Polygon", "coordinates": [[[121.71, 24.82], [121.74, 24.82], [121.74, 24.85], [121.71, 24.85], [121.71, 24.82]]]}, "properties": {"temperature": 24.3}}, {"type": "Feature", "geometry": {"type": "Polygon", "coordinates": [[[121.74, 24.82], [121.77, 24.82], [121.77, 24.85], [121.74, 24.85], [121.74, 24.82]]]}, "properties": {"temperature": 27.2}}, {"type": "Feature", "geometry": {"type": "Polygon", "coordinates": [[[121.77, 24.82], [121.8, 24.82], [121.8, 24.85], [121.77, 24.85], [121.77, 24.82]]]}, "properties": {"temperature": 26.3}}, {"type": "Feature", "geometry": {"type": "Polygon", "coordinates": [[[121.8, 24.82], [121.83, 24.82], [121.83, 24.85], [121.8, 24.85], [121.8, 24.82]]]}, "properties": {"temperature": 27.6}}, {"type": "Feature", "geometry": {"type": "Polygon", "coordinates": [[[121.95, 24.82], [121.98, 24.82], [121.98, 24.85], [121.95, 24.85], [121.95, 24.82]]]}, "properties": {"temperature": 27.1}}, {"type": "Feature", "geometry": {"type": "Polygon", "coordinates": [[[121.29, 24.849999999999998], [121.32000000000001, 24.849999999999998], [121.32000000000001, 24.88], [121.29, 24.88], [121.29, 24.849999999999998]]]}, "properties": {"temperature": 25.6}}, {"type": "Feature", "geometry": {"type": "Polygon", "coordinates": [[[121.32, 24.849999999999998], [121.35, 24.849999999999998], [121.35, 24.88], [121.32, 24.88], [121.32, 24.849999999999998]]]}, "properties": {"temperature": 24.4}}, {"type": "Feature", "geometry": {"type": "Polygon", "coordinates": [[[121.35, 24.849999999999998], [121.38, 24.849999999999998], [121.38, 24.88], [121.35, 24.88], [121.35, 24.849999999999998]]]}, "properties": {"temperature": 25.5}}, {"type": "Feature", "geometry": {"type": "Polygon", "coordinates": [[[121.38, 24.849999999999998], [121.41, 24.849999999999998], [121.41, 24.88], [121.38, 24.88], [121.38, 24.849999999999998]]]}, "properties": {"temperature": 23.0}}, {"type": "Feature", "geometry": {"type": "Polygon", "coordinates": [[[121.41, 24.849999999999998], [121.44, 24.849999999999998], [121.44, 24.88], [121.41, 24.88], [121.41, 24.849999999999998]]]}, "properties": {"temperature": 23.1}}, {"type": "Feature", "geometry": {"type": "Polygon", "coordinates": [[[121.44, 24.849999999999998], [121.47, 24.849999999999998], [121.47, 24.88], [121.44, 24.88], [121.44, 24.849999999999998]]]}, "properties": {"temperature": 26.1}}, {"type": "Feature", "geometry": {"type": "Polygon", "coordinates": [[[121.47, 24.849999999999998], [121.5, 24.849999999999998], [121.5, 24.88], [121.47, 24.88], [121.47, 24.849999999999998]]]}, "properties": {"temperature": 23.3}}, {"type": "Feature", "geometry": {"type": "Polygon", "coordinates": [[[121.5, 24.849999999999998], [121.53, 24.849999999999998], [121.53, 24.88], [121.5, 24.88], [121.5, 24.849999999999998]]]}, "properties": {"temperature": 22.4}}, {"type": "Feature", "geometry": {"type": "Polygon", "coordinates": [[[121.53, 24.849999999999998], [121.56, 24.849999999999998], [121.56, 24.88], [121.53, 24.88], [121.53, 24.849999999999998]]]}, "properties": {"temperature": 24.9}}, {"type": "Feature", "geometry": {"type": "Polygon", "coordinates": [[[121.56, 24.849999999999998], [121.59, 24.849999999999998], [121.59, 24.88], [121.56, 24.88], [121.56, 24.849999999999998]]]}, "properties": {"temperature": 26.4}}, {"type": "Feature", "geometry": {"type": "Polygon", "coordinates": [[[121.59, 24.849999999999998], [121.62, 24.849999999999998], [121.62, 24.88], [121.59, 24.88], [121.59, 24.849999999999998]]]}, "properties": {"temperature": 24.6}}, {"type": "Feature", "geometry": {"type": "Polygon", "coordinates": [[[121.62, 24.849999999999998], [121.65, 24.849999999999998], [121.65, 24.88], [121.62, 24.88], [121.62, 24.849999999999998]]]}, "properties": {"temperature": 24.6}}, {"type": "Feature", "geometry": {"type": "Polygon", "coordinates": [[[121.65, 24.849999999999998], [121.68, 24.849999999999998], [121.68, 24.88], [121.65, 24.88], [121.65, 24.849999999999998]]]}, "properties": {"temperature": 22.3}}, {"type": "Feature", "geometry": {"type": "Polygon", "coordinates": [[[121.68, 24.849999999999998], [121.71000000000001, 24.849999999999998], [121.71000000000001, 24.88], [121.68, 24.88], [121.68, 24.849999999999998]]]}, "properties": {"temperature": 20.4}}, {"type": "Feature", "geometry": {"type": "Polygon", "coordinates": [[[121.71, 24.849999999999998], [121.74, 24.849999999999998], [121.74, 24.88], [121.71, 24.88], [121.71, 24.849999999999998]]]}, "properties": {"temperature": 21.3}}, {"type": "Feature", "geometry": {"type": "Polygon", "coordinates": [[[121.74, 24.849999999999998], [121.77, 24.849999999999998], [121.77, 24.88], [121.74, 24.88], [121.74, 24.849999999999998]]]}, "properties": {"temperature": 24.1}}, {"type": "Feature", "geometry": {"type": "Polygon", "coordinates": [[[121.77, 24.849999999999998], [121.8, 24.849999999999998], [121.8, 24.88], [121.77, 24.88], [121.77, 24.849999999999998]]]}, "properties": {"temperature": 27.2}}, {"type": "Feature", "geometry": {"type": "Polygon", "coordinates": [[[121.8, 24.849999999999998], [121.83, 24.849999999999998], [121.83, 24.88], [121.8, 24.88], [121.8, 24.849999999999998]]]}, "properties": {"temperature": 27.7}}, {"type": "Feature", "geometry": {"type": "Polygon", "coordinates": [[[121.29, 24.88], [121.32000000000001, 24.88], [121.32000000000001, 24.91], [121.29, 24.91], [121.29, 24.88]]]}, "properties": {"temperature": 26.7}}, {"type": "Feature", "geometry": {"type": "Polygon", "coordinates": [[[121.32, 24.88], [121.35, 24.88], [121.35, 24.91], [121.32, 24.91], [121.32, 24.88]]]}, "properties": {"temperature": 26.0}}, {"type": "Feature", "geometry": {"type": "Polygon", "coordinates": [[[121.35, 24.88], [121.38, 24.88], [121.38, 24.91], [121.35, 24.91], [121.35, 24.88]]]}, "properties": {"temperature": 26.7}}, {"type": "Feature", "geometry": {"type": "Polygon", "coordinates": [[[121.38, 24.88], [121.41, 24.88], [121.41, 24.91], [121.38, 24.91], [121.38, 24.88]]]}, "properties": {"temperature": 26.7}}, {"type": "Feature", "geometry": {"type": "Polygon", "coordinates": [[[121.41, 24.88], [121.44, 24.88], [121.44, 24.91], [121.41, 24.91], [121.41, 24.88]]]}, "properties": {"temperature": 25.5}}, {"type": "Feature", "geometry": {"type": "Polygon", "coordinates": [[[121.44, 24.88], [121.47, 24.88], [121.47, 24.91], [121.44, 24.91], [121.44, 24.88]]]}, "properties": {"temperature": 22.8}}, {"type": "Feature", "geometry": {"type": "Polygon", "coordinates": [[[121.47, 24.88], [121.5, 24.88], [121.5, 24.91], [121.47, 24.91], [121.47, 24.88]]]}, "properties": {"temperature": 22.4}}, {"type": "Feature", "geometry": {"type": "Polygon", "coordinates": [[[121.5, 24.88], [121.53, 24.88], [121.53, 24.91], [121.5, 24.91], [121.5, 24.88]]]}, "properties": {"temperature": 26.2}}, {"type": "Feature", "geometry": {"type": "Polygon", "coordinates": [[[121.53, 24.88], [121.56, 24.88], [121.56, 24.91], [121.53, 24.91], [121.53, 24.88]]]}, "properties": {"temperature": 26.3}}, {"type": "Feature", "geometry": {"type": "Polygon", "coordinates": [[[121.56, 24.88], [121.59, 24.88], [121.59, 24.91], [121.56, 24.91], [121.56, 24.88]]]}, "properties": {"temperature": 23.3}}, {"type": "Feature", "geometry": {"type": "Polygon", "coordinates": [[[121.59, 24.88], [121.62, 24.88], [121.62, 24.91], [121.59, 24.91], [121.59, 24.88]]]}, "properties": {"temperature": 26.1}}, {"type": "Feature", "geometry": {"type": "Polygon", "coordinates": [[[121.62, 24.88], [121.65, 24.88], [121.65, 24.91], [121.62, 24.91], [121.62, 24.88]]]}, "properties": {"temperature": 26.4}}, {"type": "Feature", "geometry": {"type": "Polygon", "coordinates": [[[121.65, 24.88], [121.68, 24.88], [121.68, 24.91], [121.65, 24.91], [121.65, 24.88]]]}, "properties": {"temperature": 24.7}}, {"type": "Feature", "geometry": {"type": "Polygon", "coordinates": [[[121.68, 24.88], [121.71000000000001, 24.88], [121.71000000000001, 24.91], [121.68, 24.91], [121.68, 24.88]]]}, "properties": {"temperature": 23.7}}, {"type": "Feature", "geometry": {"type": "Polygon", "coordinates": [[[121.71, 24.88], [121.74, 24.88], [121.74, 24.91], [121.71, 24.91], [121.71, 24.88]]]}, "properties": {"temperature": 25.3}}, {"type": "Feature", "geometry": {"type": "Polygon", "coordinates": [[[121.74, 24.88], [121.77, 24.88], [121.77, 24.91], [121.74, 24.91], [121.74, 24.88]]]}, "properties": {"temperature": 24.2}}, {"type": "Feature", "geometry": {"type": "Polygon", "coordinates": [[[121.77, 24.88], [121.8, 24.88], [121.8, 24.91], [121.77, 24.91], [121.77, 24.88]]]}, "properties": {"temperature": 23.2}}, {"type": "Feature", "geometry": {"type": "Polygon", "coordinates": [[[121.8, 24.88], [121.83, 24.88], [121.83, 24.91], [121.8, 24.91], [121.8, 24.88]]]}, "properties": {"temperature": 27.0}}, {"type": "Feature", "geometry": {"type": "Polygon", "coordinates": [[[121.83, 24.88], [121.86, 24.88], [121.86, 24.91], [121.83, 24.91], [121.83, 24.88]]]}, "properties": {"temperature": 27.6}}, {"type": "Feature", "geometry": {"type": "Polygon", "coordinates": [[[121.29, 24.91], [121.32000000000001, 24.91], [121.32000000000001, 24.94], [121.29, 24.94], [121.29, 24.91]]]}, "properties": {"temperature": 26.6}}, {"type": "Feature", "geometry": {"type": "Polygon", "coordinates": [[[121.32, 24.91], [121.35, 24.91], [121.35, 24.94], [121.32, 24.94], [121.32, 24.91]]]}, "properties": {"temperature": 26.9}}, {"type": "Feature", "geometry": {"type": "Polygon", "coordinates": [[[121.35, 24.91], [121.38, 24.91], [121.38, 24.94], [121.35, 24.94], [121.35, 24.91]]]}, "properties": {"temperature": 26.9}}, {"type": "Feature", "geometry": {"type": "Polygon", "coordinates": [[[121.38, 24.91], [121.41, 24.91], [121.41, 24.94], [121.38, 24.94], [121.38, 24.91]]]}, "properties": {"temperature": 26.8}}, {"type": "Feature", "geometry": {"type": "Polygon", "coordinates": [[[121.41, 24.91], [121.44, 24.91], [121.44, 24.94], [121.41, 24.94], [121.41, 24.91]]]}, "properties": {"temperature": 26.3}}, {"type": "Feature", "geometry": {"type": "Polygon", "coordinates": [[[121.44, 24.91], [121.47, 24.91], [121.47, 24.94], [121.44, 24.94], [121.44, 24.91]]]}, "properties": {"temperature": 26.8}}, {"type": "Feature", "geometry": {"type": "Polygon", "coordinates": [[[121.47, 24.91], [121.5, 24.91], [121.5, 24.94], [121.47, 24.94], [121.47, 24.91]]]}, "properties": {"temperature": 25.3}}, {"type": "Feature", "geometry": {"type": "Polygon", "coordinates": [[[121.5, 24.91], [121.53, 24.91], [121.53, 24.94], [121.5, 24.94], [121.5, 24.91]]]}, "properties": {"temperature": 25.0}}, {"type": "Feature", "geometry": {"type": "Polygon", "coordinates": [[[121.53, 24.91], [121.56, 24.91], [121.56, 24.94], [121.53, 24.94], [121.53, 24.91]]]}, "properties": {"temperature": 27.8}}, {"type": "Feature", "geometry": {"type": "Polygon", "coordinates": [[[121.56, 24.91], [121.59, 24.91], [121.59, 24.94], [121.56, 24.94], [121.56, 24.91]]]}, "properties": {"temperature": 27.2}}, {"type": "Feature", "geometry": {"type": "Polygon", "coordinates": [[[121.59, 24.91], [121.62, 24.91], [121.62, 24.94], [121.59, 24.94], [121.59, 24.91]]]}, "properties": {"temperature": 27.3}}, {"type": "Feature", "geometry": {"type": "Polygon", "coordinates": [[[121.62, 24.91], [121.65, 24.91], [121.65, 24.94], [121.62, 24.94], [121.62, 24.91]]]}, "properties": {"temperature": 27.3}}, {"type": "Feature", "geometry": {"type": "Polygon", "coordinates": [[[121.65, 24.91], [121.68, 24.91], [121.68, 24.94], [121.65, 24.94], [121.65, 24.91]]]}, "properties": {"temperature": 26.4}}, {"type": "Feature", "geometry": {"type": "Polygon", "coordinates": [[[121.68, 24.91], [121.71000000000001, 24.91], [121.71000000000001, 24.94], [121.68, 24.94], [121.68, 24.91]]]}, "properties": {"temperature": 26.0}}, {"type": "Feature", "geometry": {"type": "Polygon", "coordinates": [[[121.71, 24.91], [121.74, 24.91], [121.74, 24.94], [121.71, 24.94], [121.71, 24.91]]]}, "properties": {"temperature": 25.4}}, {"type": "Feature", "geometry": {"type": "Polygon", "coordinates": [[[121.74, 24.91], [121.77, 24.91], [121.77, 24.94], [121.74, 24.94], [121.74, 24.91]]]}, "properties": {"temperature": 23.3}}, {"type": "Feature", "geometry": {"type": "Polygon", "coordinates": [[[121.77, 24.91], [121.8, 24.91], [121.8, 24.94], [121.77, 24.94], [121.77, 24.91]]]}, "properties": {"temperature": 23.3}}, {"type": "Feature", "geometry": {"type": "Polygon", "coordinates": [[[121.8, 24.91], [121.83, 24.91], [121.83, 24.94], [121.8, 24.94], [121.8, 24.91]]]}, "properties": {"temperature": 23.6}}, {"type": "Feature", "geometry": {"type": "Polygon", "coordinates": [[[121.83, 24.91], [121.86, 24.91], [121.86, 24.94], [121.83, 24.94], [121.83, 24.91]]]}, "properties": {"temperature": 24.0}}, {"type": "Feature", "geometry": {"type": "Polygon", "coordinates": [[[121.86, 24.91], [121.89, 24.91], [121.89, 24.94], [121.86, 24.94], [121.86, 24.91]]]}, "properties": {"temperature": 26.4}}, {"type": "Feature", "geometry": {"type": "Polygon", "coordinates": [[[121.29, 24.939999999999998], [121.32000000000001, 24.939999999999998], [121.32000000000001, 24.97], [121.29, 24.97], [121.29, 24.939999999999998]]]}, "properties": {"temperature": 26.0}}, {"type": "Feature", "geometry": {"type": "Polygon", "coordinates": [[[121.32, 24.939999999999998], [121.35, 24.939999999999998], [121.35, 24.97], [121.32, 24.97], [121.32, 24.939999999999998]]]}, "properties": {"temperature": 26.3}}, {"type": "Feature", "geometry": {"type": "Polygon", "coordinates": [[[121.35, 24.939999999999998], [121.38, 24.939999999999998], [121.38, 24.97], [121.35, 24.97], [121.35, 24.939999999999998]]]}, "properties": {"temperature": 27.0}}, {"type": "Feature", "geometry": {"type": "Polygon", "coordinates": [[[121.38, 24.939999999999998], [121.41, 24.939999999999998], [121.41, 24.97], [121.38, 24.97], [121.38, 24.939999999999998]]]}, "properties": {"temperature": 26.5}}, {"type": "Feature", "geometry": {"type": "Polygon", "coordinates": [[[121.41, 24.939999999999998], [121.44, 24.939999999999998], [121.44, 24.97], [121.41, 24.97], [121.41, 24.939999999999998]]]}, "properties": {"temperature": 27.0}}, {"type": "Feature", "geometry": {"type": "Polygon", "coordinates": [[[121.44, 24.939999999999998], [121.47, 24.939999999999998], [121.47, 24.97], [121.44, 24.97], [121.44, 24.939999999999998]]]}, "properties": {"temperature": 25.6}}, {"type": "Feature", "geometry": {"type": "Polygon", "coordinates": [[[121.47, 24.939999999999998], [121.5, 24.939999999999998], [121.5, 24.97], [121.47, 24.97], [121.47, 24.939999999999998]]]}, "properties": {"temperature": 26.8}}, {"type": "Feature", "geometry": {"type": "Polygon", "coordinates": [[[121.5, 24.939999999999998], [121.53, 24.939999999999998], [121.53, 24.97], [121.5, 24.97], [121.5, 24.939999999999998]]]}, "properties": {"temperature": 26.9}}, {"type": "Feature", "geometry": {"type": "Polygon", "coordinates": [[[121.53, 24.939999999999998], [121.56, 24.939999999999998], [121.56, 24.97], [121.53, 24.97], [121.53, 24.939999999999998]]]}, "properties": {"temperature": 27.8}}, {"type": "Feature", "geometry": {"type": "Polygon", "coordinates": [[[121.56, 24.939999999999998], [121.59, 24.939999999999998], [121.59, 24.97], [121.56, 24.97], [121.56, 24.939999999999998]]]}, "properties": {"temperature": 26.2}}, {"type": "Feature", "geometry": {"type": "Polygon", "coordinates": [[[121.59, 24.939999999999998], [121.62, 24.939999999999998], [121.62, 24.97], [121.59, 24.97], [121.59, 24.939999999999998]]]}, "properties": {"temperature": 25.6}}, {"type": "Feature", "geometry": {"type": "Polygon", "coordinates": [[[121.62, 24.939999999999998], [121.65, 24.939999999999998], [121.65, 24.97], [121.62, 24.97], [121.62, 24.939999999999998]]]}, "properties": {"temperature": 26.4}}, {"type": "Feature", "geometry": {"type": "Polygon", "coordinates": [[[121.65, 24.939999999999998], [121.68, 24.939999999999998], [121.68, 24.97], [121.65, 24.97], [121.65, 24.939999999999998]]]}, "properties": {"temperature": 26.5}}, {"type": "Feature", "geometry": {"type": "Polygon", "coordinates": [[[121.68, 24.939999999999998], [121.71000000000001, 24.939999999999998], [121.71000000000001, 24.97], [121.68, 24.97], [121.68, 24.939999999999998]]]}, "properties": {"temperature": 26.4}}, {"type": "Feature", "geometry": {"type": "Polygon", "coordinates": [[[121.71, 24.939999999999998], [121.74, 24.939999999999998], [121.74, 24.97], [121.71, 24.97], [121.71, 24.939999999999998]]]}, "properties": {"temperature": 24.5}}, {"type": "Feature", "geometry": {"type": "Polygon", "coordinates": [[[121.74, 24.939999999999998], [121.77, 24.939999999999998], [121.77, 24.97], [121.74, 24.97], [121.74, 24.939999999999998]]]}, "properties": {"temperature": 25.5}}, {"type": "Feature", "geometry": {"type": "Polygon", "coordinates": [[[121.77, 24.939999999999998], [121.8, 24.939999999999998], [121.8, 24.97], [121.77, 24.97], [121.77, 24.939999999999998]]]}, "properties": {"temperature": 22.6}}, {"type": "Feature", "geometry": {"type": "Polygon", "coordinates": [[[121.8, 24.939999999999998], [121.83, 24.939999999999998], [121.83, 24.97], [121.8, 24.97], [121.8, 24.939999999999998]]]}, "properties": {"temperature": 24.2}}, {"type": "Feature", "geometry": {"type": "Polygon", "coordinates": [[[121.83, 24.939999999999998], [121.86, 24.939999999999998], [121.86, 24.97], [121.83, 24.97], [121.83, 24.939999999999998]]]}, "properties": {"temperature": 23.1}}, {"type": "Feature", "geometry": {"type": "Polygon", "coordinates": [[[121.86, 24.939999999999998], [121.89, 24.939999999999998], [121.89, 24.97], [121.86, 24.97], [121.86, 24.939999999999998]]]}, "properties": {"temperature": 25.8}}, {"type": "Feature", "geometry": {"type": "Polygon", "coordinates": [[[121.29, 24.97], [121.32000000000001, 24.97], [121.32000000000001, 25.0], [121.29, 25.0], [121.29, 24.97]]]}, "properties": {"temperature": 26.1}}, {"type": "Feature", "geometry": {"type": "Polygon", "coordinates": [[[121.32, 24.97], [121.35, 24.97], [121.35, 25.0], [121.32, 25.0], [121.32, 24.97]]]}, "properties": {"temperature": 26.2}}, {"type": "Feature", "geometry": {"type": "Polygon", "coordinates": [[[121.35, 24.97], [121.38, 24.97], [121.38, 25.0], [121.35, 25.0], [121.35, 24.97]]]}, "properties": {"temperature": 26.4}}, {"type": "Feature", "geometry": {"type": "Polygon", "coordinates": [[[121.38, 24.97], [121.41, 24.97], [121.41, 25.0], [121.38, 25.0], [121.38, 24.97]]]}, "properties": {"temperature": 26.9}}, {"type": "Feature", "geometry": {"type": "Polygon", "coordinates": [[[121.41, 24.97], [121.44, 24.97], [121.44, 25.0], [121.41, 25.0], [121.41, 24.97]]]}, "properties": {"temperature": 27.1}}, {"type": "Feature", "geometry": {"type": "Polygon", "coordinates": [[[121.44, 24.97], [121.47, 24.97], [121.47, 25.0], [121.44, 25.0], [121.44, 24.97]]]}, "properties": {"temperature": 25.8}}, {"type": "Feature", "geometry": {"type": "Polygon", "coordinates": [[[121.47, 24.97], [121.5, 24.97], [121.5, 25.0], [121.47, 25.0], [121.47, 24.97]]]}, "properties": {"temperature": 27.4}}, {"type": "Feature", "geometry": {"type": "Polygon", "coordinates": [[[121.5, 24.97], [121.53, 24.97], [121.53, 25.0], [121.5, 25.0], [121.5, 24.97]]]}, "properties": {"temperature": 27.6}}, {"type": "Feature", "geometry": {"type": "Polygon", "coordinates": [[[121.53, 24.97], [121.56, 24.97], [121.56, 25.0], [121.53, 25.0], [121.53, 24.97]]]}, "properties": {"temperature": 27.8}}, {"type": "Feature", "geometry": {"type": "Polygon", "coordinates": [[[121.56, 24.97], [121.59, 24.97], [121.59, 25.0], [121.56, 25.0], [121.56, 24.97]]]}, "properties": {"temperature": 27.9}}, {"type": "Feature", "geometry": {"type": "Polygon", "coordinates": [[[121.59, 24.97], [121.62, 24.97], [121.62, 25.0], [121.59, 25.0], [121.59, 24.97]]]}, "properties": {"temperature": 27.3}}, {"type": "Feature", "geometry": {"type": "Polygon", "coordinates": [[[121.62, 24.97], [121.65, 24.97], [121.65, 25.0], [121.62, 25.0], [121.62, 24.97]]]}, "properties": {"temperature": 25.8}}, {"type": "Feature", "geometry": {"type": "Polygon", "coordinates": [[[121.65, 24.97], [121.68, 24.97], [121.68, 25.0], [121.65, 25.0], [121.65, 24.97]]]}, "properties": {"temperature": 27.0}}, {"type": "Feature", "geometry": {"type": "Polygon", "coordinates": [[[121.68, 24.97], [121.71000000000001, 24.97], [121.71000000000001, 25.0], [121.68, 25.0], [121.68, 24.97]]]}, "properties": {"temperature": 26.1}}, {"type": "Feature", "geometry": {"type": "Polygon", "coordinates": [[[121.71, 24.97], [121.74, 24.97], [121.74, 25.0], [121.71, 25.0], [121.71, 24.97]]]}, "properties": {"temperature": 22.1}}, {"type": "Feature", "geometry": {"type": "Polygon", "coordinates": [[[121.74, 24.97], [121.77, 24.97], [121.77, 25.0], [121.74, 25.0], [121.74, 24.97]]]}, "properties": {"temperature": 25.5}}, {"type": "Feature", "geometry": {"type": "Polygon", "coordinates": [[[121.77, 24.97], [121.8, 24.97], [121.8, 25.0], [121.77, 25.0], [121.77, 24.97]]]}, "properties": {"temperature": 25.4}}, {"type": "Feature", "geometry": {"type": "Polygon", "coordinates": [[[121.8, 24.97], [121.83, 24.97], [121.83, 25.0], [121.8, 25.0], [121.8, 24.97]]]}, "properties": {"temperature": 24.4}}, {"type": "Feature", "geometry": {"type": "Polygon", "coordinates": [[[121.83, 24.97], [121.86, 24.97], [121.86, 25.0], [121.83, 25.0], [121.83, 24.97]]]}, "properties": {"temperature": 24.3}}, {"type": "Feature", "geometry": {"type": "Polygon", "coordinates": [[[121.86, 24.97], [121.89, 24.97], [121.89, 25.0], [121.86, 25.0], [121.86, 24.97]]]}, "properties": {"temperature": 25.6}}, {"type": "Feature", "geometry": {"type": "Polygon", "coordinates": [[[121.89, 24.97], [121.92, 24.97], [121.92, 25.0], [121.89, 25.0], [121.89, 24.97]]]}, "properties": {"temperature": 25.7}}, {"type": "Feature", "geometry": {"type": "Polygon", "coordinates": [[[121.29, 25.0], [121.32000000000001, 25.0], [121.32000000000001, 25.03], [121.29, 25.03], [121.29, 25.0]]]}, "properties": {"temperature": 26.2}}, {"type": "Feature", "geometry": {"type": "Polygon", "coordinates": [[[121.32, 25.0], [121.35, 25.0], [121.35, 25.03], [121.32, 25.03], [121.32, 25.0]]]}, "properties": {"temperature": 26.6}}, {"type": "Feature", "geometry": {"type": "Polygon", "coordinates": [[[121.35, 25.0], [121.38, 25.0], [121.38, 25.03], [121.35, 25.03], [121.35, 25.0]]]}, "properties": {"temperature": 25.8}}, {"type": "Feature", "geometry": {"type": "Polygon", "coordinates": [[[121.38, 25.0], [121.41, 25.0], [121.41, 25.03], [121.38, 25.03], [121.38, 25.0]]]}, "properties": {"temperature": 25.8}}, {"type": "Feature", "geometry": {"type": "Polygon", "coordinates": [[[121.41, 25.0], [121.44, 25.0], [121.44, 25.03], [121.41, 25.03], [121.41, 25.0]]]}, "properties": {"temperature": 27.0}}, {"type": "Feature", "geometry": {"type": "Polygon", "coordinates": [[[121.44, 25.0], [121.47, 25.0], [121.47, 25.03], [121.44, 25.03], [121.44, 25.0]]]}, "properties": {"temperature": 27.1}}, {"type": "Feature", "geometry": {"type": "Polygon", "coordinates": [[[121.47, 25.0], [121.5, 25.0], [121.5, 25.03], [121.47, 25.03], [121.47, 25.0]]]}, "properties": {"temperature": 27.3}}, {"type": "Feature", "geometry": {"type": "Polygon", "coordinates": [[[121.5, 25.0], [121.53, 25.0], [121.53, 25.03], [121.5, 25.03], [121.5, 25.0]]]}, "properties": {"temperature": 27.4}}, {"type": "Feature", "geometry": {"type": "Polygon", "coordinates": [[[121.53, 25.0], [121.56, 25.0], [121.56, 25.03], [121.53, 25.03], [121.53, 25.0]]]}, "properties": {"temperature": 27.7}}, {"type": "Feature", "geometry": {"type": "Polygon", "coordinates": [[[121.56, 25.0], [121.59, 25.0], [121.59, 25.03], [121.56, 25.03], [121.56, 25.0]]]}, "properties": {"temperature": 27.8}}, {"type": "Feature", "geometry": {"type": "Polygon", "coordinates": [[[121.59, 25.0], [121.62, 25.0], [121.62, 25.03], [121.59, 25.03], [121.59, 25.0]]]}, "properties": {"temperature": 28.5}}, {"type": "Feature", "geometry": {"type": "Polygon", "coordinates": [[[121.62, 25.0], [121.65, 25.0], [121.65, 25.03], [121.62, 25.03], [121.62, 25.0]]]}, "properties": {"temperature": 28.8}}, {"type": "Feature", "geometry": {"type": "Polygon", "coordinates": [[[121.65, 25.0], [121.68, 25.0], [121.68, 25.03], [121.65, 25.03], [121.65, 25.0]]]}, "properties": {"temperature": 26.1}}, {"type": "Feature", "geometry": {"type": "Polygon", "coordinates": [[[121.68, 25.0], [121.71000000000001, 25.0], [121.71000000000001, 25.03], [121.68, 25.03], [121.68, 25.0]]]}, "properties": {"temperature": 26.6}}, {"type": "Feature", "geometry": {"type": "Polygon", "coordinates": [[[121.71, 25.0], [121.74, 25.0], [121.74, 25.03], [121.71, 25.03], [121.71, 25.0]]]}, "properties": {"temperature": 25.6}}, {"type": "Feature", "geometry": {"type": "Polygon", "coordinates": [[[121.74, 25.0], [121.77, 25.0], [121.77, 25.03], [121.74, 25.03], [121.74, 25.0]]]}, "properties": {"temperature": 26.2}}, {"type": "Feature", "geometry": {"type": "Polygon", "coordinates": [[[121.77, 25.0], [121.8, 25.0], [121.8, 25.03], [121.77, 25.03], [121.77, 25.0]]]}, "properties": {"temperature": 25.4}}, {"type": "Feature", "geometry": {"type": "Polygon", "coordinates": [[[121.8, 25.0], [121.83, 25.0], [121.83, 25.03], [121.8, 25.03], [121.8, 25.0]]]}, "properties": {"temperature": 25.7}}, {"type": "Feature", "geometry": {"type": "Polygon", "coordinates": [[[121.83, 25.0], [121.86, 25.0], [121.86, 25.03], [121.83, 25.03], [121.83, 25.0]]]}, "properties": {"temperature": 26.5}}, {"type": "Feature", "geometry": {"type": "Polygon", "coordinates": [[[121.86, 25.0], [121.89, 25.0], [121.89, 25.03], [121.86, 25.03], [121.86, 25.0]]]}, "properties": {"temperature": 27.1}}, {"type": "Feature", "geometry": {"type": "Polygon", "coordinates": [[[121.89, 25.0], [121.92, 25.0], [121.92, 25.03], [121.89, 25.03], [121.89, 25.0]]]}, "properties": {"temperature": 27.3}}, {"type": "Feature", "geometry": {"type": "Polygon", "coordinates": [[[121.92, 25.0], [121.95, 25.0], [121.95, 25.03], [121.92, 25.03], [121.92, 25.0]]]}, "properties": {"temperature": 26.7}}, {"type": "Feature", "geometry": {"type": "Polygon", "coordinates": [[[121.95, 25.0], [121.98, 25.0], [121.98, 25.03], [121.95, 25.03], [121.95, 25.0]]]}, "properties": {"temperature": 26.7}}, {"type": "Feature", "geometry": {"type": "Polygon", "coordinates": [[[121.98, 25.0], [122.01, 25.0], [122.01, 25.03], [121.98, 25.03], [121.98, 25.0]]]}, "properties": {"temperature": 27.0}}, {"type": "Feature", "geometry": {"type": "Polygon", "coordinates": [[[121.29, 25.029999999999998], [121.32000000000001, 25.029999999999998], [121.32000000000001, 25.06], [121.29, 25.06], [121.29, 25.029999999999998]]]}, "properties": {"temperature": 26.4}}, {"type": "Feature", "geometry": {"type": "Polygon", "coordinates": [[[121.32, 25.029999999999998], [121.35, 25.029999999999998], [121.35, 25.06], [121.32, 25.06], [121.32, 25.029999999999998]]]}, "properties": {"temperature": 25.6}}, {"type": "Feature", "geometry": {"type": "Polygon", "coordinates": [[[121.35, 25.029999999999998], [121.38, 25.029999999999998], [121.38, 25.06], [121.35, 25.06], [121.35, 25.029999999999998]]]}, "properties": {"temperature": 25.1}}, {"type": "Feature", "geometry": {"type": "Polygon", "coordinates": [[[121.38, 25.029999999999998], [121.41, 25.029999999999998], [121.41, 25.06], [121.38, 25.06], [121.38, 25.029999999999998]]]}, "properties": {"temperature": 24.5}}, {"type": "Feature", "geometry": {"type": "Polygon", "coordinates": [[[121.41, 25.029999999999998], [121.44, 25.029999999999998], [121.44, 25.06], [121.41, 25.06], [121.41, 25.029999999999998]]]}, "properties": {"temperature": 26.9}}, {"type": "Feature", "geometry": {"type": "Polygon", "coordinates": [[[121.44, 25.029999999999998], [121.47, 25.029999999999998], [121.47, 25.06], [121.44, 25.06], [121.44, 25.029999999999998]]]}, "properties": {"temperature": 27.0}}, {"type": "Feature", "geometry": {"type": "Polygon", "coordinates": [[[121.47, 25.029999999999998], [121.5, 25.029999999999998], [121.5, 25.06], [121.47, 25.06], [121.47, 25.029999999999998]]]}, "properties": {"temperature": 27.2}}, {"type": "Feature", "geometry": {"type": "Polygon", "coordinates": [[[121.5, 25.029999999999998], [121.53, 25.029999999999998], [121.53, 25.06], [121.5, 25.06], [121.5, 25.029999999999998]]]}, "properties": {"temperature": 27.4}}, {"type": "Feature", "geometry": {"type": "Polygon", "coordinates": [[[121.53, 25.029999999999998], [121.56, 25.029999999999998], [121.56, 25.06], [121.53, 25.06], [121.53, 25.029999999999998]]]}, "properties": {"temperature": 28.2}}, {"type": "Feature", "geometry": {"type": "Polygon", "coordinates": [[[121.56, 25.029999999999998], [121.59, 25.029999999999998], [121.59, 25.06], [121.56, 25.06], [121.56, 25.029999999999998]]]}, "properties": {"temperature": 27.9}}, {"type": "Feature", "geometry": {"type": "Polygon", "coordinates": [[[121.59, 25.029999999999998], [121.62, 25.029999999999998], [121.62, 25.06], [121.59, 25.06], [121.59, 25.029999999999998]]]}, "properties": {"temperature": 28.0}}, {"type": "Feature", "geometry": {"type": "Polygon", "coordinates": [[[121.62, 25.029999999999998], [121.65, 25.029999999999998], [121.65, 25.06], [121.62, 25.06], [121.62, 25.029999999999998]]]}, "properties": {"temperature": 28.2}}, {"type": "Feature", "geometry": {"type": "Polygon", "coordinates": [[[121.65, 25.029999999999998], [121.68, 25.029999999999998], [121.68, 25.06], [121.65, 25.06], [121.65, 25.029999999999998]]]}, "properties": {"temperature": 26.5}}, {"type": "Feature", "geometry": {"type": "Polygon", "coordinates": [[[121.68, 25.029999999999998], [121.71000000000001, 25.029999999999998], [121.71000000000001, 25.06], [121.68, 25.06], [121.68, 25.029999999999998]]]}, "properties": {"temperature": 25.6}}, {"type": "Feature", "geometry": {"type": "Polygon", "coordinates": [[[121.71, 25.029999999999998], [121.74, 25.029999999999998], [121.74, 25.06], [121.71, 25.06], [121.71, 25.029999999999998]]]}, "properties": {"temperature": 25.7}}, {"type": "Feature", "geometry": {"type": "Polygon", "coordinates": [[[121.74, 25.029999999999998], [121.77, 25.029999999999998], [121.77, 25.06], [121.74, 25.06], [121.74, 25.029999999999998]]]}, "properties": {"temperature": 26.6}}, {"type": "Feature", "geometry": {"type": "Polygon", "coordinates": [[[121.77, 25.029999999999998], [121.8, 25.029999999999998], [121.8, 25.06], [121.77, 25.06], [121.77, 25.029999999999998]]]}, "properties": {"temperature": 26.8}}, {"type": "Feature", "geometry": {"type": "Polygon", "coordinates": [[[121.8, 25.029999999999998], [121.83, 25.029999999999998], [121.83, 25.06], [121.8, 25.06], [121.8, 25.029999999999998]]]}, "properties": {"temperature": 27.1}}, {"type": "Feature", "geometry": {"type": "Polygon", "coordinates": [[[121.83, 25.029999999999998], [121.86, 25.029999999999998], [121.86, 25.06], [121.83, 25.06], [121.83, 25.029999999999998]]]}, "properties": {"temperature": 27.7}}, {"type": "Feature", "geometry": {"type": "Polygon", "coordinates": [[[121.86, 25.029999999999998], [121.89, 25.029999999999998], [121.89, 25.06], [121.86, 25.06], [121.86, 25.029999999999998]]]}, "properties": {"temperature": 28.5}}, {"type": "Feature", "geometry": {"type": "Polygon", "coordinates": [[[121.89, 25.029999999999998], [121.92, 25.029999999999998], [121.92, 25.06], [121.89, 25.06], [121.89, 25.029999999999998]]]}, "properties": {"temperature": 27.7}}, {"type": "Feature", "geometry": {"type": "Polygon", "coordinates": [[[121.92, 25.029999999999998], [121.95, 25.029999999999998], [121.95, 25.06], [121.92, 25.06], [121.92, 25.029999999999998]]]}, "properties": {"temperature": 27.6}}, {"type": "Feature", "geometry": {"type": "Polygon", "coordinates": [[[121.29, 25.06], [121.32000000000001, 25.06], [121.32000000000001, 25.09], [121.29, 25.09], [121.29, 25.06]]]}, "properties": {"temperature": 26.3}}, {"type": "Feature", "geometry": {"type": "Polygon", "coordinates": [[[121.32, 25.06], [121.35, 25.06], [121.35, 25.09], [121.32, 25.09], [121.32, 25.06]]]}, "properties": {"temperature": 25.5}}, {"type": "Feature", "geometry": {"type": "Polygon", "coordinates": [[[121.35, 25.06], [121.38, 25.06], [121.38, 25.09], [121.35, 25.09], [121.35, 25.06]]]}, "properties": {"temperature": 25.0}}, {"type": "Feature", "geometry": {"type": "Polygon", "coordinates": [[[121.38, 25.06], [121.41, 25.06], [121.41, 25.09], [121.38, 25.09], [121.38, 25.06]]]}, "properties": {"temperature": 24.8}}, {"type": "Feature", "geometry": {"type": "Polygon", "coordinates": [[[121.41, 25.06], [121.44, 25.06], [121.44, 25.09], [121.41, 25.09], [121.41, 25.06]]]}, "properties": {"temperature": 26.7}}, {"type": "Feature", "geometry": {"type": "Polygon", "coordinates": [[[121.44, 25.06], [121.47, 25.06], [121.47, 25.09], [121.44, 25.09], [121.44, 25.06]]]}, "properties": {"temperature": 25.2}}, {"type": "Feature", "geometry": {"type": "Polygon", "coordinates": [[[121.47, 25.06], [121.5, 25.06], [121.5, 25.09], [121.47, 25.09], [121.47, 25.06]]]}, "properties": {"temperature": 26.9}}, {"type": "Feature", "geometry": {"type": "Polygon", "coordinates": [[[121.5, 25.06], [121.53, 25.06], [121.53, 25.09], [121.5, 25.09], [121.5, 25.06]]]}, "properties": {"temperature": 26.4}}, {"type": "Feature", "geometry": {"type": "Polygon", "coordinates": [[[121.53, 25.06], [121.56, 25.06], [121.56, 25.09], [121.53, 25.09], [121.53, 25.06]]]}, "properties": {"temperature": 27.4}}, {"type": "Feature", "geometry": {"type": "Polygon", "coordinates": [[[121.56, 25.06], [121.59, 25.06], [121.59, 25.09], [121.56, 25.09], [121.56, 25.06]]]}, "properties": {"temperature": 27.7}}, {"type": "Feature", "geometry": {"type": "Polygon", "coordinates": [[[121.59, 25.06], [121.62, 25.06], [121.62, 25.09], [121.59, 25.09], [121.59, 25.06]]]}, "properties": {"temperature": 27.9}}, {"type": "Feature", "geometry": {"type": "Polygon", "coordinates": [[[121.62, 25.06], [121.65, 25.06], [121.65, 25.09], [121.62, 25.09], [121.62, 25.06]]]}, "properties": {"temperature": 28.1}}, {"type": "Feature", "geometry": {"type": "Polygon", "coordinates": [[[121.65, 25.06], [121.68, 25.06], [121.68, 25.09], [121.65, 25.09], [121.65, 25.06]]]}, "properties": {"temperature": 28.2}}, {"type": "Feature", "geometry": {"type": "Polygon", "coordinates": [[[121.68, 25.06], [121.71000000000001, 25.06], [121.71000000000001, 25.09], [121.68, 25.09], [121.68, 25.06]]]}, "properties": {"temperature": 28.1}}, {"type": "Feature", "geometry": {"type": "Polygon", "coordinates": [[[121.71, 25.06], [121.74, 25.06], [121.74, 25.09], [121.71, 25.09], [121.71, 25.06]]]}, "properties": {"temperature": 26.8}}, {"type": "Feature", "geometry": {"type": "Polygon", "coordinates": [[[121.74, 25.06], [121.77, 25.06], [121.77, 25.09], [121.74, 25.09], [121.74, 25.06]]]}, "properties": {"temperature": 26.7}}, {"type": "Feature", "geometry": {"type": "Polygon", "coordinates": [[[121.77, 25.06], [121.8, 25.06], [121.8, 25.09], [121.77, 25.09], [121.77, 25.06]]]}, "properties": {"temperature": 26.3}}, {"type": "Feature", "geometry": {"type": "Polygon", "coordinates": [[[121.8, 25.06], [121.83, 25.06], [121.83, 25.09], [121.8, 25.09], [121.8, 25.06]]]}, "properties": {"temperature": 27.3}}, {"type": "Feature", "geometry": {"type": "Polygon", "coordinates": [[[121.83, 25.06], [121.86, 25.06], [121.86, 25.09], [121.83, 25.09], [121.83, 25.06]]]}, "properties": {"temperature": 26.5}}, {"type": "Feature", "geometry": {"type": "Polygon", "coordinates": [[[121.86, 25.06], [121.89, 25.06], [121.89, 25.09], [121.86, 25.09], [121.86, 25.06]]]}, "properties": {"temperature": 27.2}}, {"type": "Feature", "geometry": {"type": "Polygon", "coordinates": [[[121.89, 25.06], [121.92, 25.06], [121.92, 25.09], [121.89, 25.09], [121.89, 25.06]]]}, "properties": {"temperature": 26.9}}, {"type": "Feature", "geometry": {"type": "Polygon", "coordinates": [[[121.29, 25.09], [121.32000000000001, 25.09], [121.32000000000001, 25.12], [121.29, 25.12], [121.29, 25.09]]]}, "properties": {"temperature": 26.3}}, {"type": "Feature", "geometry": {"type": "Polygon", "coordinates": [[[121.32, 25.09], [121.35, 25.09], [121.35, 25.12], [121.32, 25.12], [121.32, 25.09]]]}, "properties": {"temperature": 25.4}}, {"type": "Feature", "geometry": {"type": "Polygon", "coordinates": [[[121.35, 25.09], [121.38, 25.09], [121.38, 25.12], [121.35, 25.12], [121.35, 25.09]]]}, "properties": {"temperature": 25.4}}, {"type": "Feature", "geometry": {"type": "Polygon", "coordinates": [[[121.38, 25.09], [121.41, 25.09], [121.41, 25.12], [121.38, 25.12], [121.38, 25.09]]]}, "properties": {"temperature": 24.6}}, {"type": "Feature", "geometry": {"type": "Polygon", "coordinates": [[[121.41, 25.09], [121.44, 25.09], [121.44, 25.12], [121.41, 25.12], [121.41, 25.09]]]}, "properties": {"temperature": 25.9}}, {"type": "Feature", "geometry": {"type": "Polygon", "coordinates": [[[121.44, 25.09], [121.47, 25.09], [121.47, 25.12], [121.44, 25.12], [121.44, 25.09]]]}, "properties": {"temperature": 26.7}}, {"type": "Feature", "geometry": {"type": "Polygon", "coordinates": [[[121.47, 25.09], [121.5, 25.09], [121.5, 25.12], [121.47, 25.12], [121.47, 25.09]]]}, "properties": {"temperature": 25.8}}, {"type": "Feature", "geometry": {"type": "Polygon", "coordinates": [[[121.5, 25.09], [121.53, 25.09], [121.53, 25.12], [121.5, 25.12], [121.5, 25.09]]]}, "properties": {"temperature": 26.9}}, {"type": "Feature", "geometry": {"type": "Polygon", "coordinates": [[[121.53, 25.09], [121.56, 25.09], [121.56, 25.12], [121.53, 25.12], [121.53, 25.09]]]}, "properties": {"temperature": 27.3}}, {"type": "Feature", "geometry": {"type": "Polygon", "coordinates": [[[121.56, 25.09], [121.59, 25.09], [121.59, 25.12], [121.56, 25.12], [121.56, 25.09]]]}, "properties": {"temperature": 27.7}}, {"type": "Feature", "geometry": {"type": "Polygon", "coordinates": [[[121.59, 25.09], [121.62, 25.09], [121.62, 25.12], [121.59, 25.12], [121.59, 25.09]]]}, "properties": {"temperature": 27.9}}, {"type": "Feature", "geometry": {"type": "Polygon", "coordinates": [[[121.62, 25.09], [121.65, 25.09], [121.65, 25.12], [121.62, 25.12], [121.62, 25.09]]]}, "properties": {"temperature": 28.0}}, {"type": "Feature", "geometry": {"type": "Polygon", "coordinates": [[[121.65, 25.09], [121.68, 25.09], [121.68, 25.12], [121.65, 25.12], [121.65, 25.09]]]}, "properties": {"temperature": 27.8}}, {"type": "Feature", "geometry": {"type": "Polygon", "coordinates": [[[121.68, 25.09], [121.71000000000001, 25.09], [121.71000000000001, 25.12], [121.68, 25.12], [121.68, 25.09]]]}, "properties": {"temperature": 27.3}}, {"type": "Feature", "geometry": {"type": "Polygon", "coordinates": [[[121.71, 25.09], [121.74, 25.09], [121.74, 25.12], [121.71, 25.12], [121.71, 25.09]]]}, "properties": {"temperature": 29.6}}, {"type": "Feature", "geometry": {"type": "Polygon", "coordinates": [[[121.74, 25.09], [121.77, 25.09], [121.77, 25.12], [121.74, 25.12], [121.74, 25.09]]]}, "properties": {"temperature": 28.1}}, {"type": "Feature", "geometry": {"type": "Polygon", "coordinates": [[[121.77, 25.09], [121.8, 25.09], [121.8, 25.12], [121.77, 25.12], [121.77, 25.09]]]}, "properties": {"temperature": 27.7}}, {"type": "Feature", "geometry": {"type": "Polygon", "coordinates": [[[121.8, 25.09], [121.83, 25.09], [121.83, 25.12], [121.8, 25.12], [121.8, 25.09]]]}, "properties": {"temperature": 25.8}}, {"type": "Feature", "geometry": {"type": "Polygon", "coordinates": [[[121.83, 25.09], [121.86, 25.09], [121.86, 25.12], [121.83, 25.12], [121.83, 25.09]]]}, "properties": {"temperature": 27.2}}, {"type": "Feature", "geometry": {"type": "Polygon", "coordinates": [[[121.86, 25.09], [121.89, 25.09], [121.89, 25.12], [121.86, 25.12], [121.86, 25.09]]]}, "properties": {"temperature": 25.2}}, {"type": "Feature", "geometry": {"type": "Polygon", "coordinates": [[[121.89, 25.09], [121.92, 25.09], [121.92, 25.12], [121.89, 25.12], [121.89, 25.09]]]}, "properties": {"temperature": 26.3}}, {"type": "Feature", "geometry": {"type": "Polygon", "coordinates": [[[121.38, 25.119999999999997], [121.41, 25.119999999999997], [121.41, 25.15], [121.38, 25.15], [121.38, 25.119999999999997]]]}, "properties": {"temperature": 25.9}}, {"type": "Feature", "geometry": {"type": "Polygon", "coordinates": [[[121.41, 25.119999999999997], [121.44, 25.119999999999997], [121.44, 25.15], [121.41, 25.15], [121.41, 25.119999999999997]]]}, "properties": {"temperature": 25.8}}, {"type": "Feature", "geometry": {"type": "Polygon", "coordinates": [[[121.44, 25.119999999999997], [121.47, 25.119999999999997], [121.47, 25.15], [121.44, 25.15], [121.44, 25.119999999999997]]]}, "properties": {"temperature": 25.9}}, {"type": "Feature", "geometry": {"type": "Polygon", "coordinates": [[[121.47, 25.119999999999997], [121.5, 25.119999999999997], [121.5, 25.15], [121.47, 25.15], [121.47, 25.119999999999997]]]}, "properties": {"temperature": 26.5}}, {"type": "Feature", "geometry": {"type": "Polygon", "coordinates": [[[121.5, 25.119999999999997], [121.53, 25.119999999999997], [121.53, 25.15], [121.5, 25.15], [121.5, 25.119999999999997]]]}, "properties": {"temperature": 26.9}}, {"type": "Feature", "geometry": {"type": "Polygon", "coordinates": [[[121.53, 25.119999999999997], [121.56, 25.119999999999997], [121.56, 25.15], [121.53, 25.15], [121.53, 25.119999999999997]]]}, "properties": {"temperature": 27.5}}, {"type": "Feature", "geometry": {"type": "Polygon", "coordinates": [[[121.56, 25.119999999999997], [121.59, 25.119999999999997], [121.59, 25.15], [121.56, 25.15], [121.56, 25.119999999999997]]]}, "properties": {"temperature": 26.1}}, {"type": "Feature", "geometry": {"type": "Polygon", "coordinates": [[[121.59, 25.119999999999997], [121.62, 25.119999999999997], [121.62, 25.15], [121.59, 25.15], [121.59, 25.119999999999997]]]}, "properties": {"temperature": 25.3}}, {"type": "Feature", "geometry": {"type": "Polygon", "coordinates": [[[121.62, 25.119999999999997], [121.65, 25.119999999999997], [121.65, 25.15], [121.62, 25.15], [121.62, 25.119999999999997]]]}, "properties": {"temperature": 27.0}}, {"type": "Feature", "geometry": {"type": "Polygon", "coordinates": [[[121.65, 25.119999999999997], [121.68, 25.119999999999997], [121.68, 25.15], [121.65, 25.15], [121.65, 25.119999999999997]]]}, "properties": {"temperature": 27.6}}, {"type": "Feature", "geometry": {"type": "Polygon", "coordinates": [[[121.68, 25.119999999999997], [121.71000000000001, 25.119999999999997], [121.71000000000001, 25.15], [121.68, 25.15], [121.68, 25.119999999999997]]]}, "properties": {"temperature": 27.6}}, {"type": "Feature", "geometry": {"type": "Polygon", "coordinates": [[[121.71, 25.119999999999997], [121.74, 25.119999999999997], [121.74, 25.15], [121.71, 25.15], [121.71, 25.119999999999997]]]}, "properties": {"temperature": 27.9}}, {"type": "Feature", "geometry": {"type": "Polygon", "coordinates": [[[121.74, 25.119999999999997], [121.77, 25.119999999999997], [121.77, 25.15], [121.74, 25.15], [121.74, 25.119999999999997]]]}, "properties": {"temperature": 28.0}}, {"type": "Feature", "geometry": {"type": "Polygon", "coordinates": [[[121.77, 25.119999999999997], [121.8, 25.119999999999997], [121.8, 25.15], [121.77, 25.15], [121.77, 25.119999999999997]]]}, "properties": {"temperature": 27.7}}, {"type": "Feature", "geometry": {"type": "Polygon", "coordinates": [[[121.8, 25.119999999999997], [121.83, 25.119999999999997], [121.83, 25.15], [121.8, 25.15], [121.8, 25.119999999999997]]]}, "properties": {"temperature": 27.3}}, {"type": "Feature", "geometry": {"type": "Polygon", "coordinates": [[[121.41, 25.15], [121.44, 25.15], [121.44, 25.18], [121.41, 25.18], [121.41, 25.15]]]}, "properties": {"temperature": 26.3}}, {"type": "Feature", "geometry": {"type": "Polygon", "coordinates": [[[121.44, 25.15], [121.47, 25.15], [121.47, 25.18], [121.44, 25.18], [121.44, 25.15]]]}, "properties": {"temperature": 26.5}}, {"type": "Feature", "geometry": {"type": "Polygon", "coordinates": [[[121.47, 25.15], [121.5, 25.15], [121.5, 25.18], [121.47, 25.18], [121.47, 25.15]]]}, "properties": {"temperature": 26.0}}, {"type": "Feature", "geometry": {"type": "Polygon", "coordinates": [[[121.5, 25.15], [121.53, 25.15], [121.53, 25.18], [121.5, 25.18], [121.5, 25.15]]]}, "properties": {"temperature": 26.9}}, {"type": "Feature", "geometry": {"type": "Polygon", "coordinates": [[[121.53, 25.15], [121.56, 25.15], [121.56, 25.18], [121.53, 25.18], [121.53, 25.15]]]}, "properties": {"temperature": 25.9}}, {"type": "Feature", "geometry": {"type": "Polygon", "coordinates": [[[121.56, 25.15], [121.59, 25.15], [121.59, 25.18], [121.56, 25.18], [121.56, 25.15]]]}, "properties": {"temperature": 23.7}}, {"type": "Feature", "geometry": {"type": "Polygon", "coordinates": [[[121.59, 25.15], [121.62, 25.15], [121.62, 25.18], [121.59, 25.18], [121.59, 25.15]]]}, "properties": {"temperature": 22.2}}, {"type": "Feature", "geometry": {"type": "Polygon", "coordinates": [[[121.62, 25.15], [121.65, 25.15], [121.65, 25.18], [121.62, 25.18], [121.62, 25.15]]]}, "properties": {"temperature": 25.4}}, {"type": "Feature", "geometry": {"type": "Polygon", "coordinates": [[[121.65, 25.15], [121.68, 25.15], [121.68, 25.18], [121.65, 25.18], [121.65, 25.15]]]}, "properties": {"temperature": 26.0}}, {"type": "Feature", "geometry": {"type": "Polygon", "coordinates": [[[121.68, 25.15], [121.71000000000001, 25.15], [121.71000000000001, 25.18], [121.68, 25.18], [121.68, 25.15]]]}, "properties": {"temperature": 27.0}}, {"type": "Feature", "geometry": {"type": "Polygon", "coordinates": [[[121.71, 25.15], [121.74, 25.15], [121.74, 25.18], [121.71, 25.18], [121.71, 25.15]]]}, "properties": {"temperature": 26.5}}, {"type": "Feature", "geometry": {"type": "Polygon", "coordinates": [[[121.74, 25.15], [121.77, 25.15], [121.77, 25.18], [121.74, 25.18], [121.74, 25.15]]]}, "properties": {"temperature": 27.8}}, {"type": "Feature", "geometry": {"type": "Polygon", "coordinates": [[[121.44, 25.18], [121.47, 25.18], [121.47, 25.21], [121.44, 25.21], [121.44, 25.18]]]}, "properties": {"temperature": 26.4}}, {"type": "Feature", "geometry": {"type": "Polygon", "coordinates": [[[121.47, 25.18], [121.5, 25.18], [121.5, 25.21], [121.47, 25.21], [121.47, 25.18]]]}, "properties": {"temperature": 25.9}}, {"type": "Feature", "geometry": {"type": "Polygon", "coordinates": [[[121.5, 25.18], [121.53, 25.18], [121.53, 25.21], [121.5, 25.21], [121.5, 25.18]]]}, "properties": {"temperature": 23.2}}, {"type": "Feature", "geometry": {"type": "Polygon", "coordinates": [[[121.53, 25.18], [121.56, 25.18], [121.56, 25.21], [121.53, 25.21], [121.53, 25.18]]]}, "properties": {"temperature": 20.3}}, {"type": "Feature", "geometry": {"type": "Polygon", "coordinates": [[[121.56, 25.18], [121.59, 25.18], [121.59, 25.21], [121.56, 25.21], [121.56, 25.18]]]}, "properties": {"temperature": 22.7}}, {"type": "Feature", "geometry": {"type": "Polygon", "coordinates": [[[121.59, 25.18], [121.62, 25.18], [121.62, 25.21], [121.59, 25.21], [121.59, 25.18]]]}, "properties": {"temperature": 24.7}}, {"type": "Feature", "geometry": {"type": "Polygon", "coordinates": [[[121.62, 25.18], [121.65, 25.18], [121.65, 25.21], [121.62, 25.21], [121.62, 25.18]]]}, "properties": {"temperature": 24.7}}, {"type": "Feature", "geometry": {"type": "Polygon", "coordinates": [[[121.65, 25.18], [121.68, 25.18], [121.68, 25.21], [121.65, 25.21], [121.65, 25.18]]]}, "properties": {"temperature": 25.9}}, {"type": "Feature", "geometry": {"type": "Polygon", "coordinates": [[[121.68, 25.18], [121.71000000000001, 25.18], [121.71000000000001, 25.21], [121.68, 25.21], [121.68, 25.18]]]}, "properties": {"temperature": 27.6}}, {"type": "Feature", "geometry": {"type": "Polygon", "coordinates": [[[121.47, 25.21], [121.5, 25.21], [121.5, 25.240000000000002], [121.47, 25.240000000000002], [121.47, 25.21]]]}, "properties": {"temperature": 26.1}}, {"type": "Feature", "geometry": {"type": "Polygon", "coordinates": [[[121.5, 25.21], [121.53, 25.21], [121.53, 25.240000000000002], [121.5, 25.240000000000002], [121.5, 25.21]]]}, "properties": {"temperature": 25.2}}, {"type": "Feature", "geometry": {"type": "Polygon", "coordinates": [[[121.53, 25.21], [121.56, 25.21], [121.56, 25.240000000000002], [121.53, 25.240000000000002], [121.53, 25.21]]]}, "properties": {"temperature": 25.0}}, {"type": "Feature", "geometry": {"type": "Polygon", "coordinates": [[[121.56, 25.21], [121.59, 25.21], [121.59, 25.240000000000002], [121.56, 25.240000000000002], [121.56, 25.21]]]}, "properties": {"temperature": 21.6}}, {"type": "Feature", "geometry": {"type": "Polygon", "coordinates": [[[121.59, 25.21], [121.62, 25.21], [121.62, 25.240000000000002], [121.59, 25.240000000000002], [121.59, 25.21]]]}, "properties": {"temperature": 26.8}}, {"type": "Feature", "geometry": {"type": "Polygon", "coordinates": [[[121.62, 25.21], [121.65, 25.21], [121.65, 25.240000000000002], [121.62, 25.240000000000002], [121.62, 25.21]]]}, "properties": {"temperature": 27.3}}, {"type": "Feature", "geometry": {"type": "Polygon", "coordinates": [[[121.47, 25.24], [121.5, 25.24], [121.5, 25.27], [121.47, 25.27], [121.47, 25.24]]]}, "properties": {"temperature": 26.3}}, {"type": "Feature", "geometry": {"type": "Polygon", "coordinates": [[[121.5, 25.24], [121.53, 25.24], [121.53, 25.27], [121.5, 25.27], [121.5, 25.24]]]}, "properties": {"temperature": 25.9}}, {"type": "Feature", "geometry": {"type": "Polygon", "coordinates": [[[121.53, 25.24], [121.56, 25.24], [121.56, 25.27], [121.53, 25.27], [121.53, 25.24]]]}, "properties": {"temperature": 25.1}}, {"type": "Feature", "geometry": {"type": "Polygon", "coordinates": [[[121.56, 25.24], [121.59, 25.24], [121.59, 25.27], [121.56, 25.27], [121.56, 25.24]]]}, "properties": {"temperature": 25.2}}, {"type": "Feature", "geometry": {"type": "Polygon", "coordinates": [[[121.59, 25.24], [121.62, 25.24], [121.62, 25.27], [121.59, 25.27], [121.59, 25.24]]]}, "properties": {"temperature": 24.9}}, {"type": "Feature", "geometry": {"type": "Polygon", "coordinates": [[[121.62, 25.24], [121.65, 25.24], [121.65, 25.27], [121.62, 25.27], [121.62, 25.24]]]}, "properties": {"temperature": 27.2}}, {"type": "Feature", "geometry": {"type": "Polygon", "coordinates": [[[121.53, 25.27], [121.56, 25.27], [121.56, 25.3], [121.53, 25.3], [121.53, 25.27]]]}, "properties": {"temperature": 26.2}}, {"type": "Feature", "geometry": {"type": "Polygon", "coordinates": [[[121.56, 25.27], [121.59, 25.27], [121.59, 25.3], [121.56, 25.3], [121.56, 25.27]]]}, "properties": {"temperature": 23.3}}, {"type": "Feature", "geometry": {"type": "Polygon", "coordinates": [[[121.59, 25.27], [121.62, 25.27], [121.62, 25.3], [121.59, 25.3], [121.59, 25.27]]]}, "properties": {"temperature": 24.8}}]}
