{
   "type": "FeatureCollection",
   "features": [
  {
    "type": "Feature",
    "geometry": {
       "type": "Point",
       "coordinates":  [ 121.513939,25.04174698 ]
    },
    "properties": {
    "機構名稱":"懷寧復健科診所",
    "行政區":"中正區",
    "地址":"臺北市中正區懷寧街１１０號１樓、７樓"
    }
  },
  {
    "type": "Feature",
    "geometry": {
       "type": "Point",
       "coordinates":  [ 121.524024,25.04011301 ]
    },
    "properties": {
    "機構名稱":"國軍台北門診中心附設民眾診療服務處",
    "行政區":"中正區",
    "地址":"臺北市中正區紹興南街７號"
    }
  },
  {
    "type": "Feature",
    "geometry": {
       "type": "Point",
       "coordinates":  [ 121.527139,25.03850901 ]
    },
    "properties": {
    "機構名稱":"久瑞復健科診所",
    "行政區":"中正區",
    "地址":"臺北市中正區仁愛路２段２１號、２１之１號、２３號"
    }
  },
  {
    "type": "Feature",
    "geometry": {
       "type": "Point",
       "coordinates":  [ 121.524068,25.024242 ]
    },
    "properties": {
    "機構名稱":"古亭適康復健科診所",
    "行政區":"中正區",
    "地址":"臺北市中正區南昌路２段１９６號（１樓）、２００號"
    }
  },
  {
    "type": "Feature",
    "geometry": {
       "type": "Point",
       "coordinates":  [ 121.5286936,25.01995231 ]
    },
    "properties": {
    "機構名稱":"古亭復健診所",
    "行政區":"中正區",
    "地址":"台北市中正區羅斯福路三段162號一樓"
    }
  },
  {
    "type": "Feature",
    "geometry": {
       "type": "Point",
       "coordinates":  [ 121.511027,25.04299002 ]
    },
    "properties": {
    "機構名稱":"醫療財團法人徐元智先生醫藥基金會遠東聯合診所",
    "行政區":"中正區",
    "地址":"臺北市中正區永綏街８至１４號"
    }
  },
  {
    "type": "Feature",
    "geometry": {
       "type": "Point",
       "coordinates":  [ 121.527139,25.03850901 ]
    },
    "properties": {
    "機構名稱":"久瑞復健科診所",
    "行政區":"中正區",
    "地址":"臺北市中正區仁愛路２段２１號、２１之１號、２３號"
    }
  },
  {
    "type": "Feature",
    "geometry": {
       "type": "Point",
       "coordinates":  [ 121.524024,25.04011301 ]
    },
    "properties": {
    "機構名稱":"國軍台北門診中心附設民眾診療服務處",
    "行政區":"中正區",
    "地址":"臺北市中正區紹興南街７號"
    }
  },
  {
    "type": "Feature",
    "geometry": {
       "type": "Point",
       "coordinates":  [ 121.518726,25.028728 ]
    },
    "properties": {
    "機構名稱":"郵政醫院（委託中英醫療社團法人經營）",
    "行政區":"中正區",
    "地址":"臺北市中正區福州街１４號"
    }
  },
  {
    "type": "Feature",
    "geometry": {
       "type": "Point",
       "coordinates":  [ 121.518752,25.04434 ]
    },
    "properties": {
    "機構名稱":"國立臺灣大學醫學院附設醫院兒童醫院",
    "行政區":"中正區",
    "地址":"臺北市中正區中山南路８號"
    }
  },
  {
    "type": "Feature",
    "geometry": {
       "type": "Point",
       "coordinates":  [ 121.518559,25.040773 ]
    },
    "properties": {
    "機構名稱":"國立台灣大學醫學院附設醫院",
    "行政區":"中正區",
    "地址":"台北市中正區中山南路7號"
    }
  },
  {
    "type": "Feature",
    "geometry": {
       "type": "Point",
       "coordinates":  [ 121.508888,25.05069101 ]
    },
    "properties": {
    "機構名稱":"臺北市立聯合醫院",
    "行政區":"大同區",
    "地址":"臺北市大同區鄭州路１４５號（代表）"
    }
  },
  {
    "type": "Feature",
    "geometry": {
       "type": "Point",
       "coordinates":  [ 121.513939,25.04174698 ]
    },
    "properties": {
    "機構名稱":"懷寧復健科診所",
    "行政區":"中正區",
    "地址":"臺北市中正區懷寧街１１０號１樓、７樓"
    }
  },
  {
    "type": "Feature",
    "geometry": {
       "type": "Point",
       "coordinates":  [ 121.526988,25.03438398 ]
    },
    "properties": {
    "機構名稱":"虹約復健專科診所",
    "行政區":"中正區",
    "地址":"臺北市中正區信義路２段９１號２樓之２"
    }
  },
  {
    "type": "Feature",
    "geometry": {
       "type": "Point",
       "coordinates":  [ 121.525426,25.02110902 ]
    },
    "properties": {
    "機構名稱":"惠森復健科診所",
    "行政區":"中正區",
    "地址":"臺北市中正區師大路１７２號、１７２號之１號"
    }
  },
  {
    "type": "Feature",
    "geometry": {
       "type": "Point",
       "coordinates":  [ 121.516573,25.06842599 ]
    },
    "properties": {
    "機構名稱":"宜康復健科診所",
    "行政區":"大同區",
    "地址":"臺北市大同區民族西路１２４號、１２４－１號、１２６號"
    }
  },
  {
    "type": "Feature",
    "geometry": {
       "type": "Point",
       "coordinates":  [ 121.5118477,25.06313491 ]
    },
    "properties": {
    "機構名稱":"新旅程復健科診所",
    "行政區":"大同區",
    "地址":"臺北市大同區民權西路２３７－７號（實際營業樓層：１樓、２樓）"
    }
  },
  {
    "type": "Feature",
    "geometry": {
       "type": "Point",
       "coordinates":  [ 121.516275,25.06573599 ]
    },
    "properties": {
    "機構名稱":"臺北市立聯合醫院附設大同門診部",
    "行政區":"大同區",
    "地址":"臺北市大同區昌吉街５２號１至２樓"
    }
  },
  {
    "type": "Feature",
    "geometry": {
       "type": "Point",
       "coordinates":  [ 121.540691,25.06040814 ]
    },
    "properties": {
    "機構名稱":"中山適康復健科診所",
    "行政區":"中山區",
    "地址":"臺北市中山區龍江路２６８號、２７０號２樓之１"
    }
  },
  {
    "type": "Feature",
    "geometry": {
       "type": "Point",
       "coordinates":  [ 121.543579,25.06169302 ]
    },
    "properties": {
    "機構名稱":"耘康復健科診所",
    "行政區":"中山區",
    "地址":"臺北市中山區復興北路４０２巷８弄２號"
    }
  },
  {
    "type": "Feature",
    "geometry": {
       "type": "Point",
       "coordinates":  [ 121.5329484,25.0597467 ]
    },
    "properties": {
    "機構名稱":"睦霖復健科診所",
    "行政區":"中山區",
    "地址":"臺北市中山區松江路２７４號２樓"
    }
  },
  {
    "type": "Feature",
    "geometry": {
       "type": "Point",
       "coordinates":  [ 121.522617,25.05886601 ]
    },
    "properties": {
    "機構名稱":"台灣基督長老教會馬偕醫療財團法人馬偕紀念醫院",
    "行政區":"中山區",
    "地址":"臺北市中山區中山北路２段９２號"
    }
  },
  {
    "type": "Feature",
    "geometry": {
       "type": "Point",
       "coordinates":  [ 121.522617,25.05886601 ]
    },
    "properties": {
    "機構名稱":"台灣基督長老教會馬偕醫療財團法人馬偕兒童醫院",
    "行政區":"中山區",
    "地址":"臺北市中山區中山北路２段９２號"
    }
  },
  {
    "type": "Feature",
    "geometry": {
       "type": "Point",
       "coordinates":  [ 121.542666,25.05442302 ]
    },
    "properties": {
    "機構名稱":"宇康復健科診所",
    "行政區":"中山區",
    "地址":"臺北市中山區長春路３６８號２樓"
    }
  },
  {
    "type": "Feature",
    "geometry": {
       "type": "Point",
       "coordinates":  [ 121.549928,25.083549 ]
    },
    "properties": {
    "機構名稱":"大直復健科診所",
    "行政區":"中山區",
    "地址":"臺北市中山區北安路６３０巷２５弄１６號"
    }
  },
  {
    "type": "Feature",
    "geometry": {
       "type": "Point",
       "coordinates":  [ 121.5328624,25.0549779 ]
    },
    "properties": {
    "機構名稱":"施宏男復健科診所",
    "行政區":"中山區",
    "地址":"臺北市中山區松江路１５８號３樓３樓之１"
    }
  },
  {
    "type": "Feature",
    "geometry": {
       "type": "Point",
       "coordinates":  [ 121.543486,25.05745299 ]
    },
    "properties": {
    "機構名稱":"興安診所",
    "行政區":"中山區",
    "地址":"臺北市中山區民生東路３段９０號２樓、９０號２樓之３"
    }
  },
  {
    "type": "Feature",
    "geometry": {
       "type": "Point",
       "coordinates":  [ 121.543724,25.04926999 ]
    },
    "properties": {
    "機構名稱":"旭恩復健科診所",
    "行政區":"中山區",
    "地址":"臺北市中山區復興北路３８號２樓"
    }
  },
  {
    "type": "Feature",
    "geometry": {
       "type": "Point",
       "coordinates":  [ 121.537793,25.066119 ]
    },
    "properties": {
    "機構名稱":"禾宇復健科診所",
    "行政區":"中山區",
    "地址":"臺北市中山區龍江路３５６巷７９號"
    }
  },
  {
    "type": "Feature",
    "geometry": {
       "type": "Point",
       "coordinates":  [ 121.54858,25.08225999 ]
    },
    "properties": {
    "機構名稱":"景亷復健科診所",
    "行政區":"中山區",
    "地址":"台北市中山區北安路595巷1號B1"
    }
  },
  {
    "type": "Feature",
    "geometry": {
       "type": "Point",
       "coordinates":  [ 121.532733,25.04865899 ]
    },
    "properties": {
    "機構名稱":"安康復健科診所",
    "行政區":"中山區",
    "地址":"臺北市中山區松江路５４號２樓"
    }
  },
  {
    "type": "Feature",
    "geometry": {
       "type": "Point",
       "coordinates":  [ 121.543579,25.06169302 ]
    },
    "properties": {
    "機構名稱":"耘康復健科診所",
    "行政區":"中山區",
    "地址":"臺北市中山區復興北路４０２巷８弄２號"
    }
  },
  {
    "type": "Feature",
    "geometry": {
       "type": "Point",
       "coordinates":  [ 121.540691,25.06040814 ]
    },
    "properties": {
    "機構名稱":"中山適康復健科診所",
    "行政區":"中山區",
    "地址":"臺北市中山區龍江路２６８號、２７０號２樓之１"
    }
  },
  {
    "type": "Feature",
    "geometry": {
       "type": "Point",
       "coordinates":  [ 121.544286,25.05086599 ]
    },
    "properties": {
    "機構名稱":"周適偉診所",
    "行政區":"松山區",
    "地址":"臺北市松山區復興北路６９號７樓"
    }
  },
  {
    "type": "Feature",
    "geometry": {
       "type": "Point",
       "coordinates":  [ 121.563488,25.05591902 ]
    },
    "properties": {
    "機構名稱":"生昇復健專科診所",
    "行政區":"松山區",
    "地址":"臺北市松山區三民路３９號"
    }
  },
  {
    "type": "Feature",
    "geometry": {
       "type": "Point",
       "coordinates":  [ 121.560327,25.050164 ]
    },
    "properties": {
    "機構名稱":"悠適復健科診所",
    "行政區":"松山區",
    "地址":"臺北市松山區光復北路１１巷６５號１樓、６７號１樓"
    }
  },
  {
    "type": "Feature",
    "geometry": {
       "type": "Point",
       "coordinates":  [ 121.553548,25.04704698 ]
    },
    "properties": {
    "機構名稱":"康健診所",
    "行政區":"松山區",
    "地址":"臺北市松山區延吉街９之４號（１樓）及１１號２樓"
    }
  },
  {
    "type": "Feature",
    "geometry": {
       "type": "Point",
       "coordinates":  [ 121.5577046,25.05394022 ]
    },
    "properties": {
    "機構名稱":"三軍總醫院松山分院附設民眾診療服務處",
    "行政區":"松山區",
    "地址":"臺北市松山區健康路１３１號"
    }
  },
  {
    "type": "Feature",
    "geometry": {
       "type": "Point",
       "coordinates":  [ 121.5500218,25.05589036 ]
    },
    "properties": {
    "機構名稱":"長庚醫療財團法人台北長庚紀念醫院",
    "行政區":"松山區",
    "地址":"臺北市松山區敦化北路１９９、１９７號、１９９巷６號、民生東路"
    }
  },
  {
    "type": "Feature",
    "geometry": {
       "type": "Point",
       "coordinates":  [ 121.5473252,25.04808521 ]
    },
    "properties": {
    "機構名稱":"基督復臨安息日會醫療財團法人臺安醫院",
    "行政區":"松山區",
    "地址":"臺北市松山區八德路２段４２４、４２６號"
    }
  },
  {
    "type": "Feature",
    "geometry": {
       "type": "Point",
       "coordinates":  [ 121.5577483,25.04979233 ]
    },
    "properties": {
    "機構名稱":"博仁綜合醫院",
    "行政區":"松山區",
    "地址":"臺北市松山區光復北路６６、６８號"
    }
  },
  {
    "type": "Feature",
    "geometry": {
       "type": "Point",
       "coordinates":  [ 121.557208,25.05274601 ]
    },
    "properties": {
    "機構名稱":"正風復健科診所",
    "行政區":"松山區",
    "地址":"臺北市松山區光復北路１３３及１３５號１樓"
    }
  },
  {
    "type": "Feature",
    "geometry": {
       "type": "Point",
       "coordinates":  [ 121.546723,25.06048099 ]
    },
    "properties": {
    "機構名稱":"宇恩復健科診所",
    "行政區":"松山區",
    "地址":"臺北市松山區民權東路３段１４０巷１５號３樓"
    }
  },
  {
    "type": "Feature",
    "geometry": {
       "type": "Point",
       "coordinates":  [ 121.555494,25.05517299 ]
    },
    "properties": {
    "機構名稱":"松原復健診所",
    "行政區":"松山區",
    "地址":"臺北市松山區光復北路２０６號"
    }
  },
  {
    "type": "Feature",
    "geometry": {
       "type": "Point",
       "coordinates":  [ 121.555415,25.05842998 ]
    },
    "properties": {
    "機構名稱":"安德復復健專科診所",
    "行政區":"松山區",
    "地址":"臺北市松山區光復北路１８１號地下二層"
    }
  },
  {
    "type": "Feature",
    "geometry": {
       "type": "Point",
       "coordinates":  [ 121.544286,25.05086599 ]
    },
    "properties": {
    "機構名稱":"周適偉診所",
    "行政區":"松山區",
    "地址":"臺北市松山區復興北路６９號７樓"
    }
  },
  {
    "type": "Feature",
    "geometry": {
       "type": "Point",
       "coordinates":  [ 121.537241,25.025212 ]
    },
    "properties": {
    "機構名稱":"尹書田醫療財團法人書田泌尿科眼科診所",
    "行政區":"大安區",
    "地址":"臺北市大安區建國南路２段２７６號１樓、２７８號１樓"
    }
  },
  {
    "type": "Feature",
    "geometry": {
       "type": "Point",
       "coordinates":  [ 121.55398,25.02269198 ]
    },
    "properties": {
    "機構名稱":"宜德復健科診所",
    "行政區":"大安區",
    "地址":"臺北市大安區和平東路３段２１０號"
    }
  },
  {
    "type": "Feature",
    "geometry": {
       "type": "Point",
       "coordinates":  [ 121.550464,25.03339999 ]
    },
    "properties": {
    "機構名稱":"杏誠復健科診所",
    "行政區":"大安區",
    "地址":"臺北市大安區信義路４段１７３號２樓"
    }
  },
  {
    "type": "Feature",
    "geometry": {
       "type": "Point",
       "coordinates":  [ 121.530758,25.03343699 ]
    },
    "properties": {
    "機構名稱":"達仁診所",
    "行政區":"大安區",
    "地址":"臺北市大安區信義路２段２０８號４樓"
    }
  },
  {
    "type": "Feature",
    "geometry": {
       "type": "Point",
       "coordinates":  [ 121.5533379,25.04111109 ]
    },
    "properties": {
    "機構名稱":"輝馥復健專科診所",
    "行政區":"大安區",
    "地址":"台北市大安區忠孝東路四段218-5號2樓 阿波羅大廈"
    }
  },
  {
    "type": "Feature",
    "geometry": {
       "type": "Point",
       "coordinates":  [ 121.5245466,25.02565001 ]
    },
    "properties": {
    "機構名稱":"超越復健診所",
    "行政區":"大安區",
    "地址":"臺北市大安區羅斯福路２段８１巷１號３、４、５樓"
    }
  },
  {
    "type": "Feature",
    "geometry": {
       "type": "Point",
       "coordinates":  [ 121.543831,25.035502 ]
    },
    "properties": {
    "機構名稱":"欣昇復健科診所",
    "行政區":"大安區",
    "地址":"臺北市大安區復興南路１段２８３號"
    }
  },
  {
    "type": "Feature",
    "geometry": {
       "type": "Point",
       "coordinates":  [ 121.52827,25.02568139 ]
    },
    "properties": {
    "機構名稱":"樂活診所",
    "行政區":"大安區",
    "地址":"臺北市大安區師大路１２號（實際營業地址：１樓、３樓）"
    }
  },
  {
    "type": "Feature",
    "geometry": {
       "type": "Point",
       "coordinates":  [ 121.54983,25.03303298 ]
    },
    "properties": {
    "機構名稱":"宏康復健專科診所",
    "行政區":"大安區",
    "地址":"臺北市大安區信義路４段１３４號及１３４號２樓"
    }
  },
  {
    "type": "Feature",
    "geometry": {
       "type": "Point",
       "coordinates":  [ 121.542015,25.04186001 ]
    },
    "properties": {
    "機構名稱":"立澄診所",
    "行政區":"大安區",
    "地址":"臺北市大安區忠孝東路３段２５９號３樓"
    }
  },
  {
    "type": "Feature",
    "geometry": {
       "type": "Point",
       "coordinates":  [ 121.547212,25.03816698 ]
    },
    "properties": {
    "機構名稱":"聯新國際診所",
    "行政區":"大安區",
    "地址":"臺北市大安區仁愛路４段７７號３樓、３樓之１"
    }
  },
  {
    "type": "Feature",
    "geometry": {
       "type": "Point",
       "coordinates":  [ 121.551496,25.03362299 ]
    },
    "properties": {
    "機構名稱":"杏保醫網信誠診所",
    "行政區":"大安區",
    "地址":"臺北市大安區信義路４段１９７號、１９９巷２號"
    }
  },
  {
    "type": "Feature",
    "geometry": {
       "type": "Point",
       "coordinates":  [ 121.545869,25.02661702 ]
    },
    "properties": {
    "機構名稱":"適群診所",
    "行政區":"大安區",
    "地址":"臺北市大安區四維路１９８巷３２號、３２之１號、３２之２號"
    }
  },
  {
    "type": "Feature",
    "geometry": {
       "type": "Point",
       "coordinates":  [ 121.543097,25.02510702 ]
    },
    "properties": {
    "機構名稱":"永誠復健科診所",
    "行政區":"大安區",
    "地址":"臺北市大安區復興南路２段２３６號２樓"
    }
  },
  {
    "type": "Feature",
    "geometry": {
       "type": "Point",
       "coordinates":  [ 121.5545192,25.03413449 ]
    },
    "properties": {
    "機構名稱":"仁生復健科診所",
    "行政區":"大安區",
    "地址":"臺北市大安區信義路４段２６５巷１７號１樓、１７號２樓"
    }
  },
  {
    "type": "Feature",
    "geometry": {
       "type": "Point",
       "coordinates":  [ 121.5439165,25.0144959 ]
    },
    "properties": {
    "機構名稱":"國立臺灣大學醫學院附設醫院癌醫中心分院",
    "行政區":"大安區",
    "地址":"臺北市大安區基隆路３段１５５巷５７號"
    }
  },
  {
    "type": "Feature",
    "geometry": {
       "type": "Point",
       "coordinates":  [ 121.5497107,25.03655171 ]
    },
    "properties": {
    "機構名稱":"中山醫療社團法人中山醫院",
    "行政區":"大安區",
    "地址":"臺北市大安區仁愛路４段１１２巷１１號、１２號"
    }
  },
  {
    "type": "Feature",
    "geometry": {
       "type": "Point",
       "coordinates":  [ 121.552795,25.03731501 ]
    },
    "properties": {
    "機構名稱":"國泰醫療財團法人國泰綜合醫院",
    "行政區":"大安區",
    "地址":"臺北市大安區仁愛路４段２８０號，２６６巷６號"
    }
  },
  {
    "type": "Feature",
    "geometry": {
       "type": "Point",
       "coordinates":  [ 121.547347,25.04188201 ]
    },
    "properties": {
    "機構名稱":"中心診所醫療財團法人中心綜合醫院",
    "行政區":"大安區",
    "地址":"臺北市大安區忠孝東路４段７７號"
    }
  },
  {
    "type": "Feature",
    "geometry": {
       "type": "Point",
       "coordinates":  [ 121.546713,25.038493 ]
    },
    "properties": {
    "機構名稱":"宏恩醫療財團法人宏恩綜合醫院",
    "行政區":"大安區",
    "地址":"臺北市大安區仁愛路４段７１巷１號及４段６１號、９１巷１６號"
    }
  },
  {
    "type": "Feature",
    "geometry": {
       "type": "Point",
       "coordinates":  [ 121.542948,25.02471801 ]
    },
    "properties": {
    "機構名稱":"啟誠聯合診所",
    "行政區":"大安區",
    "地址":"臺北市大安區和平東路２段１２０號１．２．３，４樓"
    }
  },
  {
    "type": "Feature",
    "geometry": {
       "type": "Point",
       "coordinates":  [ 121.550572,25.04129 ]
    },
    "properties": {
    "機構名稱":"適健復健科診所",
    "行政區":"大安區",
    "地址":"臺北市大安區忠孝東路４段１６６號８、９樓"
    }
  },
  {
    "type": "Feature",
    "geometry": {
       "type": "Point",
       "coordinates":  [ 121.5483589,25.02417398 ]
    },
    "properties": {
    "機構名稱":"家安復健科診所",
    "行政區":"大安區",
    "地址":"臺北市大安區敦化南路２段１６８及１７０號地下１樓"
    }
  },
  {
    "type": "Feature",
    "geometry": {
       "type": "Point",
       "coordinates":  [ 121.55398,25.02269198 ]
    },
    "properties": {
    "機構名稱":"宜德復健科診所",
    "行政區":"大安區",
    "地址":"臺北市大安區和平東路３段２１０號"
    }
  },
  {
    "type": "Feature",
    "geometry": {
       "type": "Point",
       "coordinates":  [ 121.537241,25.025212 ]
    },
    "properties": {
    "機構名稱":"尹書田醫療財團法人書田泌尿科眼科診所",
    "行政區":"大安區",
    "地址":"臺北市大安區建國南路２段２７６號１樓、２７８號１樓"
    }
  },
  {
    "type": "Feature",
    "geometry": {
       "type": "Point",
       "coordinates":  [ 121.506022,25.02740802 ]
    },
    "properties": {
    "機構名稱":"松柏復健科診所",
    "行政區":"萬華區",
    "地址":"臺北市萬華區中華路２段４２６之１號（１樓）"
    }
  },
  {
    "type": "Feature",
    "geometry": {
       "type": "Point",
       "coordinates":  [ 121.504295,25.038069 ]
    },
    "properties": {
    "機構名稱":"永康診所",
    "行政區":"萬華區",
    "地址":"臺北市萬華區桂林路４７號１樓２樓及地下１樓"
    }
  },
  {
    "type": "Feature",
    "geometry": {
       "type": "Point",
       "coordinates":  [ 121.500662,25.02674199 ]
    },
    "properties": {
    "機構名稱":"博昌復健科診所",
    "行政區":"萬華區",
    "地址":"臺北市萬華區萬大路２２１號（實際開業地址１樓）"
    }
  },
  {
    "type": "Feature",
    "geometry": {
       "type": "Point",
       "coordinates":  [ 121.494784,25.02804102 ]
    },
    "properties": {
    "機構名稱":"瑞生診所",
    "行政區":"萬華區",
    "地址":"臺北市萬華區西園路２段２５０號、２５０號２樓、２５０號３樓、"
    }
  },
  {
    "type": "Feature",
    "geometry": {
       "type": "Point",
       "coordinates":  [ 121.504371,25.04005702 ]
    },
    "properties": {
    "機構名稱":"同仁院醫療財團法人貴陽診所",
    "行政區":"萬華區",
    "地址":"臺北市萬華區昆明街１６９號（１樓）"
    }
  },
  {
    "type": "Feature",
    "geometry": {
       "type": "Point",
       "coordinates":  [ 121.503536,25.04172301 ]
    },
    "properties": {
    "機構名稱":"國立臺灣大學醫學院附設醫院北護分院",
    "行政區":"萬華區",
    "地址":"臺北市萬華區康定路３７號、臺北市萬華區內江街８７號"
    }
  },
  {
    "type": "Feature",
    "geometry": {
       "type": "Point",
       "coordinates":  [ 121.494497,25.02776802 ]
    },
    "properties": {
    "機構名稱":"西園醫療社團法人西園醫院",
    "行政區":"萬華區",
    "地址":"臺北市萬華區西園路２段２６６～２７４號、１８５、１８７號"
    }
  },
  {
    "type": "Feature",
    "geometry": {
       "type": "Point",
       "coordinates":  [ 121.498028,25.03688602 ]
    },
    "properties": {
    "機構名稱":"財團法人台灣省私立台北仁濟院附設仁濟醫院",
    "行政區":"萬華區",
    "地址":"臺北市萬華區廣州街２００、２４３號"
    }
  },
  {
    "type": "Feature",
    "geometry": {
       "type": "Point",
       "coordinates":  [ 121.509807,25.02405898 ]
    },
    "properties": {
    "機構名稱":"同仁院醫療財團法人萬華醫院",
    "行政區":"萬華區",
    "地址":"臺北市萬華區中華路２段６０６巷６號"
    }
  },
  {
    "type": "Feature",
    "geometry": {
       "type": "Point",
       "coordinates":  [ 121.504295,25.038069 ]
    },
    "properties": {
    "機構名稱":"永康診所",
    "行政區":"萬華區",
    "地址":"臺北市萬華區桂林路４７號１樓２樓及地下１樓"
    }
  },
  {
    "type": "Feature",
    "geometry": {
       "type": "Point",
       "coordinates":  [ 121.506022,25.02740802 ]
    },
    "properties": {
    "機構名稱":"松柏復健科診所",
    "行政區":"萬華區",
    "地址":"臺北市萬華區中華路２段４２６之１號（１樓）"
    }
  },
  {
    "type": "Feature",
    "geometry": {
       "type": "Point",
       "coordinates":  [ 121.5637565,25.02691085 ]
    },
    "properties": {
    "機構名稱":"臺北醫學大學附設醫院",
    "行政區":"信義區",
    "地址":"臺北市信義區吳興街２５２號、２５０號"
    }
  },
  {
    "type": "Feature",
    "geometry": {
       "type": "Point",
       "coordinates":  [ 121.58247,25.043562 ]
    },
    "properties": {
    "機構名稱":"日康復健科診所",
    "行政區":"信義區",
    "地址":"臺北市信義區中坡南路１６號"
    }
  },
  {
    "type": "Feature",
    "geometry": {
       "type": "Point",
       "coordinates":  [ 121.569341,25.02387898 ]
    },
    "properties": {
    "機構名稱":"張育驍診所",
    "行政區":"信義區",
    "地址":"臺北市信義區吳興街４６７巷２弄４號、６號、６號２樓（詳大事記"
    }
  },
  {
    "type": "Feature",
    "geometry": {
       "type": "Point",
       "coordinates":  [ 121.576245,25.045296 ]
    },
    "properties": {
    "機構名稱":"正興復健科診所",
    "行政區":"信義區",
    "地址":"臺北市信義區永吉路３４４號"
    }
  },
  {
    "type": "Feature",
    "geometry": {
       "type": "Point",
       "coordinates":  [ 121.567479,25.04227299 ]
    },
    "properties": {
    "機構名稱":"興雅診所",
    "行政區":"信義區",
    "地址":"臺北市信義區忠孝東路５段７１巷１９號"
    }
  },
  {
    "type": "Feature",
    "geometry": {
       "type": "Point",
       "coordinates":  [ 121.572312,25.04074702 ]
    },
    "properties": {
    "機構名稱":"新詠康診所",
    "行政區":"信義區",
    "地址":"臺北市信義區忠孝東路５段２４２號３樓、２４４號３樓"
    }
  },
  {
    "type": "Feature",
    "geometry": {
       "type": "Point",
       "coordinates":  [ 121.564509,25.02760901 ]
    },
    "properties": {
    "機構名稱":"順康復健科診所",
    "行政區":"信義區",
    "地址":"臺北市信義區莊敬路３６２號、３６４號、３６４號２樓"
    }
  },
  {
    "type": "Feature",
    "geometry": {
       "type": "Point",
       "coordinates":  [ 121.5557421,25.02706864 ]
    },
    "properties": {
    "機構名稱":"原力復健科診所",
    "行政區":"信義區",
    "地址":"臺北市信義區基隆路２段１４５號、１４５號２樓"
    }
  },
  {
    "type": "Feature",
    "geometry": {
       "type": "Point",
       "coordinates":  [ 121.557684,25.03566398 ]
    },
    "properties": {
    "機構名稱":"信義適康復健科診所",
    "行政區":"信義區",
    "地址":"臺北市信義區光復南路４３９號（１、２樓）"
    }
  },
  {
    "type": "Feature",
    "geometry": {
       "type": "Point",
       "coordinates":  [ 121.57428,25.04573199 ]
    },
    "properties": {
    "機構名稱":"杏仁復健科診所",
    "行政區":"信義區",
    "地址":"臺北市信義區永吉路２２７號（１、２樓）"
    }
  },
  {
    "type": "Feature",
    "geometry": {
       "type": "Point",
       "coordinates":  [ 121.52023,25.09088002 ]
    },
    "properties": {
    "機構名稱":"新光醫療財團法人新光吳火獅紀念醫院",
    "行政區":"士林區",
    "地址":"臺北市士林區文昌路９５號及士商路５１號１至７樓５３、５５號"
    }
  },
  {
    "type": "Feature",
    "geometry": {
       "type": "Point",
       "coordinates":  [ 121.525561,25.09176301 ]
    },
    "properties": {
    "機構名稱":"立安復健科診所",
    "行政區":"士林區",
    "地址":"臺北市士林區大東路１３０號"
    }
  },
  {
    "type": "Feature",
    "geometry": {
       "type": "Point",
       "coordinates":  [ 121.526432,25.11604501 ]
    },
    "properties": {
    "機構名稱":"永安診所",
    "行政區":"士林區",
    "地址":"臺北市士林區中山北路６段４０５巷６３號及６３之１號"
    }
  },
  {
    "type": "Feature",
    "geometry": {
       "type": "Point",
       "coordinates":  [ 121.529707,25.10610918 ]
    },
    "properties": {
    "機構名稱":"天母品恆復健科診所",
    "行政區":"士林區",
    "地址":"臺北市士林區忠誠路１段１３５、１３７號１樓（詳大事記）"
    }
  },
  {
    "type": "Feature",
    "geometry": {
       "type": "Point",
       "coordinates":  [ 121.519696,25.08120399 ]
    },
    "properties": {
    "機構名稱":"佑康診所",
    "行政區":"士林區",
    "地址":"臺北市士林區通河街１００號"
    }
  },
  {
    "type": "Feature",
    "geometry": {
       "type": "Point",
       "coordinates":  [ 121.5241386,25.09650799 ]
    },
    "properties": {
    "機構名稱":"士林復健科診所",
    "行政區":"士林區",
    "地址":"臺北市士林區文林路４９７號"
    }
  },
  {
    "type": "Feature",
    "geometry": {
       "type": "Point",
       "coordinates":  [ 121.533129,25.11823499 ]
    },
    "properties": {
    "機構名稱":"三玉品恆復健科診所",
    "行政區":"士林區",
    "地址":"臺北市士林區天母東路５３號"
    }
  },
  {
    "type": "Feature",
    "geometry": {
       "type": "Point",
       "coordinates":  [ 121.526969,25.09785598 ]
    },
    "properties": {
    "機構名稱":"朝陽復健科診所",
    "行政區":"士林區",
    "地址":"臺北市士林區中山北路５段６９９巷２號"
    }
  },
  {
    "type": "Feature",
    "geometry": {
       "type": "Point",
       "coordinates":  [ 121.5205307,25.1191746 ]
    },
    "properties": {
    "機構名稱":"臺北榮民總醫院",
    "行政區":"北投區",
    "地址":"臺北市北投區石牌路２段２０１號"
    }
  },
  {
    "type": "Feature",
    "geometry": {
       "type": "Point",
       "coordinates":  [ 121.4663578,25.1201876 ]
    },
    "properties": {
    "機構名稱":"臺北市立關渡醫院─委託臺北榮民總醫院經營",
    "行政區":"北投區",
    "地址":"台北市北投區知行路225巷12號"
    }
  },
  {
    "type": "Feature",
    "geometry": {
       "type": "Point",
       "coordinates":  [ 121.5224005,25.1175426 ]
    },
    "properties": {
    "機構名稱":"振興醫療財團法人振興醫院",
    "行政區":"北投區",
    "地址":"臺北市北投區振興街４５號"
    }
  },
  {
    "type": "Feature",
    "geometry": {
       "type": "Point",
       "coordinates":  [ 121.472009,25.128339 ]
    },
    "properties": {
    "機構名稱":"醫療財團法人辜公亮基金會和信治癌中心醫院",
    "行政區":"北投區",
    "地址":"臺北市北投區立德路１２５號"
    }
  },
  {
    "type": "Feature",
    "geometry": {
       "type": "Point",
       "coordinates":  [ 121.50242,25.132474 ]
    },
    "properties": {
    "機構名稱":"臺北市立聯合醫院附設北投門診部",
    "行政區":"北投區",
    "地址":"臺北市北投區新市街３０號５樓"
    }
  },
  {
    "type": "Feature",
    "geometry": {
       "type": "Point",
       "coordinates":  [ 121.50105,25.13387399 ]
    },
    "properties": {
    "機構名稱":"余世仁復健科診所",
    "行政區":"北投區",
    "地址":"臺北市北投區中央北路１段１０號１樓"
    }
  },
  {
    "type": "Feature",
    "geometry": {
       "type": "Point",
       "coordinates":  [ 121.5012638,25.12849207 ]
    },
    "properties": {
    "機構名稱":"祐民聯合診所",
    "行政區":"北投區",
    "地址":"臺北市北投區中央南路１段２０７號１、２、３樓"
    }
  },
  {
    "type": "Feature",
    "geometry": {
       "type": "Point",
       "coordinates":  [ 121.522537,25.11895202 ]
    },
    "properties": {
    "機構名稱":"如翊健康診所",
    "行政區":"北投區",
    "地址":"臺北市北投區天母西路１２６號、１２８號、１２８－１號"
    }
  },
  {
    "type": "Feature",
    "geometry": {
       "type": "Point",
       "coordinates":  [ 121.510546,25.11302899 ]
    },
    "properties": {
    "機構名稱":"旭康復健科診所",
    "行政區":"北投區",
    "地址":"臺北市北投區石牌路１段４０號（１、２、３樓）"
    }
  },
  {
    "type": "Feature",
    "geometry": {
       "type": "Point",
       "coordinates":  [ 121.519316,25.10963201 ]
    },
    "properties": {
    "機構名稱":"臻心復健科診所",
    "行政區":"北投區",
    "地址":"臺北市北投區東華街１段３６０號１樓、３７０號１、２樓"
    }
  },
  {
    "type": "Feature",
    "geometry": {
       "type": "Point",
       "coordinates":  [ 121.5213468,25.11754901 ]
    },
    "properties": {
    "機構名稱":"天母力康診所",
    "行政區":"北投區",
    "地址":"臺北市北投區明德路３６５號（教學研究綜合大樓３樓）"
    }
  },
  {
    "type": "Feature",
    "geometry": {
       "type": "Point",
       "coordinates":  [ 121.513399,25.10910898 ]
    },
    "properties": {
    "機構名稱":"石牌實和復健診所",
    "行政區":"北投區",
    "地址":"臺北市北投區文林北路２６２號１樓、２５６、２５８、２６０號"
    }
  },
  {
    "type": "Feature",
    "geometry": {
       "type": "Point",
       "coordinates":  [ 121.590533,25.07092501 ]
    },
    "properties": {
    "機構名稱":"三軍總醫院附設民眾診療服務處",
    "行政區":"內湖區",
    "地址":"臺北市內湖區成功路２段３２５號"
    }
  },
  {
    "type": "Feature",
    "geometry": {
       "type": "Point",
       "coordinates":  [ 121.608826,25.075855 ]
    },
    "properties": {
    "機構名稱":"康寧醫療財團法人康寧醫院",
    "行政區":"內湖區",
    "地址":"臺北市內湖區成功路５段４２０巷２６號"
    }
  },
  {
    "type": "Feature",
    "geometry": {
       "type": "Point",
       "coordinates":  [ 121.59063,25.08207802 ]
    },
    "properties": {
    "機構名稱":"中國醫藥大學附設醫院臺北分院",
    "行政區":"內湖區",
    "地址":"臺北市內湖區內湖路２段３６０號"
    }
  },
  {
    "type": "Feature",
    "geometry": {
       "type": "Point",
       "coordinates":  [ 121.591714,25.08187002 ]
    },
    "properties": {
    "機構名稱":"德文復健科診所",
    "行政區":"內湖區",
    "地址":"臺北市內湖區成功路４段３６號２樓"
    }
  },
  {
    "type": "Feature",
    "geometry": {
       "type": "Point",
       "coordinates":  [ 121.60535,25.07396199 ]
    },
    "properties": {
    "機構名稱":"弘康復健科診所",
    "行政區":"內湖區",
    "地址":"臺北市內湖區成功路５段８１號１樓"
    }
  },
  {
    "type": "Feature",
    "geometry": {
       "type": "Point",
       "coordinates":  [ 121.590219,25.08031002 ]
    },
    "properties": {
    "機構名稱":"成功復健科診所",
    "行政區":"內湖區",
    "地址":"臺北市內湖區成功路３段１６２－１號１樓、１６４號１樓"
    }
  },
  {
    "type": "Feature",
    "geometry": {
       "type": "Point",
       "coordinates":  [ 121.608938,25.07174099 ]
    },
    "properties": {
    "機構名稱":"祐生復健科診所",
    "行政區":"內湖區",
    "地址":"臺北市內湖區康寧路３段５４之７號、５４之１１號"
    }
  },
  {
    "type": "Feature",
    "geometry": {
       "type": "Point",
       "coordinates":  [ 121.583476,25.07782701 ]
    },
    "properties": {
    "機構名稱":"紫陽復健科診所",
    "行政區":"內湖區",
    "地址":"臺北市內湖區文德路２０８巷８號１樓、地下１樓"
    }
  },
  {
    "type": "Feature",
    "geometry": {
       "type": "Point",
       "coordinates":  [ 121.615409,25.06938702 ]
    },
    "properties": {
    "機構名稱":"富康復健科診所",
    "行政區":"內湖區",
    "地址":"臺北市內湖區東湖路１１３巷１５號"
    }
  },
  {
    "type": "Feature",
    "geometry": {
       "type": "Point",
       "coordinates":  [ 121.540691,25.06040814 ]
    },
    "properties": {
    "機構名稱":"適康復健科診所",
    "行政區":"中山區",
    "地址":"臺北市中山區龍江路２６８號、２７０號２樓之１"
    }
  },
  {
    "type": "Feature",
    "geometry": {
       "type": "Point",
       "coordinates":  [ 121.5746777,25.07660793 ]
    },
    "properties": {
    "機構名稱":"恆新復健科診所",
    "行政區":"內湖區",
    "地址":"臺北市內湖區瑞光路３３７號（７樓）"
    }
  },
  {
    "type": "Feature",
    "geometry": {
       "type": "Point",
       "coordinates":  [ 121.563144,25.08312001 ]
    },
    "properties": {
    "機構名稱":"紫陽診所",
    "行政區":"內湖區",
    "地址":"臺北市內湖區內湖路１段１１８號３樓"
    }
  },
  {
    "type": "Feature",
    "geometry": {
       "type": "Point",
       "coordinates":  [ 121.5746777,25.07660793 ]
    },
    "properties": {
    "機構名稱":"國泰醫療財團法人內湖國泰診所",
    "行政區":"內湖區",
    "地址":"臺北市內湖區瑞光路３３７號（１、２、３、４樓）"
    }
  },
  {
    "type": "Feature",
    "geometry": {
       "type": "Point",
       "coordinates":  [ 121.581392,25.04566799 ]
    },
    "properties": {
    "機構名稱":"興盛診所",
    "行政區":"南港區",
    "地址":"臺北市南港區永吉路５４６、５５１號、中坡北路３０巷１６號２樓"
    }
  },
  {
    "type": "Feature",
    "geometry": {
       "type": "Point",
       "coordinates":  [ 121.611647,25.05533798 ]
    },
    "properties": {
    "機構名稱":"南港復健科診所",
    "行政區":"南港區",
    "地址":"臺北市南港區南港路１段１７２號"
    }
  },
  {
    "type": "Feature",
    "geometry": {
       "type": "Point",
       "coordinates":  [ 121.557368,24.999679 ]
    },
    "properties": {
    "機構名稱":"臺北市立萬芳醫院-委託臺北醫學大學辦理",
    "行政區":"文山區",
    "地址":"臺北市文山區興隆路３段１１１號"
    }
  },
  {
    "type": "Feature",
    "geometry": {
       "type": "Point",
       "coordinates":  [ 121.539771,24.99115499 ]
    },
    "properties": {
    "機構名稱":"景美醫院",
    "行政區":"文山區",
    "地址":"臺北市文山區羅斯福路６段２８０號及文山區育英街２巷１８號"
    }
  },
  {
    "type": "Feature",
    "geometry": {
       "type": "Point",
       "coordinates":  [ 121.553396,25.00110598 ]
    },
    "properties": {
    "機構名稱":"晉康復健科診所",
    "行政區":"文山區",
    "地址":"臺北市文山區興隆路２段２２８－１號１樓"
    }
  },
  {
    "type": "Feature",
    "geometry": {
       "type": "Point",
       "coordinates":  [ 121.559087,24.98115701 ]
    },
    "properties": {
    "機構名稱":"春林復健科診所",
    "行政區":"文山區",
    "地址":"臺北市文山區木新路３段２２９號１樓"
    }
  },
  {
    "type": "Feature",
    "geometry": {
       "type": "Point",
       "coordinates":  [ 121.557048,24.99833501 ]
    },
    "properties": {
    "機構名稱":"興隆診所",
    "行政區":"文山區",
    "地址":"臺北市文山區興隆路３段１１２巷９號１樓、地下１樓"
    }
  },
  {
    "type": "Feature",
    "geometry": {
       "type": "Point",
       "coordinates":  [ 121.559833,24.99496301 ]
    },
    "properties": {
    "機構名稱":"文山復健科診所",
    "行政區":"文山區",
    "地址":"臺北市文山區興隆路３段２０７－４號、２０７－５號"
    }
  },
  {
    "type": "Feature",
    "geometry": {
       "type": "Point",
       "coordinates":  [ 121.56258,24.982565 ]
    },
    "properties": {
    "機構名稱":"合康復健科診所",
    "行政區":"文山區",
    "地址":"臺北市文山區興隆路４段２１７號（實際營業場所１樓、２樓）"
    }
  },
  {
    "type": "Feature",
    "geometry": {
       "type": "Point",
       "coordinates":  [ 121.541381,24.993596 ]
    },
    "properties": {
    "機構名稱":"黃兆宜曙光診所",
    "行政區":"文山區",
    "地址":"臺北市文山區景文街１號３樓"
    }
  },
  {
    "type": "Feature",
    "geometry": {
       "type": "Point",
       "coordinates":  [ 121.5390673,25.00472591 ]
    },
    "properties": {
    "機構名稱":"萬隆力康復健科診所",
    "行政區":"文山區",
    "地址":"臺北市文山區羅斯福路５段１２７號、１２９號（１、２樓）"
    }
  }
]
}