{
   "type": "FeatureCollection",
   "features": [
  {
    "type": "Feature",
    "geometry": {
       "type": "Point",
       "coordinates":  [ 121.56287979912946,25.03764450272111 ]
    },
    "properties": {
    "展演地":"市民廣場及市政大樓周邊場地街舞區",
    "主管機關":"臺北市市政大樓公共事務管理中心",
    "開放表演類型":"表演藝術類、視覺藝術類、工藝藝術類",
    "申請方式":"電話預約",
    "展演點數量":2,
    "description":"",
    "address":"110台北市信義區松壽路1號",
    "district":"信義區"
    }
  },
  {
    "type": "Feature",
    "geometry": {
       "type": "Point",
       "coordinates":  [ 121.54792296630542,25.09441169775223 ]
    },
    "properties": {
    "展演地":"錢穆故居戶外庭園、人文茶坊",
    "主管機關":"臺北市政府文化局",
    "開放表演類型":"表演藝術類、視覺藝術類、工藝藝術類",
    "申請方式":"電話預約",
    "展演點數量":2,
    "description":"",
    "address":"111台北市士林區臨溪路72號",
    "district":"士林區"
    }
  },
  {
    "type": "Feature",
    "geometry": {
       "type": "Point",
       "coordinates":  [ 121.56202899651764,25.034274270375597 ]
    },
    "properties": {
    "展演地":"公民會館(中央廣場)",
    "主管機關":"臺北市信義區公所",
    "開放表演類型":"表演藝術類、視覺藝術類、工藝藝術類",
    "申請方式":"電話預約申請及書面申請",
    "展演點數量":1,
    "description":"",
    "address":"110台北市信義區松勤街50號",
    "district":"信義區"
    }
  },
  {
    "type": "Feature",
    "geometry": {
       "type": "Point",
       "coordinates":  [ 121.57868123164704,25.07994887778657 ]
    },
    "properties": {
    "展演地":"港富里737音樂夜市",
    "主管機關":"臺北市內湖區港富里辦公處",
    "開放表演類型":"表演藝術類、視覺藝術類、工藝藝術類",
    "申請方式":"電話預約",
    "展演點數量":1,
    "description":"",
    "address":"114台北市內湖區內湖路一段737巷",
    "district":"內湖區"
    }
  },
  {
    "type": "Feature",
    "geometry": {
       "type": "Point",
       "coordinates":  [ 121.55514684733812,25.09162750156807 ]
    },
    "properties": {
    "展演地":"美麗新廣場",
    "主管機關":"美麗華實業股份有限公司",
    "開放表演類型":"表演藝術類、視覺藝術類、工藝藝術類",
    "申請方式":"電子郵件申請",
    "展演點數量":4,
    "description":"",
    "address":"10491台北市中山區北安路780號",
    "district":"中山區"
    }
  },
  {
    "type": "Feature",
    "geometry": {
       "type": "Point",
       "coordinates":  [ 121.54755124369925,25.04158817455825 ]
    },
    "properties": {
    "展演地":"東區龍門廣場、東區頂好廣場",
    "主管機關":"臺北捷運公司-東區地下街辦公室",
    "開放表演類型":"表演藝術類、視覺藝術類、工藝藝術類",
    "申請方式":"線上登記",
    "展演點數量":3,
    "description":"",
    "address":"106台北市大安區",
    "district":"大安區"
    }
  },
  {
    "type": "Feature",
    "geometry": {
       "type": "Point",
       "coordinates":  [ 121.5451828797968,25.04282542318259 ]
    },
    "properties": {
    "展演地":"瑠公綠廊",
    "主管機關":"臺北市政府工務局公園路燈工程管理處",
    "開放表演類型":"視覺藝術類、工藝藝術類",
    "申請方式":"線上登記",
    "展演點數量":3,
    "description":"",
    "address":"臺北市復興南路一段135巷",
    "district":"大安區"
    }
  },
  {
    "type": "Feature",
    "geometry": {
       "type": "Point",
       "coordinates":  [ 121.5597529,25.0386114 ]
    },
    "properties": {
    "展演地":"國立國父紀念館中山公園廣場",
    "主管機關":"國立國父紀念館",
    "開放表演類型":"表演藝術類、視覺藝術類、工藝藝術類",
    "申請方式":"電話預約",
    "展演點數量":2,
    "description":"",
    "address":"110台灣台北市信義區仁愛路四段505號中山公園",
    "district":"信義區"
    }
  },
  {
    "type": "Feature",
    "geometry": {
       "type": "Point",
       "coordinates":  [ 121.5669095,25.0355892 ]
    },
    "properties": {
    "展演地":"信義徒步區",
    "主管機關":"臺北市政府文化局",
    "開放表演類型":"表演藝術類、視覺藝術類、工藝藝術類",
    "申請方式":"線上登記",
    "展演點數量":32,
    "description":"",
    "address":"110台灣台北市信義區松壽路20號",
    "district":"信義區"
    }
  },
  {
    "type": "Feature",
    "geometry": {
       "type": "Point",
       "coordinates":  [ 121.5073209,25.044043 ]
    },
    "properties": {
    "展演地":"西門徒步區",
    "主管機關":"臺北市政府文化局",
    "開放表演類型":"表演藝術類、視覺藝術類、工藝藝術類",
    "申請方式":"線上登記",
    "展演點數量":20,
    "description":"",
    "address":"108台灣台北市萬華區漢中街50巷9號",
    "district":"萬華區"
    }
  },
  {
    "type": "Feature",
    "geometry": {
       "type": "Point",
       "coordinates":  [ 121.5332629,25.0105988 ]
    },
    "properties": {
    "展演地":"寶藏巖",
    "主管機關":"臺北市政府文化局、臺北市文化基金會",
    "開放表演類型":"表演藝術類、視覺藝術類、工藝藝術類",
    "申請方式":"電話預約",
    "展演點數量":1,
    "description":"",
    "address":"100台灣台北市中正區汀州路三段230巷23號",
    "district":"中正區"
    }
  },
  {
    "type": "Feature",
    "geometry": {
       "type": "Point",
       "coordinates":  [ 121.5606383,25.0438366 ]
    },
    "properties": {
    "展演地":"松山文創園區",
    "主管機關":"臺北市政府文化局、臺北市文化基金會",
    "開放表演類型":"表演藝術類、視覺藝術類、工藝藝術類",
    "申請方式":"松山文創園區官方網站",
    "展演點數量":4,
    "description":"",
    "address":"11072台灣台北市信義區光復南路133號",
    "district":"信義區"
    }
  },
  {
    "type": "Feature",
    "geometry": {
       "type": "Point",
       "coordinates":  [ 121.5103481,25.0430794 ]
    },
    "properties": {
    "展演地":"中山堂廣場",
    "主管機關":"臺北市政府文化局、臺北市中山堂管理所",
    "開放表演類型":"表演藝術類、視覺藝術類、工藝藝術類",
    "申請方式":"電話預約",
    "展演點數量":2,
    "description":"",
    "address":"100台灣台北市中正區延平南路83號中山堂生活廣場",
    "district":"中正區"
    }
  },
  {
    "type": "Feature",
    "geometry": {
       "type": "Point",
       "coordinates":  [ 121.5654268,25.0329636 ]
    },
    "properties": {
    "展演地":"臺北市立美術館廣場",
    "主管機關":"臺北市政府文化局、臺北市立美術館",
    "開放表演類型":"表演藝術類、視覺藝術類、工藝藝術類",
    "申請方式":"書面申請",
    "展演點數量":1,
    "description":"",
    "address":"台灣台北市",
    "district":"中山區"
    }
  },
  {
    "type": "Feature",
    "geometry": {
       "type": "Point",
       "coordinates":  [ 121.5022901,25.1369406 ]
    },
    "properties": {
    "展演地":"捷運新北投站",
    "主管機關":"臺北捷運公司",
    "開放表演類型":"表演藝術類、視覺藝術類",
    "申請方式":"線上登記",
    "展演點數量":2,
    "description":"",
    "address":"112台灣台北市北投區大業路700號新北投",
    "district":"北投區"
    }
  },
  {
    "type": "Feature",
    "geometry": {
       "type": "Point",
       "coordinates":  [ 121.498633,25.131841 ]
    },
    "properties": {
    "展演地":"捷運北投站",
    "主管機關":"臺北捷運公司",
    "開放表演類型":"表演藝術類、視覺藝術類、工藝藝術類",
    "申請方式":"線上登記",
    "展演點數量":1,
    "description":"",
    "address":"112台灣台北市北投區光明路1號",
    "district":"北投區"
    }
  },
  {
    "type": "Feature",
    "geometry": {
       "type": "Point",
       "coordinates":  [ 121.5276853,25.0928463 ]
    },
    "properties": {
    "展演地":"捷運士林站",
    "主管機關":"臺北捷運公司",
    "開放表演類型":"視覺藝術類、表演藝術類(僅限非音樂性之表演)",
    "申請方式":"線上登記",
    "展演點數量":1,
    "description":"",
    "address":"111台灣台北市士林區捷運士林站(中山)",
    "district":"士林區"
    }
  },
  {
    "type": "Feature",
    "geometry": {
       "type": "Point",
       "coordinates":  [ 121.5183115,25.0326494 ]
    },
    "properties": {
    "展演地":"捷運中正紀念堂站",
    "主管機關":"臺北捷運公司",
    "開放表演類型":"表演藝術類之歌唱與樂器演奏類",
    "申請方式":"電話登記、傳真(1組身心障礙者(限5人以下團體或個人)表演",
    "展演點數量":1,
    "description":"",
    "address":"100台灣台北市中正區羅斯福路一段8之1號之中正紀念堂",
    "district":"中正區"
    }
  },
  {
    "type": "Feature",
    "geometry": {
       "type": "Point",
       "coordinates":  [ 121.508298,25.0417466 ]
    },
    "properties": {
    "展演地":"捷運西門站",
    "主管機關":"臺北捷運公司",
    "開放表演類型":"表演藝術類之歌唱與樂器演奏類",
    "申請方式":"線上登記1組(限3人以下團體或個人)表演",
    "展演點數量":1,
    "description":"",
    "address":"100台灣台北市中正區捷運西門站",
    "district":"中正區"
    }
  },
  {
    "type": "Feature",
    "geometry": {
       "type": "Point",
       "coordinates":  [ 121.5475316,25.0415737 ]
    },
    "properties": {
    "展演地":"捷運東區地下街",
    "主管機關":"臺北捷運公司",
    "開放表演類型":"表演藝術類、視覺藝術類",
    "申請方式":"線上登記",
    "展演點數量":5,
    "description":"",
    "address":"106台灣台北市大安區大安路一段77號",
    "district":"大安區"
    }
  },
  {
    "type": "Feature",
    "geometry": {
       "type": "Point",
       "coordinates":  [ 0.0,0.0 ]
    },
    "properties": {
    "展演地":"貓空纜車",
    "主管機關":"臺北捷運公司",
    "開放表演類型":"音樂性之表演藝術類",
    "申請方式":"線上登記",
    "展演點數量":5,
    "description":"",
    "address":"Zoo - Maokong",
    "district":"文山區"
    }
  },
  {
    "type": "Feature",
    "geometry": {
       "type": "Point",
       "coordinates":  [ 121.514951,25.0972351 ]
    },
    "properties": {
    "展演地":"臺北市兒童新樂園、樹蛙表演場",
    "主管機關":"臺北捷運公司",
    "開放表演類型":"表演藝術類",
    "申請方式":"線上登記",
    "展演點數量":7,
    "description":"",
    "address":"11169台灣台北市士林區承德路五段55號",
    "district":"士林區"
    }
  },
  {
    "type": "Feature",
    "geometry": {
       "type": "Point",
       "coordinates":  [ 121.5189766,25.0508047 ]
    },
    "properties": {
    "展演地":"臺北當代藝術館",
    "主管機關":"臺北市政府文化局",
    "開放表演類型":"表演藝術類、視覺藝術類、工藝藝術類",
    "申請方式":"電話預約",
    "展演點數量":1,
    "description":"",
    "address":"103台灣台北市大同區長安西路39號",
    "district":"大同區"
    }
  },
  {
    "type": "Feature",
    "geometry": {
       "type": "Point",
       "coordinates":  [ 121.5834051,25.0831288 ]
    },
    "properties": {
    "展演地":"碧湖公園(內湖區)",
    "主管機關":"臺北市政府工務局公園路燈工程管理處",
    "開放表演類型":"表演藝術類、視覺藝術類、工藝藝術類",
    "申請方式":"線上登記",
    "展演點數量":1,
    "description":"",
    "address":"114台灣台北市內湖區內湖路二段175號碧湖公園",
    "district":"內湖區"
    }
  },
  {
    "type": "Feature",
    "geometry": {
       "type": "Point",
       "coordinates":  [ 121.603164,25.0825351 ]
    },
    "properties": {
    "展演地":"大湖公園(內湖區)",
    "主管機關":"臺北市政府工務局公園路燈工程管理處",
    "開放表演類型":"表演藝術類、視覺藝術類、工藝藝術類",
    "申請方式":"線上登記",
    "展演點數量":2,
    "description":"",
    "address":"114台灣台北市內湖區成功路五段31號大湖公園",
    "district":"內湖區"
    }
  },
  {
    "type": "Feature",
    "geometry": {
       "type": "Point",
       "coordinates":  [ 121.5062829,25.1363048 ]
    },
    "properties": {
    "展演地":"北投公園(北投區)",
    "主管機關":"臺北市政府工務局公園路燈工程管理處",
    "開放表演類型":"表演藝術類、視覺藝術類、工藝藝術類",
    "申請方式":"線上登記",
    "展演點數量":2,
    "description":"",
    "address":"112台灣台北市北投區光明路中山路北投公園",
    "district":"北投區"
    }
  },
  {
    "type": "Feature",
    "geometry": {
       "type": "Point",
       "coordinates":  [ 121.5362867,25.0296587 ]
    },
    "properties": {
    "展演地":"大安森林公園(大安區)",
    "主管機關":"臺北市政府工務局公園路燈工程管理處",
    "開放表演類型":"表演藝術類、視覺藝術類、工藝藝術類",
    "申請方式":"線上登記",
    "展演點數量":2,
    "description":"",
    "address":"106台灣台北市大安區新生南路二段1號大安森林公園",
    "district":"大安區"
    }
  },
  {
    "type": "Feature",
    "geometry": {
       "type": "Point",
       "coordinates":  [ 121.499914,25.0360144 ]
    },
    "properties": {
    "展演地":"艋舺公園(萬華區)",
    "主管機關":"臺北市政府工務局公園路燈工程管理處",
    "開放表演類型":"表演藝術類、視覺藝術類",
    "申請方式":"線上登記",
    "展演點數量":4,
    "description":"",
    "address":"108台灣台北市萬華區廣州街西園路交叉口艋舺公園",
    "district":"萬華區"
    }
  },
  {
    "type": "Feature",
    "geometry": {
       "type": "Point",
       "coordinates":  [ 121.5151192,25.0427872 ]
    },
    "properties": {
    "展演地":"二二八和平公園(中正區)、台灣博物館",
    "主管機關":"臺北市政府工務局公園路燈工程管理處",
    "開放表演類型":"表演藝術類、視覺藝術類、工藝藝術類",
    "申請方式":"線上登記",
    "展演點數量":3,
    "description":"",
    "address":"100台灣台北市中正區襄陽路2號",
    "district":"中正區"
    }
  },
  {
    "type": "Feature",
    "geometry": {
       "type": "Point",
       "coordinates":  [ 121.5291642,25.0913793 ]
    },
    "properties": {
    "展演地":"士林官邸公園(菊展期間)",
    "主管機關":"臺北市政府工務局公園路燈工程管理處",
    "開放表演類型":"表演藝術類、視覺藝術類、工藝藝術類",
    "申請方式":"線上登記",
    "展演點數量":5,
    "description":"",
    "address":"111台灣台北市士林區中山北路五段460巷4號士林官邸公園",
    "district":"士林區"
    }
  },
  {
    "type": "Feature",
    "geometry": {
       "type": "Point",
       "coordinates":  [ 121.5411006,25.07469 ]
    },
    "properties": {
    "展演地":"大佳河濱公園",
    "主管機關":"臺北市政府工務局水利工程處",
    "開放表演類型":"表演藝術類",
    "申請方式":"線上登記",
    "展演點數量":1,
    "description":"",
    "address":"104台灣台北市中山區濱江街5號大佳河濱公園",
    "district":"中山區"
    }
  },
  {
    "type": "Feature",
    "geometry": {
       "type": "Point",
       "coordinates":  [ 121.5200644,25.0206167 ]
    },
    "properties": {
    "展演地":"古亭河濱公園",
    "主管機關":"臺北市政府工務局水利工程處",
    "開放表演類型":"表演藝術類",
    "申請方式":"線上登記",
    "展演點數量":1,
    "description":"",
    "address":"100台灣台北市中正區同安街109巷10號台北市古亭河濱公園",
    "district":"中正區"
    }
  },
  {
    "type": "Feature",
    "geometry": {
       "type": "Point",
       "coordinates":  [ 121.586011,25.055591 ]
    },
    "properties": {
    "展演地":"成美右岸河濱公園",
    "主管機關":"臺北市政府工務局水利工程處",
    "開放表演類型":"表演藝術類",
    "申請方式":"線上登記",
    "展演點數量":1,
    "description":"",
    "address":"114台灣台北市內湖區成美右岸河濱公園",
    "district":"內湖區"
    }
  },
  {
    "type": "Feature",
    "geometry": {
       "type": "Point",
       "coordinates":  [ 121.58638,25.053946 ]
    },
    "properties": {
    "展演地":"成美左岸河濱公園",
    "主管機關":"臺北市政府工務局水利工程處",
    "開放表演類型":"表演藝術類",
    "申請方式":"線上登記",
    "展演點數量":1,
    "description":"",
    "address":"115台灣台北市南港區成美左岸河濱公園",
    "district":"南港區"
    }
  },
  {
    "type": "Feature",
    "geometry": {
       "type": "Point",
       "coordinates":  [ 121.5608673,25.0753765 ]
    },
    "properties": {
    "展演地":"美堤河濱公園",
    "主管機關":"臺北市政府工務局水利工程處",
    "開放表演類型":"表演藝術類",
    "申請方式":"線上登記",
    "展演點數量":2,
    "description":"",
    "address":"10491台灣台北市中山區樂群一路基隆河基16號水門美堤河濱公園",
    "district":"中山區"
    }
  },
  {
    "type": "Feature",
    "geometry": {
       "type": "Point",
       "coordinates":  [ 121.4671,25.12563 ]
    },
    "properties": {
    "展演地":"關渡河濱公園",
    "主管機關":"臺北市政府工務局水利工程處",
    "開放表演類型":"表演藝術類",
    "申請方式":"線上登記",
    "展演點數量":1,
    "description":"",
    "address":"112台灣台北市北投區關渡",
    "district":"北投區"
    }
  },
  {
    "type": "Feature",
    "geometry": {
       "type": "Point",
       "coordinates":  [ 121.5102264,25.0743921 ]
    },
    "properties": {
    "展演地":"迪化污水處理廠附設休閒運動公園",
    "主管機關":"工務局衛生下水道工程處",
    "開放表演類型":"表演藝術類、視覺藝術類、工藝藝術類",
    "申請方式":"線上登記",
    "展演點數量":6,
    "description":"",
    "address":"103台灣台北市大同區延平北路四段迪化污水處理廠附設休閒運動公園",
    "district":"大同區"
    }
  },
  {
    "type": "Feature",
    "geometry": {
       "type": "Point",
       "coordinates":  [ 121.574362,25.066389 ]
    },
    "properties": {
    "展演地":"內湖污水處理廠回饋公園",
    "主管機關":"工務局衛生下水道工程處",
    "開放表演類型":"表演藝術類、視覺藝術類、工藝藝術類",
    "申請方式":"線上登記",
    "展演點數量":4,
    "description":"",
    "address":"114台灣台北市內湖區舊宗路二段2號",
    "district":"內湖區"
    }
  },
  {
    "type": "Feature",
    "geometry": {
       "type": "Point",
       "coordinates":  [ 121.5183633,25.0958186 ]
    },
    "properties": {
    "展演地":"臺北市立天文科學教育館",
    "主管機關":"臺北市立天文科學教育館",
    "開放表演類型":"表演藝術類",
    "申請方式":"線上登記",
    "展演點數量":1,
    "description":"",
    "address":"111台灣台北市士林區基河路363號",
    "district":"士林區"
    }
  },
  {
    "type": "Feature",
    "geometry": {
       "type": "Point",
       "coordinates":  [ 121.5342422,25.1148777 ]
    },
    "properties": {
    "展演地":"天母運動公園音樂台",
    "主管機關":"臺北市政府體育局",
    "開放表演類型":"表演藝術類、視覺藝術類",
    "申請方式":"書面申請",
    "展演點數量":1,
    "description":"",
    "address":"111台灣台北市士林區忠誠路二段天母運動公園",
    "district":"士林區"
    }
  },
  {
    "type": "Feature",
    "geometry": {
       "type": "Point",
       "coordinates":  [ 121.5303215,25.013284 ]
    },
    "properties": {
    "展演地":"自來水園區內各展演場地",
    "主管機關":"臺北自來水事業處",
    "開放表演類型":"表演藝術類、視覺藝術類、工藝藝術類",
    "申請方式":"線上登記",
    "展演點數量":2,
    "description":"",
    "address":"100台灣台北市中正區思源街1號自來水園區",
    "district":"中正區"
    }
  },
  {
    "type": "Feature",
    "geometry": {
       "type": "Point",
       "coordinates":  [ 121.5221637,25.0716662 ]
    },
    "properties": {
    "展演地":"花博公園公共空間(Maji商城入口處前方空間)",
    "主管機關":"財團法人臺北市會展產業發展基金會",
    "開放表演類型":"表演藝術類、視覺藝術類、工藝藝術類",
    "申請方式":"線上登記",
    "展演點數量":1,
    "description":"",
    "address":"10491台灣台北市中山區玉門街1號花博公園圓山園區",
    "district":"中山區"
    }
  },
  {
    "type": "Feature",
    "geometry": {
       "type": "Point",
       "coordinates":  [ 121.5241766,25.0880024 ]
    },
    "properties": {
    "展演地":"士林市場藝文空間",
    "主管機關":"臺北市市場處",
    "開放表演類型":"表演藝術類、視覺藝術類",
    "申請方式":"現場申請",
    "展演點數量":1,
    "description":"",
    "address":"111台灣台北市士林區基河路101號",
    "district":"士林區"
    }
  },
  {
    "type": "Feature",
    "geometry": {
       "type": "Point",
       "coordinates":  [ 121.5136386,25.0495017 ]
    },
    "properties": {
    "展演地":"臺北市台北地下街",
    "主管機關":"臺北市市場處",
    "開放表演類型":"表演藝術類、視覺藝術類",
    "申請方式":"現場申請、電話預約或電子郵件",
    "展演點數量":3,
    "description":"",
    "address":"100台灣台北市中正區市民大道一段100號B1",
    "district":"中正區"
    }
  },
  {
    "type": "Feature",
    "geometry": {
       "type": "Point",
       "coordinates":  [ 121.5158162,25.0458991 ]
    },
    "properties": {
    "展演地":"臺北市站前地下街",
    "主管機關":"臺北市市場處",
    "開放表演類型":"表演藝術類、視覺藝術類",
    "申請方式":"現場申請或電子郵件申請",
    "展演點數量":1,
    "description":"",
    "address":"100台灣台北市中正區忠孝西路一段50-1號B1 13-5號店鋪",
    "district":"中正區"
    }
  },
  {
    "type": "Feature",
    "geometry": {
       "type": "Point",
       "coordinates":  [ 121.5336389,25.053628 ]
    },
    "properties": {
    "展演地":"臺北市四平商圈徒步區",
    "主管機關":"臺北市四平商圈徒步區發展協會",
    "開放表演類型":"表演藝術類、視覺藝術類、工藝藝術類",
    "申請方式":"電話預約",
    "展演點數量":1,
    "description":"",
    "address":"10491台灣台北市中山區四平街79號",
    "district":"中山區"
    }
  },
  {
    "type": "Feature",
    "geometry": {
       "type": "Point",
       "coordinates":  [ 121.5809857,24.9985635 ]
    },
    "properties": {
    "展演地":"臺北市立動物園",
    "主管機關":"臺北市立動物園",
    "開放表演類型":"表演藝術類、視覺藝術類、工藝藝術類",
    "申請方式":"線上登記",
    "展演點數量":7,
    "description":"",
    "address":"116台灣台北市文山區新光路二段30號",
    "district":"文山區"
    }
  },
  {
    "type": "Feature",
    "geometry": {
       "type": "Point",
       "coordinates":  [ 121.555244,25.084711 ]
    },
    "properties": {
    "展演地":"捷運劍南路站",
    "主管機關":"臺北捷運公司",
    "開放表演類型":"表演藝術類、視覺藝術類、工藝藝術類",
    "申請方式":"線上登記",
    "展演點數量":2,
    "description":"",
    "address":"104台灣台北市中山區捷運劍南路站",
    "district":"中山區"
    }
  },
  {
    "type": "Feature",
    "geometry": {
       "type": "Point",
       "coordinates":  [ 121.5201843,25.0696122 ]
    },
    "properties": {
    "展演地":"捷運圓山站",
    "主管機關":"臺北捷運公司",
    "開放表演類型":"表演藝術類、視覺藝術類、工藝藝術類(表演藝術類不得使用電子類樂器)",
    "申請方式":"線上登記",
    "展演點數量":1,
    "description":"",
    "address":"104台灣台北市大同區10491捷運圓山站",
    "district":"大同區"
    }
  },
  {
    "type": "Feature",
    "geometry": {
       "type": "Point",
       "coordinates":  [ 121.520391,25.052685 ]
    },
    "properties": {
    "展演地":"捷運中山站",
    "主管機關":"臺北捷運公司",
    "開放表演類型":"表演藝術類、視覺藝術類",
    "申請方式":"線上登記",
    "展演點數量":2,
    "description":"",
    "address":"10491台灣台北市中山區南京西路16號中山",
    "district":"中山區"
    }
  },
  {
    "type": "Feature",
    "geometry": {
       "type": "Point",
       "coordinates":  [ 121.5353131,25.0335283 ]
    },
    "properties": {
    "展演地":"捷運大安森林公園站",
    "主管機關":"臺北捷運公司",
    "開放表演類型":"表演藝術類",
    "申請方式":"線上登記",
    "展演點數量":1,
    "description":"",
    "address":"106台灣台北市大安區信義路三段100號大安森林公園",
    "district":"大安區"
    }
  },
  {
    "type": "Feature",
    "geometry": {
       "type": "Point",
       "coordinates":  [ 121.5574584,25.0834232 ]
    },
    "properties": {
    "展演地":"美麗華百樂園",
    "主管機關":"美麗華城市發展股份有限公司",
    "開放表演類型":"表演藝術類、視覺藝術類、工藝藝術類",
    "申請方式":"電子郵件申請",
    "展演點數量":2,
    "description":"",
    "address":"10491台灣台北市中山區敬業三路20號",
    "district":"中山區"
    }
  },
  {
    "type": "Feature",
    "geometry": {
       "type": "Point",
       "coordinates":  [ 121.5645389,25.033976 ]
    },
    "properties": {
    "展演地":"台北101",
    "主管機關":"台北金融大樓股份有限公司",
    "開放表演類型":"表演藝術類、視覺藝術類、工藝藝術類",
    "申請方式":"電子郵件申請",
    "展演點數量":2,
    "description":"",
    "address":"Taipei 101, No. 7信義路五段信義區台北市台灣 110",
    "district":"信義區"
    }
  },
  {
    "type": "Feature",
    "geometry": {
       "type": "Point",
       "coordinates":  [ 121.5041545,25.0190025 ]
    },
    "properties": {
    "展演地":"馬場町紀念公園",
    "主管機關":"臺北市政府工務局水利工程處",
    "開放表演類型":"表演藝術類",
    "申請方式":"線上登記",
    "展演點數量":1,
    "description":"",
    "address":"108台灣台北市萬華區青年路188巷1弄7號馬場町紀念公園",
    "district":"萬華區"
    }
  },
  {
    "type": "Feature",
    "geometry": {
       "type": "Point",
       "coordinates":  [ 121.5445152,25.0461678 ]
    },
    "properties": {
    "展演地":"微風廣場",
    "主管機關":"微風廣場實業股份有限公司",
    "開放表演類型":"表演藝術類、視覺藝術類、工藝藝術類",
    "申請方式":"電子郵件申請",
    "展演點數量":2,
    "description":"",
    "address":"105台灣台北市松山區復興南路一段39號",
    "district":"松山區"
    }
  },
  {
    "type": "Feature",
    "geometry": {
       "type": "Point",
       "coordinates":  [ 121.522821,25.0325548 ]
    },
    "properties": {
    "展演地":"南門中繼市場",
    "主管機關":"臺北市市場處",
    "開放表演類型":"表演藝術類、視覺藝術類、工藝藝術類",
    "申請方式":"電話預約",
    "展演點數量":1,
    "description":"",
    "address":"106台灣台北市大安區杭州南路二段55號",
    "district":"大安區"
    }
  },
  {
    "type": "Feature",
    "geometry": {
       "type": "Point",
       "coordinates":  [ 121.5206671,25.0577788 ]
    },
    "properties": {
    "展演地":"捷運雙連站",
    "主管機關":"臺北捷運公司",
    "開放表演類型":"表演藝術類(限5人以下團體及個人，電子類 樂器及鼓除外)",
    "申請方式":"線上登記",
    "展演點數量":1,
    "description":"",
    "address":"104台灣台北市大同區民生西路47號雙連",
    "district":"大同區"
    }
  },
  {
    "type": "Feature",
    "geometry": {
       "type": "Point",
       "coordinates":  [ 121.5679552,25.0367511 ]
    },
    "properties": {
    "展演地":"遠百信義A13",
    "主管機關":"遠百信義A13",
    "開放表演類型":"一般表演/視覺/音樂/工藝類型節目，但較高音量的節目除外。",
    "申請方式":"電子郵件申請",
    "展演點數量":1,
    "description":"",
    "address":"110台灣台北市信義區松仁路58號",
    "district":"信義區"
    }
  },
  {
    "type": "Feature",
    "geometry": {
       "type": "Point",
       "coordinates":  [ 121.5659555,25.0343073 ]
    },
    "properties": {
    "展演地":"微風南山",
    "主管機關":"微風南山",
    "開放表演類型":"表演藝術類、視覺藝術類、工藝藝術類",
    "申請方式":"電子郵件申請",
    "展演點數量":3,
    "description":"",
    "address":"110台灣台北市信義區松智路17號",
    "district":"信義區"
    }
  },
  {
    "type": "Feature",
    "geometry": {
       "type": "Point",
       "coordinates":  [ 121.5249762,25.0842798 ]
    },
    "properties": {
    "展演地":"捷運劍潭站",
    "主管機關":"臺北捷運公司",
    "開放表演類型":"表演藝術類",
    "申請方式":"線上登記",
    "展演點數量":1,
    "description":"",
    "address":"111台灣台北市士林區中山北路五段65號劍潭",
    "district":"士林區"
    }
  },
  {
    "type": "Feature",
    "geometry": {
       "type": "Point",
       "coordinates":  [ 121.6047663,25.0536372 ]
    },
    "properties": {
    "展演地":"瓶蓋工廠台北製造所",
    "主管機關":"臺北市產業發展局",
    "開放表演類型":"表演藝術類",
    "申請方式":"電子郵件申請",
    "展演點數量":3,
    "description":"",
    "address":"115台灣台北市南港區南港路二段13號",
    "district":"南港區"
    }
  },
  {
    "type": "Feature",
    "geometry": {
       "type": "Point",
       "coordinates":  [ 121.5659995,25.0353558 ]
    },
    "properties": {
    "展演地":"ATT 4 FUN(信義店)",
    "主管機關":"吸引力股份有限公司",
    "開放表演類型":"表演藝術類、視覺藝術類",
    "申請方式":"電子郵件",
    "展演點數量":9,
    "description":"",
    "address":"110台灣台北市信義區松壽路12號",
    "district":"信義區"
    }
  },
  {
    "type": "Feature",
    "geometry": {
       "type": "Point",
       "coordinates":  [ 121.5659995,25.0353558 ]
    },
    "properties": {
    "展演地":"ATT 4 FUN(大直店)",
    "主管機關":"吸引力股份有限公司",
    "開放表演類型":"表演藝術類、視覺藝術類、工藝藝術類",
    "申請方式":"電子郵件",
    "展演點數量":5,
    "description":"",
    "address":"110台灣台北市信義區松壽路12號",
    "district":"信義區"
    }
  },
  {
    "type": "Feature",
    "geometry": {
       "type": "Point",
       "coordinates":  [ 121.5458298,25.0424137 ]
    },
    "properties": {
    "展演地":"瑠公公園",
    "主管機關":"臺北市政府工務局公園路燈工程管理處",
    "開放表演類型":"表演藝術類、視覺藝術類、工藝藝術類",
    "申請方式":"線上登記",
    "展演點數量":1,
    "description":"",
    "address":"106台灣台北市大安區大安路一段瑠公公園",
    "district":"大安區"
    }
  },
  {
    "type": "Feature",
    "geometry": {
       "type": "Point",
       "coordinates":  [ 121.5029144,25.1364364 ]
    },
    "properties": {
    "展演地":"北投七星公園",
    "主管機關":"臺北市政府工務局公園路燈工程管理處陽明山公園管理所",
    "開放表演類型":"表演藝術類、視覺藝術類、工藝藝術類",
    "申請方式":"線上登記",
    "展演點數量":1,
    "description":"",
    "address":"112台灣台北市北投區七星街七星公園",
    "district":"北投區"
    }
  },
  {
    "type": "Feature",
    "geometry": {
       "type": "Point",
       "coordinates":  [ 121.5879355,24.9683095 ]
    },
    "properties": {
    "展演地":"貓空站戶外廣場",
    "主管機關":"臺北捷運公司",
    "開放表演類型":"表演藝術類、視覺藝術類、工藝藝術類",
    "申請方式":"線上登記",
    "展演點數量":2,
    "description":"",
    "address":"116台灣台北市文山區貓空站",
    "district":"文山區"
    }
  },
  {
    "type": "Feature",
    "geometry": {
       "type": "Point",
       "coordinates":  [ 121.5243691,25.0851242 ]
    },
    "properties": {
    "展演地":"臺北表演藝術中心",
    "主管機關":"臺北表演藝術中心",
    "開放表演類型":"表演藝術類、視覺藝術類",
    "申請方式":"線上登記",
    "展演點數量":3,
    "description":"",
    "address":"111台灣台北市士林區劍潭路1號",
    "district":"士林區"
    }
  },
  {
    "type": "Feature",
    "geometry": {
       "type": "Point",
       "coordinates":  [ 121.599042,25.0526926 ]
    },
    "properties": {
    "展演地":"臺北流行音樂中心",
    "主管機關":"臺北流行音樂中心",
    "開放表演類型":"表演藝術類",
    "申請方式":"電子郵件",
    "展演點數量":3,
    "description":"",
    "address":"115台灣台北市南港區市民大道八段99號",
    "district":"南港區"
    }
  },
  {
    "type": "Feature",
    "geometry": {
       "type": "Point",
       "coordinates":  [ 121.574187,25.0629778 ]
    },
    "properties": {
    "展演地":"台北花市",
    "主管機關":"市場處",
    "開放表演類型":"以管弦樂樂器音樂演奏項目表演藝術類為主",
    "申請方式":"電子郵件",
    "展演點數量":3,
    "description":"",
    "address":"114台灣台北市内湖區新湖三路28號切花、資材、辦公室A館B館盆花",
    "district":"內湖區"
    }
  },
  {
    "type": "Feature",
    "geometry": {
       "type": "Point",
       "coordinates":  [ 121.5570625,25.0822446 ]
    },
    "properties": {
    "展演地":"NOKE忠泰樂生活",
    "主管機關":"忠泰商場事業股份有限公司",
    "開放表演類型":"表演藝術類",
    "申請方式":"電子郵件",
    "展演點數量":1,
    "description":"",
    "address":"10491台灣台北市中山區樂群三路200號",
    "district":"中山區"
    }
  },
  {
    "type": "Feature",
    "geometry": {
       "type": "Point",
       "coordinates":  [ 121.5032328,25.0365665 ]
    },
    "properties": {
    "展演地":"廣州街-環河南路口三角小舞台",
    "主管機關":"市場處",
    "開放表演類型":"表演藝術類、視覺藝術類、工藝藝術類",
    "申請方式":"電話預約",
    "展演點數量":1,
    "description":"",
    "address":"台灣台北市廣州街",
    "district":"士林區"
    }
  },
  {
    "type": "Feature",
    "geometry": {
       "type": "Point",
       "coordinates":  [ 121.579919,25.0509726 ]
    },
    "properties": {
    "展演地":"錫口廊道北側",
    "主管機關":"臺北市政府工務局公園路燈工程管理處",
    "開放表演類型":"表演藝術類、視覺藝術類、工藝藝術類",
    "申請方式":"線上登記",
    "展演點數量":1,
    "description":"",
    "address":"115台灣台北市南港區南港路三段 錫口廊道健行步道",
    "district":"南港區"
    }
  },
  {
    "type": "Feature",
    "geometry": {
       "type": "Point",
       "coordinates":  [ 121.5162386,25.0474322 ]
    },
    "properties": {
    "展演地":"東森廣場臺北車站K區地下街",
    "主管機關":"東森得易購股份有限公司",
    "開放表演類型":"表演藝術類、視覺藝術類",
    "申請方式":"現場登記",
    "展演點數量":4,
    "description":"",
    "address":"103台灣台北市中正區忠孝西路一段47號",
    "district":"中正區"
    }
  },
  {
    "type": "Feature",
    "geometry": {
       "type": "Point",
       "coordinates":  [ 121.4655210413576,25.01249459604013 ]
    },
    "properties": {
    "展演地":"新北市政府市民廣場",
    "主管機關":"新北市文化局",
    "開放表演類型":"",
    "申請方式":"",
    "展演點數量":null,
    "description":"220新北市板橋區中山路1段161號",
    "address":"220新北市板橋區中山路1段161號",
    "district":"板橋區"
    }
  },
  {
    "type": "Feature",
    "geometry": {
       "type": "Point",
       "coordinates":  [ 121.4551749,25.0107186 ]
    },
    "properties": {
    "展演地":"林本源園邸",
    "主管機關":"新北市文化局",
    "開放表演類型":"",
    "申請方式":"",
    "展演點數量":null,
    "description":"220新北市板橋區西門街9號",
    "address":"220新北市板橋區西門街9號",
    "district":"板橋區"
    }
  },
  {
    "type": "Feature",
    "geometry": {
       "type": "Point",
       "coordinates":  [ 121.4521125,25.0250294 ]
    },
    "properties": {
    "展演地":"435藝文特區",
    "主管機關":"新北市文化局",
    "開放表演類型":"",
    "申請方式":"",
    "展演點數量":null,
    "description":"220新北市板橋區中正路435號",
    "address":"220新北市板橋區中正路435號",
    "district":"板橋區"
    }
  },
  {
    "type": "Feature",
    "geometry": {
       "type": "Point",
       "coordinates":  [ 121.464811,25.007454 ]
    },
    "properties": {
    "展演地":"板橋放送所",
    "主管機關":"新北市文化局",
    "開放表演類型":"",
    "申請方式":"",
    "展演點數量":null,
    "description":"220新北市板橋區民族路130巷67號",
    "address":"220新北市板橋區民族路130巷67號",
    "district":"板橋區"
    }
  },
  {
    "type": "Feature",
    "geometry": {
       "type": "Point",
       "coordinates":  [ 121.4596142,25.0093886 ]
    },
    "properties": {
    "展演地":"府中15",
    "主管機關":"新北市文化局",
    "開放表演類型":"",
    "申請方式":"",
    "展演點數量":null,
    "description":"220新北市板橋區府中路15號",
    "address":"220新北市板橋區府中路15號",
    "district":"板橋區"
    }
  },
  {
    "type": "Feature",
    "geometry": {
       "type": "Point",
       "coordinates":  [ 121.45135112397415,25.030072160377614 ]
    },
    "properties": {
    "展演地":"新月橋",
    "主管機關":"新北市文化局",
    "開放表演類型":"",
    "申請方式":"",
    "展演點數量":null,
    "description":"220新北市板橋區環河西路及新莊區瓊林路間",
    "address":"220新北市板橋區環河西路及新莊區瓊林路間",
    "district":"板橋區"
    }
  },
  {
    "type": "Feature",
    "geometry": {
       "type": "Point",
       "coordinates":  [ 121.4483726,24.9953616 ]
    },
    "properties": {
    "展演地":"板橋動物之家",
    "主管機關":"新北市文化局",
    "開放表演類型":"",
    "申請方式":"",
    "展演點數量":null,
    "description":"220新北市板橋區板城路28-1號",
    "address":"220新北市板橋區板城路28-1號",
    "district":"板橋區"
    }
  },
  {
    "type": "Feature",
    "geometry": {
       "type": "Point",
       "coordinates":  [ 121.4639869,25.0143744 ]
    },
    "properties": {
    "展演地":"板橋車站特定專用區站前廣場",
    "主管機關":"新北市文化局",
    "開放表演類型":"",
    "申請方式":"",
    "展演點數量":null,
    "description":"220新北市板橋區縣民大道2段7號",
    "address":"220新北市板橋區縣民大道2段7號",
    "district":"板橋區"
    }
  },
  {
    "type": "Feature",
    "geometry": {
       "type": "Point",
       "coordinates":  [ 121.46850623229433,25.0244517094936 ]
    },
    "properties": {
    "展演地":"板橋花市",
    "主管機關":"新北市文化局",
    "開放表演類型":"",
    "申請方式":"",
    "展演點數量":null,
    "description":"220新北市板橋區文化路與民生路交叉口(台64快速道路橋下空間)",
    "address":"220新北市板橋區文化路與民生路交叉口(台64快速道路橋下空間)",
    "district":"板橋區"
    }
  },
  {
    "type": "Feature",
    "geometry": {
       "type": "Point",
       "coordinates":  [ 121.4637592,25.0141259 ]
    },
    "properties": {
    "展演地":"Global Mall板橋車站2樓戶外廣場",
    "主管機關":"新北市文化局",
    "開放表演類型":"",
    "申請方式":"",
    "展演點數量":null,
    "description":"220新北市板橋區縣民大道2段7號2樓",
    "address":"220新北市板橋區縣民大道2段7號2樓",
    "district":"板橋區"
    }
  },
  {
    "type": "Feature",
    "geometry": {
       "type": "Point",
       "coordinates":  [ 121.4669037,25.0136061 ]
    },
    "properties": {
    "展演地":"板橋大遠百",
    "主管機關":"新北市文化局",
    "開放表演類型":"",
    "申請方式":"",
    "展演點數量":null,
    "description":"220新北市板橋區新站路28號",
    "address":"220新北市板橋區新站路28號",
    "district":"板橋區"
    }
  },
  {
    "type": "Feature",
    "geometry": {
       "type": "Point",
       "coordinates":  [ 121.4644411663023,25.01121874655883 ]
    },
    "properties": {
    "展演地":"遠東百貨板橋中山店",
    "主管機關":"新北市文化局",
    "開放表演類型":"",
    "申請方式":"",
    "展演點數量":null,
    "description":"220新北市板橋區中山路1段152號",
    "address":"220新北市板橋區中山路1段152號",
    "district":"板橋區"
    }
  },
  {
    "type": "Feature",
    "geometry": {
       "type": "Point",
       "coordinates":  [ 121.4423902,25.0044891 ]
    },
    "properties": {
    "展演地":"浮洲高鐵橋下廊道廣場",
    "主管機關":"新北市文化局",
    "開放表演類型":"",
    "申請方式":"",
    "展演點數量":null,
    "description":"220新北市板橋區大觀路一段38巷與大觀路二段174巷交叉口處",
    "address":"220新北市板橋區大觀路一段38巷與大觀路二段174巷交叉口處",
    "district":"板橋區"
    }
  },
  {
    "type": "Feature",
    "geometry": {
       "type": "Point",
       "coordinates":  [ 121.4591083,25.0097408 ]
    },
    "properties": {
    "展演地":"府中廣場",
    "主管機關":"新北市文化局",
    "開放表演類型":"",
    "申請方式":"",
    "展演點數量":null,
    "description":"220新北市板橋區府中路30號與縣民大道二段交叉口(臨捷運府中站2號出口)",
    "address":"220新北市板橋區府中路30號與縣民大道二段交叉口(臨捷運府中站2號出口)",
    "district":"板橋區"
    }
  },
  {
    "type": "Feature",
    "geometry": {
       "type": "Point",
       "coordinates":  [ 121.4601776,25.0085696 ]
    },
    "properties": {
    "展演地":"重慶路行人徒步區",
    "主管機關":"新北市文化局",
    "開放表演類型":"",
    "申請方式":"",
    "展演點數量":null,
    "description":"220新北市板橋區重慶路與縣民大道一段交叉口(薩莉亞旁)",
    "address":"220新北市板橋區重慶路與縣民大道一段交叉口(薩莉亞旁)",
    "district":"板橋區"
    }
  },
  {
    "type": "Feature",
    "geometry": {
       "type": "Point",
       "coordinates":  [ 121.4750985,25.0278848 ]
    },
    "properties": {
    "展演地":"雙十廣場",
    "主管機關":"新北市文化局",
    "開放表演類型":"",
    "申請方式":"",
    "展演點數量":null,
    "description":"220新北市板橋區雙十路二段至文化路182巷7弄間",
    "address":"220新北市板橋區雙十路二段至文化路182巷7弄間",
    "district":"板橋區"
    }
  },
  {
    "type": "Feature",
    "geometry": {
       "type": "Point",
       "coordinates":  [ 121.4995003,25.0579142 ]
    },
    "properties": {
    "展演地":"空軍三重一村",
    "主管機關":"新北市文化局",
    "開放表演類型":"",
    "申請方式":"",
    "展演點數量":null,
    "description":"241新北市三重區正義南路86巷",
    "address":"241新北市三重區正義南路86巷",
    "district":"三重區"
    }
  },
  {
    "type": "Feature",
    "geometry": {
       "type": "Point",
       "coordinates":  [ 121.4842414,25.0699597 ]
    },
    "properties": {
    "展演地":"二二八和平公園",
    "主管機關":"新北市文化局",
    "開放表演類型":"",
    "申請方式":"",
    "展演點數量":null,
    "description":"241新北市三重區忠孝路2段靠自強路",
    "address":"241新北市三重區忠孝路2段靠自強路",
    "district":"三重區"
    }
  },
  {
    "type": "Feature",
    "geometry": {
       "type": "Point",
       "coordinates":  [ 121.468227,25.0616172 ]
    },
    "properties": {
    "展演地":"中山藝術公園",
    "主管機關":"新北市文化局",
    "開放表演類型":"",
    "申請方式":"",
    "展演點數量":null,
    "description":"241新北市三重區新北大道1號",
    "address":"241新北市三重區新北大道1號",
    "district":"三重區"
    }
  },
  {
    "type": "Feature",
    "geometry": {
       "type": "Point",
       "coordinates":  [ 121.4899427,25.0541934 ]
    },
    "properties": {
    "展演地":"玫瑰公園廣場",
    "主管機關":"新北市文化局",
    "開放表演類型":"",
    "申請方式":"",
    "展演點數量":null,
    "description":"241新北市三重區集美街112巷",
    "address":"241新北市三重區集美街112巷",
    "district":"三重區"
    }
  },
  {
    "type": "Feature",
    "geometry": {
       "type": "Point",
       "coordinates":  [ 121.4892696,25.0630604 ]
    },
    "properties": {
    "展演地":"三重綜合運動場",
    "主管機關":"新北市文化局",
    "開放表演類型":"",
    "申請方式":"",
    "展演點數量":null,
    "description":"241新北市三重區中正北路2號",
    "address":"241新北市三重區中正北路2號",
    "district":"三重區"
    }
  },
  {
    "type": "Feature",
    "geometry": {
       "type": "Point",
       "coordinates":  [ 121.4854458,25.0891095 ]
    },
    "properties": {
    "展演地":"集賢環保公園",
    "主管機關":"新北市文化局",
    "開放表演類型":"",
    "申請方式":"",
    "展演點數量":null,
    "description":"241新北市三重區集賢路160號(集賢五華街口)",
    "address":"241新北市三重區集賢路160號(集賢五華街口)",
    "district":"三重區"
    }
  },
  {
    "type": "Feature",
    "geometry": {
       "type": "Point",
       "coordinates":  [ 121.4678328,25.0432523 ]
    },
    "properties": {
    "展演地":"家樂福重新店戶外廣場",
    "主管機關":"新北市文化局",
    "開放表演類型":"",
    "申請方式":"",
    "展演點數量":null,
    "description":"241新北市三重區重新路5段654號",
    "address":"241新北市三重區重新路5段654號",
    "district":"三重區"
    }
  },
  {
    "type": "Feature",
    "geometry": {
       "type": "Point",
       "coordinates":  [ 121.5125472,24.9984676 ]
    },
    "properties": {
    "展演地":"八二三紀念公園(四號公園)",
    "主管機關":"新北市文化局",
    "開放表演類型":"",
    "申請方式":"",
    "展演點數量":null,
    "description":"235新北市中和區中安街與安平路間",
    "address":"235新北市中和區中安街與安平路間",
    "district":"中和區"
    }
  },
  {
    "type": "Feature",
    "geometry": {
       "type": "Point",
       "coordinates":  [ 121.501587,25.0016029 ]
    },
    "properties": {
    "展演地":"枋寮夜市廟仔尾溝(廟美綠林小徑)",
    "主管機關":"新北市文化局",
    "開放表演類型":"",
    "申請方式":"",
    "展演點數量":null,
    "description":"235新北市中和區福和宮旁",
    "address":"235新北市中和區福和宮旁",
    "district":"中和區"
    }
  },
  {
    "type": "Feature",
    "geometry": {
       "type": "Point",
       "coordinates":  [ 121.4756859,25.0033271 ]
    },
    "properties": {
    "展演地":"民享藝文特區",
    "主管機關":"新北市文化局",
    "開放表演類型":"",
    "申請方式":"",
    "展演點數量":null,
    "description":"235新北市中和區自治街58號對面",
    "address":"235新北市中和區自治街58號對面",
    "district":"中和區"
    }
  },
  {
    "type": "Feature",
    "geometry": {
       "type": "Point",
       "coordinates":  [ 121.490381,24.9926349 ]
    },
    "properties": {
    "展演地":"錦和公園(風光中和園區)",
    "主管機關":"新北市文化局",
    "開放表演類型":"",
    "申請方式":"",
    "展演點數量":null,
    "description":"235新北市中和區錦和路350號",
    "address":"235新北市中和區錦和路350號",
    "district":"中和區"
    }
  },
  {
    "type": "Feature",
    "geometry": {
       "type": "Point",
       "coordinates":  [ 121.5007544,24.9986295 ]
    },
    "properties": {
    "展演地":"中和區公所前廣場",
    "主管機關":"新北市文化局",
    "開放表演類型":"",
    "申請方式":"",
    "展演點數量":null,
    "description":"235新北市中和區景平路634-2號",
    "address":"235新北市中和區景平路634-2號",
    "district":"中和區"
    }
  },
  {
    "type": "Feature",
    "geometry": {
       "type": "Point",
       "coordinates":  [ 121.4747785,25.0066731 ]
    },
    "properties": {
    "展演地":"環球中和店2樓活動區",
    "主管機關":"新北市文化局",
    "開放表演類型":"",
    "申請方式":"",
    "展演點數量":null,
    "description":"235新北市中和區中山路3段122號",
    "address":"235新北市中和區中山路3段122號",
    "district":"中和區"
    }
  },
  {
    "type": "Feature",
    "geometry": {
       "type": "Point",
       "coordinates":  [ 121.4747785,25.0066731 ]
    },
    "properties": {
    "展演地":"環球中和店1樓活動區",
    "主管機關":"新北市文化局",
    "開放表演類型":"",
    "申請方式":"",
    "展演點數量":null,
    "description":"235新北市中和區中山路3段122號",
    "address":"235新北市中和區中山路3段122號",
    "district":"中和區"
    }
  },
  {
    "type": "Feature",
    "geometry": {
       "type": "Point",
       "coordinates":  [ 121.5013024,25.000617 ]
    },
    "properties": {
    "展演地":"福和宮廟前廣場",
    "主管機關":"新北市文化局",
    "開放表演類型":"",
    "申請方式":"",
    "展演點數量":null,
    "description":"235新北市中和區中和路95號",
    "address":"235新北市中和區中和路95號",
    "district":"中和區"
    }
  },
  {
    "type": "Feature",
    "geometry": {
       "type": "Point",
       "coordinates":  [ 121.495935,25.0014101 ]
    },
    "properties": {
    "展演地":"南山威力購物廣場",
    "主管機關":"新北市文化局",
    "開放表演類型":"",
    "申請方式":"",
    "展演點數量":null,
    "description":"235新北市中和區中山路二段291號",
    "address":"235新北市中和區中山路二段291號",
    "district":"中和區"
    }
  },
  {
    "type": "Feature",
    "geometry": {
       "type": "Point",
       "coordinates":  [ 121.4967663,24.9967877 ]
    },
    "properties": {
    "展演地":"安邦公園",
    "主管機關":"新北市文化局",
    "開放表演類型":"",
    "申請方式":"",
    "展演點數量":null,
    "description":"235新北市中和區連勝街與安邦街交叉口",
    "address":"235新北市中和區連勝街與安邦街交叉口",
    "district":"中和區"
    }
  },
  {
    "type": "Feature",
    "geometry": {
       "type": "Point",
       "coordinates":  [ 121.5059527,25.0112557 ]
    },
    "properties": {
    "展演地":"仁愛公園",
    "主管機關":"新北市文化局",
    "開放表演類型":"",
    "申請方式":"",
    "展演點數量":null,
    "description":"234新北市永和區仁愛路244-1號",
    "address":"234新北市永和區仁愛路244-1號",
    "district":"永和區"
    }
  },
  {
    "type": "Feature",
    "geometry": {
       "type": "Point",
       "coordinates":  [ 121.4439352,25.0472506 ]
    },
    "properties": {
    "展演地":"新莊文化藝術中心廣場",
    "主管機關":"新北市文化局",
    "開放表演類型":"",
    "申請方式":"",
    "展演點數量":null,
    "description":"242新北市新莊區中平路133號",
    "address":"242新北市新莊區中平路133號",
    "district":"新莊區"
    }
  },
  {
    "type": "Feature",
    "geometry": {
       "type": "Point",
       "coordinates":  [ 121.4518506,25.0460857 ]
    },
    "properties": {
    "展演地":"中港厝休閒廣場",
    "主管機關":"新北市文化局",
    "開放表演類型":"",
    "申請方式":"",
    "展演點數量":null,
    "description":"242新北市新莊區中港路363號對面",
    "address":"242新北市新莊區中港路363號對面",
    "district":"新莊區"
    }
  },
  {
    "type": "Feature",
    "geometry": {
       "type": "Point",
       "coordinates":  [ 121.4102922,25.0327946 ]
    },
    "properties": {
    "展演地":"青年公園主題園區活力廣場",
    "主管機關":"新北市文化局",
    "開放表演類型":"",
    "申請方式":"",
    "展演點數量":null,
    "description":"242新北市新莊區壽山路61號對面",
    "address":"242新北市新莊區壽山路61號對面",
    "district":"新莊區"
    }
  },
  {
    "type": "Feature",
    "geometry": {
       "type": "Point",
       "coordinates":  [ 121.4237686,25.0243341 ]
    },
    "properties": {
    "展演地":"福營休閒廣場",
    "主管機關":"新北市文化局",
    "開放表演類型":"",
    "申請方式":"",
    "展演點數量":null,
    "description":"242新北市新莊區四維路9號",
    "address":"242新北市新莊區四維路9號",
    "district":"新莊區"
    }
  },
  {
    "type": "Feature",
    "geometry": {
       "type": "Point",
       "coordinates":  [ 121.4579325,25.0523362 ]
    },
    "properties": {
    "展演地":"福壽公園",
    "主管機關":"新北市文化局",
    "開放表演類型":"",
    "申請方式":"",
    "展演點數量":null,
    "description":"242新北市新莊區福壽街與昌明街口",
    "address":"242新北市新莊區福壽街與昌明街口",
    "district":"新莊區"
    }
  },
  {
    "type": "Feature",
    "geometry": {
       "type": "Point",
       "coordinates":  [ 121.4560357,25.0479189 ]
    },
    "properties": {
    "展演地":"思賢公園",
    "主管機關":"新北市文化局",
    "開放表演類型":"",
    "申請方式":"",
    "展演點數量":null,
    "description":"242新北市新莊區自由街1號",
    "address":"242新北市新莊區自由街1號",
    "district":"新莊區"
    }
  },
  {
    "type": "Feature",
    "geometry": {
       "type": "Point",
       "coordinates":  [ 121.4491889,25.0408309 ]
    },
    "properties": {
    "展演地":"新莊體育園區景觀樓戶外廣場",
    "主管機關":"新北市文化局",
    "開放表演類型":"",
    "申請方式":"",
    "展演點數量":null,
    "description":"242新北市新莊區和興街66號",
    "address":"242新北市新莊區和興街66號",
    "district":"新莊區"
    }
  },
  {
    "type": "Feature",
    "geometry": {
       "type": "Point",
       "coordinates":  [ 121.4522872,25.0541267 ]
    },
    "properties": {
    "展演地":"中港大排",
    "主管機關":"新北市文化局",
    "開放表演類型":"",
    "申請方式":"",
    "展演點數量":null,
    "description":"242新北市新莊區中原路191號",
    "address":"242新北市新莊區中原路191號",
    "district":"新莊區"
    }
  },
  {
    "type": "Feature",
    "geometry": {
       "type": "Point",
       "coordinates":  [ 121.4502825,25.0599195 ]
    },
    "properties": {
    "展演地":"中港大排願景公園",
    "主管機關":"新北市文化局",
    "開放表演類型":"",
    "申請方式":"",
    "展演點數量":null,
    "description":"242新北市新莊區新北大道4段1號",
    "address":"242新北市新莊區新北大道4段1號",
    "district":"新莊區"
    }
  },
  {
    "type": "Feature",
    "geometry": {
       "type": "Point",
       "coordinates":  [ 121.4495726,25.0596783 ]
    },
    "properties": {
    "展演地":"宏匯廣場1樓生活舞台",
    "主管機關":"新北市文化局",
    "開放表演類型":"",
    "申請方式":"",
    "展演點數量":null,
    "description":"242新北市新莊區新北大道4段3號",
    "address":"242新北市新莊區新北大道4段3號",
    "district":"新莊區"
    }
  },
  {
    "type": "Feature",
    "geometry": {
       "type": "Point",
       "coordinates":  [ 121.4566976,25.0378503 ]
    },
    "properties": {
    "展演地":"新莊公園水池旁廣場",
    "主管機關":"新北市文化局",
    "開放表演類型":"",
    "申請方式":"",
    "展演點數量":null,
    "description":"242新北市新莊區中正路地藏庵旁",
    "address":"242新北市新莊區中正路地藏庵旁",
    "district":"新莊區"
    }
  },
  {
    "type": "Feature",
    "geometry": {
       "type": "Point",
       "coordinates":  [ 121.4479936,25.0527772 ]
    },
    "properties": {
    "展演地":"黃愚紀念文藝活動中心前廣場",
    "主管機關":"新北市文化局",
    "開放表演類型":"",
    "申請方式":"",
    "展演點數量":null,
    "description":"242新北市新莊區中榮街與中信街口",
    "address":"242新北市新莊區中榮街與中信街口",
    "district":"新莊區"
    }
  },
  {
    "type": "Feature",
    "geometry": {
       "type": "Point",
       "coordinates":  [ 121.4479936,25.0527772 ]
    },
    "properties": {
    "展演地":"黃城公園",
    "主管機關":"新北市文化局",
    "開放表演類型":"",
    "申請方式":"",
    "展演點數量":null,
    "description":"242新北市新莊區中榮街與中信街口",
    "address":"242新北市新莊區中榮街與中信街口",
    "district":"新莊區"
    }
  },
  {
    "type": "Feature",
    "geometry": {
       "type": "Point",
       "coordinates":  [ 121.4250181,25.0234929 ]
    },
    "properties": {
    "展演地":"後港新公園表演台",
    "主管機關":"新北市文化局",
    "開放表演類型":"",
    "申請方式":"",
    "展演點數量":null,
    "description":"242新北市新莊區後港一路與民安路口",
    "address":"242新北市新莊區後港一路與民安路口",
    "district":"新莊區"
    }
  },
  {
    "type": "Feature",
    "geometry": {
       "type": "Point",
       "coordinates":  [ 121.4218213,25.0213843 ]
    },
    "properties": {
    "展演地":"四維公園廁所前廣場",
    "主管機關":"新北市文化局",
    "開放表演類型":"",
    "申請方式":"",
    "展演點數量":null,
    "description":"242新北市新莊區四維路186巷2號旁",
    "address":"242新北市新莊區四維路186巷2號旁",
    "district":"新莊區"
    }
  },
  {
    "type": "Feature",
    "geometry": {
       "type": "Point",
       "coordinates":  [ 121.429499,25.0272556 ]
    },
    "properties": {
    "展演地":"建安公園中間廣場",
    "主管機關":"新北市文化局",
    "開放表演類型":"",
    "申請方式":"",
    "展演點數量":null,
    "description":"242新北市新莊區後港一路130巷底",
    "address":"242新北市新莊區後港一路130巷底",
    "district":"新莊區"
    }
  },
  {
    "type": "Feature",
    "geometry": {
       "type": "Point",
       "coordinates":  [ 121.537146,24.9563747 ]
    },
    "properties": {
    "展演地":"碧潭風景區",
    "主管機關":"新北市文化局",
    "開放表演類型":"",
    "申請方式":"",
    "展演點數量":null,
    "description":"231新北市新店區新店路",
    "address":"231新北市新店區新店路",
    "district":"新店區"
    }
  },
  {
    "type": "Feature",
    "geometry": {
       "type": "Point",
       "coordinates":  [ 121.5395312,24.9685863 ]
    },
    "properties": {
    "展演地":"瑠公公園廣場",
    "主管機關":"新北市文化局",
    "開放表演類型":"",
    "申請方式":"",
    "展演點數量":null,
    "description":"231新北市新店區中華路54及60巷間",
    "address":"231新北市新店區中華路54及60巷間",
    "district":"新店區"
    }
  },
  {
    "type": "Feature",
    "geometry": {
       "type": "Point",
       "coordinates":  [ 121.5242672,24.9710538 ]
    },
    "properties": {
    "展演地":"陽光運動園區",
    "主管機關":"新北市文化局",
    "開放表演類型":"",
    "申請方式":"",
    "展演點數量":null,
    "description":"231新北市新店區安業街",
    "address":"231新北市新店區安業街",
    "district":"新店區"
    }
  },
  {
    "type": "Feature",
    "geometry": {
       "type": "Point",
       "coordinates":  [ 121.5297745,24.9725821 ]
    },
    "properties": {
    "展演地":"IKEA新店店",
    "主管機關":"新北市文化局",
    "開放表演類型":"",
    "申請方式":"",
    "展演點數量":null,
    "description":"231新北市新店區中央路159號4樓",
    "address":"231新北市新店區中央路159號4樓",
    "district":"新店區"
    }
  },
  {
    "type": "Feature",
    "geometry": {
       "type": "Point",
       "coordinates":  [ 121.5379428,24.9574457 ]
    },
    "properties": {
    "展演地":"DCC碧潭廣場",
    "主管機關":"新北市文化局",
    "開放表演類型":"",
    "申請方式":"",
    "展演點數量":null,
    "description":"231新北市新店區北宜路一段16號",
    "address":"231新北市新店區北宜路一段16號",
    "district":"新店區"
    }
  },
  {
    "type": "Feature",
    "geometry": {
       "type": "Point",
       "coordinates":  [ 121.546478,24.978061 ]
    },
    "properties": {
    "展演地":"裕隆城威秀商場7樓舞台",
    "主管機關":"新北市文化局",
    "開放表演類型":"",
    "申請方式":"",
    "展演點數量":null,
    "description":"231新北市新店區中興路三段70號7樓",
    "address":"231新北市新店區中興路三段70號7樓",
    "district":"新店區"
    }
  },
  {
    "type": "Feature",
    "geometry": {
       "type": "Point",
       "coordinates":  [ 121.412745,25.000116 ]
    },
    "properties": {
    "展演地":"南寮福德宮",
    "主管機關":"新北市文化局",
    "開放表演類型":"",
    "申請方式":"",
    "展演點數量":null,
    "description":"238新北市樹林區保安街2段45巷53號",
    "address":"238新北市樹林區保安街2段45巷53號",
    "district":"樹林區"
    }
  },
  {
    "type": "Feature",
    "geometry": {
       "type": "Point",
       "coordinates":  [ 121.424217,24.991476 ]
    },
    "properties": {
    "展演地":"樹林後站廣場",
    "主管機關":"新北市文化局",
    "開放表演類型":"",
    "申請方式":"",
    "展演點數量":null,
    "description":"238新北市樹林區後站街",
    "address":"238新北市樹林區後站街",
    "district":"樹林區"
    }
  },
  {
    "type": "Feature",
    "geometry": {
       "type": "Point",
       "coordinates":  [ 121.391917,24.9725052 ]
    },
    "properties": {
    "展演地":"山佳車站站前廣場",
    "主管機關":"新北市文化局",
    "開放表演類型":"",
    "申請方式":"",
    "展演點數量":null,
    "description":"238新北市樹林區中山路3段108號",
    "address":"238新北市樹林區中山路3段108號",
    "district":"樹林區"
    }
  },
  {
    "type": "Feature",
    "geometry": {
       "type": "Point",
       "coordinates":  [ 121.3818531,24.946413 ]
    },
    "properties": {
    "展演地":"北大特區竹街廣場",
    "主管機關":"新北市文化局",
    "開放表演類型":"",
    "申請方式":"",
    "展演點數量":null,
    "description":"238新北市樹林區學勤路300號及學成路479號間廣場",
    "address":"238新北市樹林區學勤路300號及學成路479號間廣場",
    "district":"樹林區"
    }
  },
  {
    "type": "Feature",
    "geometry": {
       "type": "Point",
       "coordinates":  [ 121.352032,24.949251 ]
    },
    "properties": {
    "展演地":"新北市立鶯歌陶瓷博物館",
    "主管機關":"新北市文化局",
    "開放表演類型":"",
    "申請方式":"",
    "展演點數量":null,
    "description":"239新北市鶯歌區文化路200號",
    "address":"239新北市鶯歌區文化路200號",
    "district":"鶯歌區"
    }
  },
  {
    "type": "Feature",
    "geometry": {
       "type": "Point",
       "coordinates":  [ 121.3481072,24.9522326 ]
    },
    "properties": {
    "展演地":"鶯歌老街陶館戶外舞台",
    "主管機關":"新北市文化局",
    "開放表演類型":"",
    "申請方式":"",
    "展演點數量":null,
    "description":"239新北市鶯歌區重慶街95-101號",
    "address":"239新北市鶯歌區重慶街95-101號",
    "district":"鶯歌區"
    }
  },
  {
    "type": "Feature",
    "geometry": {
       "type": "Point",
       "coordinates":  [ 121.3703612,24.9338414 ]
    },
    "properties": {
    "展演地":"三峽祖師廟前廣場",
    "主管機關":"新北市文化局",
    "開放表演類型":"",
    "申請方式":"",
    "展演點數量":null,
    "description":"237新北市三峽區長福街1號",
    "address":"237新北市三峽區長福街1號",
    "district":"三峽區"
    }
  },
  {
    "type": "Feature",
    "geometry": {
       "type": "Point",
       "coordinates":  [ 121.3583721,24.9413225 ]
    },
    "properties": {
    "展演地":"新北市客家文化園區",
    "主管機關":"新北市文化局",
    "開放表演類型":"",
    "申請方式":"",
    "展演點數量":null,
    "description":"237新北市三峽區隆恩街239號",
    "address":"237新北市三峽區隆恩街239號",
    "district":"三峽區"
    }
  },
  {
    "type": "Feature",
    "geometry": {
       "type": "Point",
       "coordinates":  [ 121.369083,24.9341863 ]
    },
    "properties": {
    "展演地":"歷史文物館館前花園廣場",
    "主管機關":"新北市文化局",
    "開放表演類型":"",
    "申請方式":"",
    "展演點數量":null,
    "description":"237新北市三峽區中山路17號",
    "address":"237新北市三峽區中山路17號",
    "district":"三峽區"
    }
  },
  {
    "type": "Feature",
    "geometry": {
       "type": "Point",
       "coordinates":  [ 121.3697064,24.9340054 ]
    },
    "properties": {
    "展演地":"中華電信前廣場",
    "主管機關":"新北市文化局",
    "開放表演類型":"",
    "申請方式":"",
    "展演點數量":null,
    "description":"237新北市三峽區中華電信三峽服務中心前",
    "address":"237新北市三峽區中華電信三峽服務中心前",
    "district":"三峽區"
    }
  },
  {
    "type": "Feature",
    "geometry": {
       "type": "Point",
       "coordinates":  [ 121.3696414,24.9339939 ]
    },
    "properties": {
    "展演地":"中華電信三峽服務中心木棧平台廣場",
    "主管機關":"新北市文化局",
    "開放表演類型":"",
    "申請方式":"",
    "展演點數量":null,
    "description":"237新北市三峽區民權街36號",
    "address":"237新北市三峽區民權街36號",
    "district":"三峽區"
    }
  },
  {
    "type": "Feature",
    "geometry": {
       "type": "Point",
       "coordinates":  [ 121.4414592,25.1689094 ]
    },
    "properties": {
    "展演地":"金色水岸河濱公園",
    "主管機關":"新北市文化局",
    "開放表演類型":"",
    "申請方式":"",
    "展演點數量":null,
    "description":"251新北市淡水區金色水岸河濱公園",
    "address":"251新北市淡水區金色水岸河濱公園",
    "district":"淡水區"
    }
  },
  {
    "type": "Feature",
    "geometry": {
       "type": "Point",
       "coordinates":  [ 121.4113796,25.1836769 ]
    },
    "properties": {
    "展演地":"淡水漁人碼頭",
    "主管機關":"新北市文化局",
    "開放表演類型":"",
    "申請方式":"",
    "展演點數量":null,
    "description":"251新北市淡水區觀海路199號1樓",
    "address":"251新北市淡水區觀海路199號1樓",
    "district":"淡水區"
    }
  },
  {
    "type": "Feature",
    "geometry": {
       "type": "Point",
       "coordinates":  [ 121.4441972,25.1693252 ]
    },
    "properties": {
    "展演地":"紅毛城(新北市立淡水古蹟博物館)",
    "主管機關":"新北市文化局",
    "開放表演類型":"",
    "申請方式":"",
    "展演點數量":null,
    "description":"251新北市淡水區中正路28巷1號",
    "address":"251新北市淡水區中正路28巷1號",
    "district":"淡水區"
    }
  },
  {
    "type": "Feature",
    "geometry": {
       "type": "Point",
       "coordinates":  [ 121.4327525,25.1742703 ]
    },
    "properties": {
    "展演地":"淡水海關碼頭(新北市立淡水古蹟博物館)",
    "主管機關":"新北市文化局",
    "開放表演類型":"",
    "申請方式":"",
    "展演點數量":null,
    "description":"251新北市淡水區中正路259號",
    "address":"251新北市淡水區中正路259號",
    "district":"淡水區"
    }
  },
  {
    "type": "Feature",
    "geometry": {
       "type": "Point",
       "coordinates":  [ 121.445561,25.167818 ]
    },
    "properties": {
    "展演地":"滬尾礮臺(新北市立淡水古蹟博物館)",
    "主管機關":"新北市文化局",
    "開放表演類型":"",
    "申請方式":"",
    "展演點數量":null,
    "description":"251新北市淡水區中正路1段6巷34-1號",
    "address":"251新北市淡水區中正路1段6巷34-1號",
    "district":"淡水區"
    }
  },
  {
    "type": "Feature",
    "geometry": {
       "type": "Point",
       "coordinates":  [ 121.4362608,25.1741818 ]
    },
    "properties": {
    "展演地":"小白宮(新北市立淡水古蹟博物館)",
    "主管機關":"新北市文化局",
    "開放表演類型":"",
    "申請方式":"",
    "展演點數量":null,
    "description":"251新北市淡水區真理街15號",
    "address":"251新北市淡水區真理街15號",
    "district":"淡水區"
    }
  },
  {
    "type": "Feature",
    "geometry": {
       "type": "Point",
       "coordinates":  [ 121.4327391,25.1748783 ]
    },
    "properties": {
    "展演地":"捷運淡水站北穿堂",
    "主管機關":"新北市文化局",
    "開放表演類型":"",
    "申請方式":"",
    "展演點數量":null,
    "description":"251新北市淡水區中正路1號",
    "address":"251新北市淡水區中正路1號",
    "district":"淡水區"
    }
  },
  {
    "type": "Feature",
    "geometry": {
       "type": "Point",
       "coordinates":  [ 121.4327391,25.1748783 ]
    },
    "properties": {
    "展演地":"捷運淡水站南穿堂",
    "主管機關":"新北市文化局",
    "開放表演類型":"",
    "申請方式":"",
    "展演點數量":null,
    "description":"251新北市淡水區中正路1號",
    "address":"251新北市淡水區中正路1號",
    "district":"淡水區"
    }
  },
  {
    "type": "Feature",
    "geometry": {
       "type": "Point",
       "coordinates":  [ 121.4327391,25.1748783 ]
    },
    "properties": {
    "展演地":"捷運淡水站12號廣場、捷運紀念碑北側廊道及站後廣場草坪(視覺藝術類、工藝藝術類)",
    "主管機關":"新北市文化局",
    "開放表演類型":"",
    "申請方式":"",
    "展演點數量":null,
    "description":"251新北市淡水區中正路1號",
    "address":"251新北市淡水區中正路1號",
    "district":"淡水區"
    }
  },
  {
    "type": "Feature",
    "geometry": {
       "type": "Point",
       "coordinates":  [ 121.4327391,25.1748783 ]
    },
    "properties": {
    "展演地":"捷運淡水站12號廣場、捷運紀念碑北側廊道及站後廣場草坪(表演藝術類）",
    "主管機關":"新北市文化局",
    "開放表演類型":"",
    "申請方式":"",
    "展演點數量":null,
    "description":"251新北市淡水區中正路1號",
    "address":"251新北市淡水區中正路1號",
    "district":"淡水區"
    }
  },
  {
    "type": "Feature",
    "geometry": {
       "type": "Point",
       "coordinates":  [ 121.4151708,25.1824319 ]
    },
    "properties": {
    "展演地":"福容大飯店麗寶漁人碼頭廣場",
    "主管機關":"新北市文化局",
    "開放表演類型":"",
    "申請方式":"",
    "展演點數量":null,
    "description":"251新北市淡水區觀海路83、89、91號",
    "address":"251新北市淡水區觀海路83、89、91號",
    "district":"淡水區"
    }
  },
  {
    "type": "Feature",
    "geometry": {
       "type": "Point",
       "coordinates":  [ 121.4327391,25.1748783 ]
    },
    "properties": {
    "展演地":"滬尾藝文休閒園區/廣場",
    "主管機關":"新北市文化局",
    "開放表演類型":"",
    "申請方式":"",
    "展演點數量":null,
    "description":"251新北市淡水區中正路1段2號",
    "address":"251新北市淡水區中正路1段2號",
    "district":"淡水區"
    }
  },
  {
    "type": "Feature",
    "geometry": {
       "type": "Point",
       "coordinates":  [ 121.4468641,25.1657601 ]
    },
    "properties": {
    "展演地":"淡水文化園區",
    "主管機關":"新北市文化局",
    "開放表演類型":"",
    "申請方式":"",
    "展演點數量":null,
    "description":"251新北市淡水區鼻頭街22號",
    "address":"251新北市淡水區鼻頭街22號",
    "district":"淡水區"
    }
  },
  {
    "type": "Feature",
    "geometry": {
       "type": "Point",
       "coordinates":  [ 121.65415,25.06274 ]
    },
    "properties": {
    "展演地":"iFG遠雄廣場",
    "主管機關":"新北市文化局",
    "開放表演類型":"",
    "申請方式":"",
    "展演點數量":null,
    "description":"221新北市汐止區新台五路1段99號",
    "address":"221新北市汐止區新台五路1段99號",
    "district":"汐止區"
    }
  },
  {
    "type": "Feature",
    "geometry": {
       "type": "Point",
       "coordinates":  [ 121.8580401,25.1080375 ]
    },
    "properties": {
    "展演地":"新北市立黃金博物館",
    "主管機關":"新北市文化局",
    "開放表演類型":"",
    "申請方式":"",
    "展演點數量":null,
    "description":"224新北市瑞芳區金瓜石金光路8號",
    "address":"224新北市瑞芳區金瓜石金光路8號",
    "district":"瑞芳區"
    }
  },
  {
    "type": "Feature",
    "geometry": {
       "type": "Point",
       "coordinates":  [ 121.8062594,25.1092175 ]
    },
    "properties": {
    "展演地":"瑞芳站前廣場",
    "主管機關":"新北市文化局",
    "開放表演類型":"",
    "申請方式":"",
    "展演點數量":null,
    "description":"224新北市瑞芳區明燈路3段82號",
    "address":"224新北市瑞芳區明燈路3段82號",
    "district":"瑞芳區"
    }
  },
  {
    "type": "Feature",
    "geometry": {
       "type": "Point",
       "coordinates":  [ 121.8081812,25.1072412 ]
    },
    "properties": {
    "展演地":"瑞芳圖書館區民廣場",
    "主管機關":"新北市文化局",
    "開放表演類型":"",
    "申請方式":"",
    "展演點數量":null,
    "description":"224新北市瑞芳區民權街17號",
    "address":"224新北市瑞芳區民權街17號",
    "district":"瑞芳區"
    }
  },
  {
    "type": "Feature",
    "geometry": {
       "type": "Point",
       "coordinates":  [ 121.8278593,25.0867307 ]
    },
    "properties": {
    "展演地":"猴硐煤礦博物園區",
    "主管機關":"新北市文化局",
    "開放表演類型":"",
    "申請方式":"",
    "展演點數量":null,
    "description":"224新北市瑞芳區猴硐柴寮路42號",
    "address":"224新北市瑞芳區猴硐柴寮路42號",
    "district":"瑞芳區"
    }
  },
  {
    "type": "Feature",
    "geometry": {
       "type": "Point",
       "coordinates":  [ 121.4487246,24.9761498 ]
    },
    "properties": {
    "展演地":"斬龍山遺址文化公園",
    "主管機關":"新北市文化局",
    "開放表演類型":"",
    "申請方式":"",
    "展演點數量":null,
    "description":"236新北市土城區金城路2段(土城醫院對面)",
    "address":"236新北市土城區金城路2段(土城醫院對面)",
    "district":"土城區"
    }
  },
  {
    "type": "Feature",
    "geometry": {
       "type": "Point",
       "coordinates":  [ 121.4364758,24.9667782 ]
    },
    "properties": {
    "展演地":"永寧捷運站廣場",
    "主管機關":"新北市文化局",
    "開放表演類型":"",
    "申請方式":"",
    "展演點數量":null,
    "description":"236新北市土城區中央路3段105號",
    "address":"236新北市土城區中央路3段105號",
    "district":"土城區"
    }
  },
  {
    "type": "Feature",
    "geometry": {
       "type": "Point",
       "coordinates":  [ 121.4502154,24.9870607 ]
    },
    "properties": {
    "展演地":"海山捷運站廣場",
    "主管機關":"新北市文化局",
    "開放表演類型":"",
    "申請方式":"",
    "展演點數量":null,
    "description":"236新北市土城區樂利街16號",
    "address":"236新北市土城區樂利街16號",
    "district":"土城區"
    }
  },
  {
    "type": "Feature",
    "geometry": {
       "type": "Point",
       "coordinates":  [ 121.445079,24.9788137 ]
    },
    "properties": {
    "展演地":"日月光廣場",
    "主管機關":"新北市文化局",
    "開放表演類型":"",
    "申請方式":"",
    "展演點數量":null,
    "description":"236新北市土城區學府路二段210號",
    "address":"236新北市土城區學府路二段210號",
    "district":"土城區"
    }
  },
  {
    "type": "Feature",
    "geometry": {
       "type": "Point",
       "coordinates":  [ 121.483161,25.0859755 ]
    },
    "properties": {
    "展演地":"重陽公園",
    "主管機關":"新北市文化局",
    "開放表演類型":"",
    "申請方式":"",
    "展演點數量":null,
    "description":"247新北市蘆洲區集賢路221巷",
    "address":"247新北市蘆洲區集賢路221巷",
    "district":"蘆洲區"
    }
  },
  {
    "type": "Feature",
    "geometry": {
       "type": "Point",
       "coordinates":  [ 121.4604865,25.0923055 ]
    },
    "properties": {
    "展演地":"柳堤公園",
    "主管機關":"新北市文化局",
    "開放表演類型":"",
    "申請方式":"",
    "展演點數量":null,
    "description":"247新北市蘆洲區光榮路及長榮路交叉路口",
    "address":"247新北市蘆洲區光榮路及長榮路交叉路口",
    "district":"蘆洲區"
    }
  },
  {
    "type": "Feature",
    "geometry": {
       "type": "Point",
       "coordinates":  [ 121.4507353,25.0613939 ]
    },
    "properties": {
    "展演地":"新北市勞工活動中心前廣場",
    "主管機關":"新北市文化局",
    "開放表演類型":"",
    "申請方式":"",
    "展演點數量":null,
    "description":"248新北市五股區五工六路9號",
    "address":"248新北市五股區五工六路9號",
    "district":"五股區"
    }
  },
  {
    "type": "Feature",
    "geometry": {
       "type": "Point",
       "coordinates":  [ 121.4181657,25.1294746 ]
    },
    "properties": {
    "展演地":"觀音山遊客中心廣場",
    "主管機關":"新北市文化局",
    "開放表演類型":"",
    "申請方式":"",
    "展演點數量":null,
    "description":"248新北市五股區凌雲路3段130號",
    "address":"248新北市五股區凌雲路3段130號",
    "district":"五股區"
    }
  },
  {
    "type": "Feature",
    "geometry": {
       "type": "Point",
       "coordinates":  [ 121.4181657,25.1294746 ]
    },
    "properties": {
    "展演地":"觀音山生態園區",
    "主管機關":"新北市文化局",
    "開放表演類型":"",
    "申請方式":"",
    "展演點數量":null,
    "description":"248新北市五股區凌雲路3段130號",
    "address":"248新北市五股區凌雲路3段130號",
    "district":"五股區"
    }
  },
  {
    "type": "Feature",
    "geometry": {
       "type": "Point",
       "coordinates":  [ 121.4399891,25.0810273 ]
    },
    "properties": {
    "展演地":"五股守讓堂",
    "主管機關":"新北市文化局",
    "開放表演類型":"",
    "申請方式":"",
    "展演點數量":null,
    "description":"248新北市五股區新五路二段169號",
    "address":"248新北市五股區新五路二段169號",
    "district":"五股區"
    }
  },
  {
    "type": "Feature",
    "geometry": {
       "type": "Point",
       "coordinates":  [ 121.4273876,25.0495165 ]
    },
    "properties": {
    "展演地":"文程廣場",
    "主管機關":"新北市文化局",
    "開放表演類型":"",
    "申請方式":"",
    "展演點數量":null,
    "description":"243新北市泰山區明志路2段194號",
    "address":"243新北市泰山區明志路2段194號",
    "district":"泰山區"
    }
  },
  {
    "type": "Feature",
    "geometry": {
       "type": "Point",
       "coordinates":  [ 121.4332408,25.0554568 ]
    },
    "properties": {
    "展演地":"同興公園表演場",
    "主管機關":"新北市文化局",
    "開放表演類型":"",
    "申請方式":"",
    "展演點數量":null,
    "description":"243新北市泰山區仁愛路與仁義路口",
    "address":"243新北市泰山區仁愛路與仁義路口",
    "district":"泰山區"
    }
  },
  {
    "type": "Feature",
    "geometry": {
       "type": "Point",
       "coordinates":  [ 121.3691305,25.0633128 ]
    },
    "properties": {
    "展演地":"林口社區運動公園",
    "主管機關":"新北市文化局",
    "開放表演類型":"",
    "申請方式":"",
    "展演點數量":null,
    "description":"244新北市林口區文化一路與仁愛路交叉口",
    "address":"244新北市林口區文化一路與仁愛路交叉口",
    "district":"林口區"
    }
  },
  {
    "type": "Feature",
    "geometry": {
       "type": "Point",
       "coordinates":  [ 121.714931,24.930807 ]
    },
    "properties": {
    "展演地":"坪林茶業博物館",
    "主管機關":"新北市文化局",
    "開放表演類型":"",
    "申請方式":"",
    "展演點數量":null,
    "description":"232新北市坪林區水德里水聳淒坑19之1號",
    "address":"232新北市坪林區水德里水聳淒坑19之1號",
    "district":"坪林區"
    }
  },
  {
    "type": "Feature",
    "geometry": {
       "type": "Point",
       "coordinates":  [ 121.7116191,24.9360521 ]
    },
    "properties": {
    "展演地":"茶鄉廣場",
    "主管機關":"新北市文化局",
    "開放表演類型":"",
    "申請方式":"",
    "展演點數量":null,
    "description":"232新北市坪林區坪林街101號",
    "address":"232新北市坪林區坪林街101號",
    "district":"坪林區"
    }
  },
  {
    "type": "Feature",
    "geometry": {
       "type": "Point",
       "coordinates":  [ 121.4895729816541,25.261402340333426 ]
    },
    "properties": {
    "展演地":"根德水車園區",
    "主管機關":"新北市文化局",
    "開放表演類型":"",
    "申請方式":"",
    "展演點數量":null,
    "description":"252新北市三芝區淡金路1段81號",
    "address":"252新北市三芝區淡金路1段81號",
    "district":"三芝區"
    }
  },
  {
    "type": "Feature",
    "geometry": {
       "type": "Point",
       "coordinates":  [ 121.514604,25.246394 ]
    },
    "properties": {
    "展演地":"福德水車園區",
    "主管機關":"新北市文化局",
    "開放表演類型":"",
    "申請方式":"",
    "展演點數量":null,
    "description":"252新北市三芝區埔坪里埔頭坑164-2號",
    "address":"252新北市三芝區埔坪里埔頭坑164-2號",
    "district":"三芝區"
    }
  },
  {
    "type": "Feature",
    "geometry": {
       "type": "Point",
       "coordinates":  [ 121.4731228,25.2539412 ]
    },
    "properties": {
    "展演地":"芝蘭公園",
    "主管機關":"新北市文化局",
    "開放表演類型":"",
    "申請方式":"",
    "展演點數量":null,
    "description":"252新北市三芝區後厝里北勢子20-6號",
    "address":"252新北市三芝區後厝里北勢子20-6號",
    "district":"三芝區"
    }
  },
  {
    "type": "Feature",
    "geometry": {
       "type": "Point",
       "coordinates":  [ 121.5105609,25.2681062 ]
    },
    "properties": {
    "展演地":"三生步道",
    "主管機關":"新北市文化局",
    "開放表演類型":"",
    "申請方式":"",
    "展演點數量":null,
    "description":"252新北市三芝區大坑溪三生步道(臺二線20.8K處)",
    "address":"252新北市三芝區大坑溪三生步道(臺二線20.8K處)",
    "district":"三芝區"
    }
  },
  {
    "type": "Feature",
    "geometry": {
       "type": "Point",
       "coordinates":  [ 121.514604,25.246394 ]
    },
    "properties": {
    "展演地":"三芝遊客中心前瞭望廣場",
    "主管機關":"新北市文化局",
    "開放表演類型":"",
    "申請方式":"",
    "展演點數量":null,
    "description":"252新北市三芝區埔坪里埔頭坑164-2號",
    "address":"252新北市三芝區埔坪里埔頭坑164-2號",
    "district":"三芝區"
    }
  },
  {
    "type": "Feature",
    "geometry": {
       "type": "Point",
       "coordinates":  [ 121.5441032,25.2903748 ]
    },
    "properties": {
    "展演地":"風箏公園",
    "主管機關":"新北市文化局",
    "開放表演類型":"",
    "申請方式":"",
    "展演點數量":null,
    "description":"253新北市石門區老梅社區老梅溪旁",
    "address":"253新北市石門區老梅社區老梅溪旁",
    "district":"石門區"
    }
  },
  {
    "type": "Feature",
    "geometry": {
       "type": "Point",
       "coordinates":  [ 121.5680368,25.2930069 ]
    },
    "properties": {
    "展演地":"石門洞遊憩區",
    "主管機關":"新北市文化局",
    "開放表演類型":"",
    "申請方式":"",
    "展演點數量":null,
    "description":"253新北市石門區尖鹿里中央路",
    "address":"253新北市石門區尖鹿里中央路",
    "district":"石門區"
    }
  },
  {
    "type": "Feature",
    "geometry": {
       "type": "Point",
       "coordinates":  [ 121.4048398,25.1576837 ]
    },
    "properties": {
    "展演地":"新北市立十三行博物館",
    "主管機關":"新北市文化局",
    "開放表演類型":"",
    "申請方式":"",
    "展演點數量":null,
    "description":"249新北市八里區博物館路200號",
    "address":"249新北市八里區博物館路200號",
    "district":"八里區"
    }
  },
  {
    "type": "Feature",
    "geometry": {
       "type": "Point",
       "coordinates":  [ 121.4048398,25.1576837 ]
    },
    "properties": {
    "展演地":"新北考古公園",
    "主管機關":"新北市文化局",
    "開放表演類型":"",
    "申請方式":"",
    "展演點數量":null,
    "description":"249新北市八里區博物館路200號",
    "address":"249新北市八里區博物館路200號",
    "district":"八里區"
    }
  },
  {
    "type": "Feature",
    "geometry": {
       "type": "Point",
       "coordinates":  [ 121.4302723,25.1606815 ]
    },
    "properties": {
    "展演地":"八里左岸公園",
    "主管機關":"新北市文化局",
    "開放表演類型":"",
    "申請方式":"",
    "展演點數量":null,
    "description":"249新北市八里區觀海大道36號",
    "address":"249新北市八里區觀海大道36號",
    "district":"八里區"
    }
  },
  {
    "type": "Feature",
    "geometry": {
       "type": "Point",
       "coordinates":  [ 121.4225956,25.1619204 ]
    },
    "properties": {
    "展演地":"卡滋爆米花觀光工廠樂園",
    "主管機關":"新北市文化局",
    "開放表演類型":"",
    "申請方式":"",
    "展演點數量":null,
    "description":"249新北市八里區觀海大道171號",
    "address":"249新北市八里區觀海大道171號",
    "district":"八里區"
    }
  },
  {
    "type": "Feature",
    "geometry": {
       "type": "Point",
       "coordinates":  [ 121.7244321,25.023959 ]
    },
    "properties": {
    "展演地":"菁桐礦業生活館",
    "主管機關":"新北市文化局",
    "開放表演類型":"",
    "申請方式":"",
    "展演點數量":null,
    "description":"226新北市平溪區菁桐里菁桐街113號",
    "address":"226新北市平溪區菁桐里菁桐街113號",
    "district":"平溪區"
    }
  },
  {
    "type": "Feature",
    "geometry": {
       "type": "Point",
       "coordinates":  [ 121.7372435,25.0248195 ]
    },
    "properties": {
    "展演地":"平溪區民活動中心廣場",
    "主管機關":"新北市文化局",
    "開放表演類型":"",
    "申請方式":"",
    "展演點數量":null,
    "description":"226新北市平溪區石底里公園街17號",
    "address":"226新北市平溪區石底里公園街17號",
    "district":"平溪區"
    }
  },
  {
    "type": "Feature",
    "geometry": {
       "type": "Point",
       "coordinates":  [ 121.7225226,25.0233562 ]
    },
    "properties": {
    "展演地":"菁桐天燈廣場 ",
    "主管機關":"新北市文化局",
    "開放表演類型":"",
    "申請方式":"",
    "展演點數量":null,
    "description":"226新北市平溪區靜安路2段141號",
    "address":"226新北市平溪區靜安路2段141號",
    "district":"平溪區"
    }
  },
  {
    "type": "Feature",
    "geometry": {
       "type": "Point",
       "coordinates":  [ 121.9425187,25.0169281 ]
    },
    "properties": {
    "展演地":"福隆遊客中心前廣場",
    "主管機關":"新北市文化局",
    "開放表演類型":"",
    "申請方式":"",
    "展演點數量":null,
    "description":"228新北市貢寮區興隆街36號",
    "address":"228新北市貢寮區興隆街36號",
    "district":"貢寮區"
    }
  },
  {
    "type": "Feature",
    "geometry": {
       "type": "Point",
       "coordinates":  [ 121.9529992,25.0030305 ]
    },
    "properties": {
    "展演地":"舊草嶺自行車隧道北口",
    "主管機關":"新北市文化局",
    "開放表演類型":"",
    "申請方式":"",
    "展演點數量":null,
    "description":"228新北市貢寮區福隆里",
    "address":"228新北市貢寮區福隆里",
    "district":"貢寮區"
    }
  },
  {
    "type": "Feature",
    "geometry": {
       "type": "Point",
       "coordinates":  [ 121.6402693,25.2220101 ]
    },
    "properties": {
    "展演地":"中山溫泉公園",
    "主管機關":"新北市文化局",
    "開放表演類型":"",
    "申請方式":"",
    "展演點數量":null,
    "description":"208新北市金山區大同里溫泉路2巷10號",
    "address":"208新北市金山區大同里溫泉路2巷10號",
    "district":"金山區"
    }
  },
  {
    "type": "Feature",
    "geometry": {
       "type": "Point",
       "coordinates":  [ 121.648987,25.2256743 ]
    },
    "properties": {
    "展演地":"金山遊客中心前廣場",
    "主管機關":"新北市文化局",
    "開放表演類型":"",
    "申請方式":"",
    "展演點數量":null,
    "description":"208新北市金山區磺港路171-2號",
    "address":"208新北市金山區磺港路171-2號",
    "district":"金山區"
    }
  },
  {
    "type": "Feature",
    "geometry": {
       "type": "Point",
       "coordinates":  [ 121.6151888,25.001717 ]
    },
    "properties": {
    "展演地":"深坑廳前廣場",
    "主管機關":"新北市文化局",
    "開放表演類型":"",
    "申請方式":"",
    "展演點數量":null,
    "description":"222新北市深坑區深坑街55號",
    "address":"222新北市深坑區深坑街55號",
    "district":"深坑區"
    }
  },
  {
    "type": "Feature",
    "geometry": {
       "type": "Point",
       "coordinates":  [ 121.70551316000603,25.188492559683763 ]
    },
    "properties": {
    "展演地":"獅子公園",
    "主管機關":"新北市文化局",
    "開放表演類型":"",
    "申請方式":"",
    "展演點數量":null,
    "description":"207新北市萬里區台2線52公里處",
    "address":"207新北市萬里區台2線52公里處",
    "district":"萬里區"
    }
  },
  {
    "type": "Feature",
    "geometry": {
       "type": "Point",
       "coordinates":  [ 121.5514544,24.8641367 ]
    },
    "properties": {
    "展演地":"烏來泰雅民族博物館",
    "主管機關":"新北市文化局",
    "開放表演類型":"",
    "申請方式":"",
    "展演點數量":null,
    "description":"233新北市烏來區烏來街12號",
    "address":"233新北市烏來區烏來街12號",
    "district":"烏來區"
    }
  },
  {
    "type": "Feature",
    "geometry": {
       "type": "Point",
       "coordinates":  [ 121.5513088,24.8635327 ]
    },
    "properties": {
    "展演地":"烏來區綜合活動中心旁廣場",
    "主管機關":"新北市文化局",
    "開放表演類型":"",
    "申請方式":"",
    "展演點數量":null,
    "description":"233新北市烏來區烏來里烏來街34號",
    "address":"233新北市烏來區烏來里烏來街34號",
    "district":"烏來區"
    }
  },
  {
    "type": "Feature",
    "geometry": {
       "type": "Point",
       "coordinates":  [ 121.5512414,24.8478518 ]
    },
    "properties": {
    "展演地":"烏來瀑布勇士廣場",
    "主管機關":"新北市文化局",
    "開放表演類型":"",
    "申請方式":"",
    "展演點數量":null,
    "description":"233新北市烏來區瀑布路16號",
    "address":"233新北市烏來區瀑布路16號",
    "district":"烏來區"
    }
  },
  {
    "type": "Feature",
    "geometry": {
       "type": "Point",
       "coordinates":  [ 121.5514315,24.8615799 ]
    },
    "properties": {
    "展演地":"烏來溫泉街景觀平台",
    "主管機關":"新北市文化局",
    "開放表演類型":"",
    "申請方式":"",
    "展演點數量":null,
    "description":"233新北市烏來區溫泉街43號旁",
    "address":"233新北市烏來區溫泉街43號旁",
    "district":"烏來區"
    }
  },
  {
    "type": "Feature",
    "geometry": {
       "type": "Point",
       "coordinates":  [ 121.551399,24.862501 ]
    },
    "properties": {
    "展演地":"烏來街塑木景觀平台",
    "主管機關":"新北市文化局",
    "開放表演類型":"",
    "申請方式":"",
    "展演點數量":null,
    "description":"233新北市烏來區烏來街84號旁",
    "address":"233新北市烏來區烏來街84號旁",
    "district":"烏來區"
    }
  }
]
}