{
   "type": "FeatureCollection",
   "features": [
  {
    "type": "Feature",
    "geometry": {
       "type": "Point",
       "coordinates":  [ 121.56287979912946,25.03764450272111 ]
    },
    "properties": {
    "展演地":"市民廣場及市政大樓周邊場地街舞區",
    "主管機關":"臺北市市政大樓公共事務管理中心",
    "開放表演類型":"表演藝術類、視覺藝術類、工藝藝術類",
    "申請方式":"電話預約",
    "展演點數量":2,
    "description":"",
    "address":"110台北市信義區松壽路1號",
    "district":"信義區"
    }
  },
  {
    "type": "Feature",
    "geometry": {
       "type": "Point",
       "coordinates":  [ 121.54792296630542,25.09441169775223 ]
    },
    "properties": {
    "展演地":"錢穆故居戶外庭園、人文茶坊",
    "主管機關":"臺北市政府文化局",
    "開放表演類型":"表演藝術類、視覺藝術類、工藝藝術類",
    "申請方式":"電話預約",
    "展演點數量":2,
    "description":"",
    "address":"111台北市士林區臨溪路72號",
    "district":"士林區"
    }
  },
  {
    "type": "Feature",
    "geometry": {
       "type": "Point",
       "coordinates":  [ 121.56202899651764,25.034274270375597 ]
    },
    "properties": {
    "展演地":"公民會館(中央廣場)",
    "主管機關":"臺北市信義區公所",
    "開放表演類型":"表演藝術類、視覺藝術類、工藝藝術類",
    "申請方式":"電話預約申請及書面申請",
    "展演點數量":1,
    "description":"",
    "address":"110台北市信義區松勤街50號",
    "district":"信義區"
    }
  },
  {
    "type": "Feature",
    "geometry": {
       "type": "Point",
       "coordinates":  [ 121.57868123164704,25.07994887778657 ]
    },
    "properties": {
    "展演地":"港富里737音樂夜市",
    "主管機關":"臺北市內湖區港富里辦公處",
    "開放表演類型":"表演藝術類、視覺藝術類、工藝藝術類",
    "申請方式":"電話預約",
    "展演點數量":1,
    "description":"",
    "address":"114台北市內湖區內湖路一段737巷",
    "district":"內湖區"
    }
  },
  {
    "type": "Feature",
    "geometry": {
       "type": "Point",
       "coordinates":  [ 121.55514684733812,25.09162750156807 ]
    },
    "properties": {
    "展演地":"美麗新廣場",
    "主管機關":"美麗華實業股份有限公司",
    "開放表演類型":"表演藝術類、視覺藝術類、工藝藝術類",
    "申請方式":"電子郵件申請",
    "展演點數量":4,
    "description":"",
    "address":"10491台北市中山區北安路780號",
    "district":"中山區"
    }
  },
  {
    "type": "Feature",
    "geometry": {
       "type": "Point",
       "coordinates":  [ 121.54755124369925,25.04158817455825 ]
    },
    "properties": {
    "展演地":"東區龍門廣場、東區頂好廣場",
    "主管機關":"臺北捷運公司-東區地下街辦公室",
    "開放表演類型":"表演藝術類、視覺藝術類、工藝藝術類",
    "申請方式":"線上登記",
    "展演點數量":3,
    "description":"",
    "address":"106台北市大安區",
    "district":"大安區"
    }
  },
  {
    "type": "Feature",
    "geometry": {
       "type": "Point",
       "coordinates":  [ 121.5451828797968,25.04282542318259 ]
    },
    "properties": {
    "展演地":"瑠公綠廊",
    "主管機關":"臺北市政府工務局公園路燈工程管理處",
    "開放表演類型":"視覺藝術類、工藝藝術類",
    "申請方式":"線上登記",
    "展演點數量":3,
    "description":"",
    "address":"臺北市復興南路一段135巷",
    "district":"大安區"
    }
  },
  {
    "type": "Feature",
    "geometry": {
       "type": "Point",
       "coordinates":  [ 121.5597529,25.0386114 ]
    },
    "properties": {
    "展演地":"國立國父紀念館中山公園廣場",
    "主管機關":"國立國父紀念館",
    "開放表演類型":"表演藝術類、視覺藝術類、工藝藝術類",
    "申請方式":"電話預約",
    "展演點數量":2,
    "description":"",
    "address":"110台灣台北市信義區仁愛路四段505號中山公園",
    "district":"信義區"
    }
  },
  {
    "type": "Feature",
    "geometry": {
       "type": "Point",
       "coordinates":  [ 121.5669095,25.0355892 ]
    },
    "properties": {
    "展演地":"信義徒步區",
    "主管機關":"臺北市政府文化局",
    "開放表演類型":"表演藝術類、視覺藝術類、工藝藝術類",
    "申請方式":"線上登記",
    "展演點數量":32,
    "description":"",
    "address":"110台灣台北市信義區松壽路20號",
    "district":"信義區"
    }
  },
  {
    "type": "Feature",
    "geometry": {
       "type": "Point",
       "coordinates":  [ 121.5073209,25.044043 ]
    },
    "properties": {
    "展演地":"西門徒步區",
    "主管機關":"臺北市政府文化局",
    "開放表演類型":"表演藝術類、視覺藝術類、工藝藝術類",
    "申請方式":"線上登記",
    "展演點數量":20,
    "description":"",
    "address":"108台灣台北市萬華區漢中街50巷9號",
    "district":"萬華區"
    }
  },
  {
    "type": "Feature",
    "geometry": {
       "type": "Point",
       "coordinates":  [ 121.5332629,25.0105988 ]
    },
    "properties": {
    "展演地":"寶藏巖",
    "主管機關":"臺北市政府文化局、臺北市文化基金會",
    "開放表演類型":"表演藝術類、視覺藝術類、工藝藝術類",
    "申請方式":"電話預約",
    "展演點數量":1,
    "description":"",
    "address":"100台灣台北市中正區汀州路三段230巷23號",
    "district":"中正區"
    }
  },
  {
    "type": "Feature",
    "geometry": {
       "type": "Point",
       "coordinates":  [ 121.5606383,25.0438366 ]
    },
    "properties": {
    "展演地":"松山文創園區",
    "主管機關":"臺北市政府文化局、臺北市文化基金會",
    "開放表演類型":"表演藝術類、視覺藝術類、工藝藝術類",
    "申請方式":"松山文創園區官方網站",
    "展演點數量":4,
    "description":"",
    "address":"11072台灣台北市信義區光復南路133號",
    "district":"信義區"
    }
  },
  {
    "type": "Feature",
    "geometry": {
       "type": "Point",
       "coordinates":  [ 121.5103481,25.0430794 ]
    },
    "properties": {
    "展演地":"中山堂廣場",
    "主管機關":"臺北市政府文化局、臺北市中山堂管理所",
    "開放表演類型":"表演藝術類、視覺藝術類、工藝藝術類",
    "申請方式":"電話預約",
    "展演點數量":2,
    "description":"",
    "address":"100台灣台北市中正區延平南路83號中山堂生活廣場",
    "district":"中正區"
    }
  },
  {
    "type": "Feature",
    "geometry": {
       "type": "Point",
       "coordinates":  [ 121.5654268,25.0329636 ]
    },
    "properties": {
    "展演地":"臺北市立美術館廣場",
    "主管機關":"臺北市政府文化局、臺北市立美術館",
    "開放表演類型":"表演藝術類、視覺藝術類、工藝藝術類",
    "申請方式":"書面申請",
    "展演點數量":1,
    "description":"",
    "address":"台灣台北市",
    "district":"中山區"
    }
  },
  {
    "type": "Feature",
    "geometry": {
       "type": "Point",
       "coordinates":  [ 121.5022901,25.1369406 ]
    },
    "properties": {
    "展演地":"捷運新北投站",
    "主管機關":"臺北捷運公司",
    "開放表演類型":"表演藝術類、視覺藝術類",
    "申請方式":"線上登記",
    "展演點數量":2,
    "description":"",
    "address":"112台灣台北市北投區大業路700號新北投",
    "district":"北投區"
    }
  },
  {
    "type": "Feature",
    "geometry": {
       "type": "Point",
       "coordinates":  [ 121.498633,25.131841 ]
    },
    "properties": {
    "展演地":"捷運北投站",
    "主管機關":"臺北捷運公司",
    "開放表演類型":"表演藝術類、視覺藝術類、工藝藝術類",
    "申請方式":"線上登記",
    "展演點數量":1,
    "description":"",
    "address":"112台灣台北市北投區光明路1號",
    "district":"北投區"
    }
  },
  {
    "type": "Feature",
    "geometry": {
       "type": "Point",
       "coordinates":  [ 121.5276853,25.0928463 ]
    },
    "properties": {
    "展演地":"捷運士林站",
    "主管機關":"臺北捷運公司",
    "開放表演類型":"視覺藝術類、表演藝術類(僅限非音樂性之表演)",
    "申請方式":"線上登記",
    "展演點數量":1,
    "description":"",
    "address":"111台灣台北市士林區捷運士林站(中山)",
    "district":"士林區"
    }
  },
  {
    "type": "Feature",
    "geometry": {
       "type": "Point",
       "coordinates":  [ 121.5183115,25.0326494 ]
    },
    "properties": {
    "展演地":"捷運中正紀念堂站",
    "主管機關":"臺北捷運公司",
    "開放表演類型":"表演藝術類之歌唱與樂器演奏類",
    "申請方式":"電話登記、傳真(1組身心障礙者(限5人以下團體或個人)表演",
    "展演點數量":1,
    "description":"",
    "address":"100台灣台北市中正區羅斯福路一段8之1號之中正紀念堂",
    "district":"中正區"
    }
  },
  {
    "type": "Feature",
    "geometry": {
       "type": "Point",
       "coordinates":  [ 121.508298,25.0417466 ]
    },
    "properties": {
    "展演地":"捷運西門站",
    "主管機關":"臺北捷運公司",
    "開放表演類型":"表演藝術類之歌唱與樂器演奏類",
    "申請方式":"線上登記1組(限3人以下團體或個人)表演",
    "展演點數量":1,
    "description":"",
    "address":"100台灣台北市中正區捷運西門站",
    "district":"中正區"
    }
  },
  {
    "type": "Feature",
    "geometry": {
       "type": "Point",
       "coordinates":  [ 121.5475316,25.0415737 ]
    },
    "properties": {
    "展演地":"捷運東區地下街",
    "主管機關":"臺北捷運公司",
    "開放表演類型":"表演藝術類、視覺藝術類",
    "申請方式":"線上登記",
    "展演點數量":5,
    "description":"",
    "address":"106台灣台北市大安區大安路一段77號",
    "district":"大安區"
    }
  },
  {
    "type": "Feature",
    "geometry": {
       "type": "Point",
       "coordinates":  [ 0.0,0.0 ]
    },
    "properties": {
    "展演地":"貓空纜車",
    "主管機關":"臺北捷運公司",
    "開放表演類型":"音樂性之表演藝術類",
    "申請方式":"線上登記",
    "展演點數量":5,
    "description":"",
    "address":"Zoo - Maokong",
    "district":"文山區"
    }
  },
  {
    "type": "Feature",
    "geometry": {
       "type": "Point",
       "coordinates":  [ 121.514951,25.0972351 ]
    },
    "properties": {
    "展演地":"臺北市兒童新樂園、樹蛙表演場",
    "主管機關":"臺北捷運公司",
    "開放表演類型":"表演藝術類",
    "申請方式":"線上登記",
    "展演點數量":7,
    "description":"",
    "address":"11169台灣台北市士林區承德路五段55號",
    "district":"士林區"
    }
  },
  {
    "type": "Feature",
    "geometry": {
       "type": "Point",
       "coordinates":  [ 121.5189766,25.0508047 ]
    },
    "properties": {
    "展演地":"臺北當代藝術館",
    "主管機關":"臺北市政府文化局",
    "開放表演類型":"表演藝術類、視覺藝術類、工藝藝術類",
    "申請方式":"電話預約",
    "展演點數量":1,
    "description":"",
    "address":"103台灣台北市大同區長安西路39號",
    "district":"大同區"
    }
  },
  {
    "type": "Feature",
    "geometry": {
       "type": "Point",
       "coordinates":  [ 121.5834051,25.0831288 ]
    },
    "properties": {
    "展演地":"碧湖公園(內湖區)",
    "主管機關":"臺北市政府工務局公園路燈工程管理處",
    "開放表演類型":"表演藝術類、視覺藝術類、工藝藝術類",
    "申請方式":"線上登記",
    "展演點數量":1,
    "description":"",
    "address":"114台灣台北市內湖區內湖路二段175號碧湖公園",
    "district":"內湖區"
    }
  },
  {
    "type": "Feature",
    "geometry": {
       "type": "Point",
       "coordinates":  [ 121.603164,25.0825351 ]
    },
    "properties": {
    "展演地":"大湖公園(內湖區)",
    "主管機關":"臺北市政府工務局公園路燈工程管理處",
    "開放表演類型":"表演藝術類、視覺藝術類、工藝藝術類",
    "申請方式":"線上登記",
    "展演點數量":2,
    "description":"",
    "address":"114台灣台北市內湖區成功路五段31號大湖公園",
    "district":"內湖區"
    }
  },
  {
    "type": "Feature",
    "geometry": {
       "type": "Point",
       "coordinates":  [ 121.5062829,25.1363048 ]
    },
    "properties": {
    "展演地":"北投公園(北投區)",
    "主管機關":"臺北市政府工務局公園路燈工程管理處",
    "開放表演類型":"表演藝術類、視覺藝術類、工藝藝術類",
    "申請方式":"線上登記",
    "展演點數量":2,
    "description":"",
    "address":"112台灣台北市北投區光明路中山路北投公園",
    "district":"北投區"
    }
  },
  {
    "type": "Feature",
    "geometry": {
       "type": "Point",
       "coordinates":  [ 121.5362867,25.0296587 ]
    },
    "properties": {
    "展演地":"大安森林公園(大安區)",
    "主管機關":"臺北市政府工務局公園路燈工程管理處",
    "開放表演類型":"表演藝術類、視覺藝術類、工藝藝術類",
    "申請方式":"線上登記",
    "展演點數量":2,
    "description":"",
    "address":"106台灣台北市大安區新生南路二段1號大安森林公園",
    "district":"大安區"
    }
  },
  {
    "type": "Feature",
    "geometry": {
       "type": "Point",
       "coordinates":  [ 121.499914,25.0360144 ]
    },
    "properties": {
    "展演地":"艋舺公園(萬華區)",
    "主管機關":"臺北市政府工務局公園路燈工程管理處",
    "開放表演類型":"表演藝術類、視覺藝術類",
    "申請方式":"線上登記",
    "展演點數量":4,
    "description":"",
    "address":"108台灣台北市萬華區廣州街西園路交叉口艋舺公園",
    "district":"萬華區"
    }
  },
  {
    "type": "Feature",
    "geometry": {
       "type": "Point",
       "coordinates":  [ 121.5151192,25.0427872 ]
    },
    "properties": {
    "展演地":"二二八和平公園(中正區)、台灣博物館",
    "主管機關":"臺北市政府工務局公園路燈工程管理處",
    "開放表演類型":"表演藝術類、視覺藝術類、工藝藝術類",
    "申請方式":"線上登記",
    "展演點數量":3,
    "description":"",
    "address":"100台灣台北市中正區襄陽路2號",
    "district":"中正區"
    }
  },
  {
    "type": "Feature",
    "geometry": {
       "type": "Point",
       "coordinates":  [ 121.5291642,25.0913793 ]
    },
    "properties": {
    "展演地":"士林官邸公園(菊展期間)",
    "主管機關":"臺北市政府工務局公園路燈工程管理處",
    "開放表演類型":"表演藝術類、視覺藝術類、工藝藝術類",
    "申請方式":"線上登記",
    "展演點數量":5,
    "description":"",
    "address":"111台灣台北市士林區中山北路五段460巷4號士林官邸公園",
    "district":"士林區"
    }
  },
  {
    "type": "Feature",
    "geometry": {
       "type": "Point",
       "coordinates":  [ 121.5411006,25.07469 ]
    },
    "properties": {
    "展演地":"大佳河濱公園",
    "主管機關":"臺北市政府工務局水利工程處",
    "開放表演類型":"表演藝術類",
    "申請方式":"線上登記",
    "展演點數量":1,
    "description":"",
    "address":"104台灣台北市中山區濱江街5號大佳河濱公園",
    "district":"中山區"
    }
  },
  {
    "type": "Feature",
    "geometry": {
       "type": "Point",
       "coordinates":  [ 121.5200644,25.0206167 ]
    },
    "properties": {
    "展演地":"古亭河濱公園",
    "主管機關":"臺北市政府工務局水利工程處",
    "開放表演類型":"表演藝術類",
    "申請方式":"線上登記",
    "展演點數量":1,
    "description":"",
    "address":"100台灣台北市中正區同安街109巷10號台北市古亭河濱公園",
    "district":"中正區"
    }
  },
  {
    "type": "Feature",
    "geometry": {
       "type": "Point",
       "coordinates":  [ 121.586011,25.055591 ]
    },
    "properties": {
    "展演地":"成美右岸河濱公園",
    "主管機關":"臺北市政府工務局水利工程處",
    "開放表演類型":"表演藝術類",
    "申請方式":"線上登記",
    "展演點數量":1,
    "description":"",
    "address":"114台灣台北市內湖區成美右岸河濱公園",
    "district":"內湖區"
    }
  },
  {
    "type": "Feature",
    "geometry": {
       "type": "Point",
       "coordinates":  [ 121.58638,25.053946 ]
    },
    "properties": {
    "展演地":"成美左岸河濱公園",
    "主管機關":"臺北市政府工務局水利工程處",
    "開放表演類型":"表演藝術類",
    "申請方式":"線上登記",
    "展演點數量":1,
    "description":"",
    "address":"115台灣台北市南港區成美左岸河濱公園",
    "district":"南港區"
    }
  },
  {
    "type": "Feature",
    "geometry": {
       "type": "Point",
       "coordinates":  [ 121.5608673,25.0753765 ]
    },
    "properties": {
    "展演地":"美堤河濱公園",
    "主管機關":"臺北市政府工務局水利工程處",
    "開放表演類型":"表演藝術類",
    "申請方式":"線上登記",
    "展演點數量":2,
    "description":"",
    "address":"10491台灣台北市中山區樂群一路基隆河基16號水門美堤河濱公園",
    "district":"中山區"
    }
  },
  {
    "type": "Feature",
    "geometry": {
       "type": "Point",
       "coordinates":  [ 121.4671,25.12563 ]
    },
    "properties": {
    "展演地":"關渡河濱公園",
    "主管機關":"臺北市政府工務局水利工程處",
    "開放表演類型":"表演藝術類",
    "申請方式":"線上登記",
    "展演點數量":1,
    "description":"",
    "address":"112台灣台北市北投區關渡",
    "district":"北投區"
    }
  },
  {
    "type": "Feature",
    "geometry": {
       "type": "Point",
       "coordinates":  [ 121.5102264,25.0743921 ]
    },
    "properties": {
    "展演地":"迪化污水處理廠附設休閒運動公園",
    "主管機關":"工務局衛生下水道工程處",
    "開放表演類型":"表演藝術類、視覺藝術類、工藝藝術類",
    "申請方式":"線上登記",
    "展演點數量":6,
    "description":"",
    "address":"103台灣台北市大同區延平北路四段迪化污水處理廠附設休閒運動公園",
    "district":"大同區"
    }
  },
  {
    "type": "Feature",
    "geometry": {
       "type": "Point",
       "coordinates":  [ 121.574362,25.066389 ]
    },
    "properties": {
    "展演地":"內湖污水處理廠回饋公園",
    "主管機關":"工務局衛生下水道工程處",
    "開放表演類型":"表演藝術類、視覺藝術類、工藝藝術類",
    "申請方式":"線上登記",
    "展演點數量":4,
    "description":"",
    "address":"114台灣台北市內湖區舊宗路二段2號",
    "district":"內湖區"
    }
  },
  {
    "type": "Feature",
    "geometry": {
       "type": "Point",
       "coordinates":  [ 121.5183633,25.0958186 ]
    },
    "properties": {
    "展演地":"臺北市立天文科學教育館",
    "主管機關":"臺北市立天文科學教育館",
    "開放表演類型":"表演藝術類",
    "申請方式":"線上登記",
    "展演點數量":1,
    "description":"",
    "address":"111台灣台北市士林區基河路363號",
    "district":"士林區"
    }
  },
  {
    "type": "Feature",
    "geometry": {
       "type": "Point",
       "coordinates":  [ 121.5342422,25.1148777 ]
    },
    "properties": {
    "展演地":"天母運動公園音樂台",
    "主管機關":"臺北市政府體育局",
    "開放表演類型":"表演藝術類、視覺藝術類",
    "申請方式":"書面申請",
    "展演點數量":1,
    "description":"",
    "address":"111台灣台北市士林區忠誠路二段天母運動公園",
    "district":"士林區"
    }
  },
  {
    "type": "Feature",
    "geometry": {
       "type": "Point",
       "coordinates":  [ 121.5303215,25.013284 ]
    },
    "properties": {
    "展演地":"自來水園區內各展演場地",
    "主管機關":"臺北自來水事業處",
    "開放表演類型":"表演藝術類、視覺藝術類、工藝藝術類",
    "申請方式":"線上登記",
    "展演點數量":2,
    "description":"",
    "address":"100台灣台北市中正區思源街1號自來水園區",
    "district":"中正區"
    }
  },
  {
    "type": "Feature",
    "geometry": {
       "type": "Point",
       "coordinates":  [ 121.5221637,25.0716662 ]
    },
    "properties": {
    "展演地":"花博公園公共空間(Maji商城入口處前方空間)",
    "主管機關":"財團法人臺北市會展產業發展基金會",
    "開放表演類型":"表演藝術類、視覺藝術類、工藝藝術類",
    "申請方式":"線上登記",
    "展演點數量":1,
    "description":"",
    "address":"10491台灣台北市中山區玉門街1號花博公園圓山園區",
    "district":"中山區"
    }
  },
  {
    "type": "Feature",
    "geometry": {
       "type": "Point",
       "coordinates":  [ 121.5241766,25.0880024 ]
    },
    "properties": {
    "展演地":"士林市場藝文空間",
    "主管機關":"臺北市市場處",
    "開放表演類型":"表演藝術類、視覺藝術類",
    "申請方式":"現場申請",
    "展演點數量":1,
    "description":"",
    "address":"111台灣台北市士林區基河路101號",
    "district":"士林區"
    }
  },
  {
    "type": "Feature",
    "geometry": {
       "type": "Point",
       "coordinates":  [ 121.5136386,25.0495017 ]
    },
    "properties": {
    "展演地":"臺北市台北地下街",
    "主管機關":"臺北市市場處",
    "開放表演類型":"表演藝術類、視覺藝術類",
    "申請方式":"現場申請、電話預約或電子郵件",
    "展演點數量":3,
    "description":"",
    "address":"100台灣台北市中正區市民大道一段100號B1",
    "district":"中正區"
    }
  },
  {
    "type": "Feature",
    "geometry": {
       "type": "Point",
       "coordinates":  [ 121.5158162,25.0458991 ]
    },
    "properties": {
    "展演地":"臺北市站前地下街",
    "主管機關":"臺北市市場處",
    "開放表演類型":"表演藝術類、視覺藝術類",
    "申請方式":"現場申請或電子郵件申請",
    "展演點數量":1,
    "description":"",
    "address":"100台灣台北市中正區忠孝西路一段50-1號B1 13-5號店鋪",
    "district":"中正區"
    }
  },
  {
    "type": "Feature",
    "geometry": {
       "type": "Point",
       "coordinates":  [ 121.5336389,25.053628 ]
    },
    "properties": {
    "展演地":"臺北市四平商圈徒步區",
    "主管機關":"臺北市四平商圈徒步區發展協會",
    "開放表演類型":"表演藝術類、視覺藝術類、工藝藝術類",
    "申請方式":"電話預約",
    "展演點數量":1,
    "description":"",
    "address":"10491台灣台北市中山區四平街79號",
    "district":"中山區"
    }
  },
  {
    "type": "Feature",
    "geometry": {
       "type": "Point",
       "coordinates":  [ 121.5809857,24.9985635 ]
    },
    "properties": {
    "展演地":"臺北市立動物園",
    "主管機關":"臺北市立動物園",
    "開放表演類型":"表演藝術類、視覺藝術類、工藝藝術類",
    "申請方式":"線上登記",
    "展演點數量":7,
    "description":"",
    "address":"116台灣台北市文山區新光路二段30號",
    "district":"文山區"
    }
  },
  {
    "type": "Feature",
    "geometry": {
       "type": "Point",
       "coordinates":  [ 121.555244,25.084711 ]
    },
    "properties": {
    "展演地":"捷運劍南路站",
    "主管機關":"臺北捷運公司",
    "開放表演類型":"表演藝術類、視覺藝術類、工藝藝術類",
    "申請方式":"線上登記",
    "展演點數量":2,
    "description":"",
    "address":"104台灣台北市中山區捷運劍南路站",
    "district":"中山區"
    }
  },
  {
    "type": "Feature",
    "geometry": {
       "type": "Point",
       "coordinates":  [ 121.5201843,25.0696122 ]
    },
    "properties": {
    "展演地":"捷運圓山站",
    "主管機關":"臺北捷運公司",
    "開放表演類型":"表演藝術類、視覺藝術類、工藝藝術類(表演藝術類不得使用電子類樂器)",
    "申請方式":"線上登記",
    "展演點數量":1,
    "description":"",
    "address":"104台灣台北市大同區10491捷運圓山站",
    "district":"大同區"
    }
  },
  {
    "type": "Feature",
    "geometry": {
       "type": "Point",
       "coordinates":  [ 121.520391,25.052685 ]
    },
    "properties": {
    "展演地":"捷運中山站",
    "主管機關":"臺北捷運公司",
    "開放表演類型":"表演藝術類、視覺藝術類",
    "申請方式":"線上登記",
    "展演點數量":2,
    "description":"",
    "address":"10491台灣台北市中山區南京西路16號中山",
    "district":"中山區"
    }
  },
  {
    "type": "Feature",
    "geometry": {
       "type": "Point",
       "coordinates":  [ 121.5353131,25.0335283 ]
    },
    "properties": {
    "展演地":"捷運大安森林公園站",
    "主管機關":"臺北捷運公司",
    "開放表演類型":"表演藝術類",
    "申請方式":"線上登記",
    "展演點數量":1,
    "description":"",
    "address":"106台灣台北市大安區信義路三段100號大安森林公園",
    "district":"大安區"
    }
  },
  {
    "type": "Feature",
    "geometry": {
       "type": "Point",
       "coordinates":  [ 121.5574584,25.0834232 ]
    },
    "properties": {
    "展演地":"美麗華百樂園",
    "主管機關":"美麗華城市發展股份有限公司",
    "開放表演類型":"表演藝術類、視覺藝術類、工藝藝術類",
    "申請方式":"電子郵件申請",
    "展演點數量":2,
    "description":"",
    "address":"10491台灣台北市中山區敬業三路20號",
    "district":"中山區"
    }
  },
  {
    "type": "Feature",
    "geometry": {
       "type": "Point",
       "coordinates":  [ 121.5645389,25.033976 ]
    },
    "properties": {
    "展演地":"台北101",
    "主管機關":"台北金融大樓股份有限公司",
    "開放表演類型":"表演藝術類、視覺藝術類、工藝藝術類",
    "申請方式":"電子郵件申請",
    "展演點數量":2,
    "description":"",
    "address":"Taipei 101, No. 7信義路五段信義區台北市台灣 110",
    "district":"信義區"
    }
  },
  {
    "type": "Feature",
    "geometry": {
       "type": "Point",
       "coordinates":  [ 121.5041545,25.0190025 ]
    },
    "properties": {
    "展演地":"馬場町紀念公園",
    "主管機關":"臺北市政府工務局水利工程處",
    "開放表演類型":"表演藝術類",
    "申請方式":"線上登記",
    "展演點數量":1,
    "description":"",
    "address":"108台灣台北市萬華區青年路188巷1弄7號馬場町紀念公園",
    "district":"萬華區"
    }
  },
  {
    "type": "Feature",
    "geometry": {
       "type": "Point",
       "coordinates":  [ 121.5445152,25.0461678 ]
    },
    "properties": {
    "展演地":"微風廣場",
    "主管機關":"微風廣場實業股份有限公司",
    "開放表演類型":"表演藝術類、視覺藝術類、工藝藝術類",
    "申請方式":"電子郵件申請",
    "展演點數量":2,
    "description":"",
    "address":"105台灣台北市松山區復興南路一段39號",
    "district":"松山區"
    }
  },
  {
    "type": "Feature",
    "geometry": {
       "type": "Point",
       "coordinates":  [ 121.522821,25.0325548 ]
    },
    "properties": {
    "展演地":"南門中繼市場",
    "主管機關":"臺北市市場處",
    "開放表演類型":"表演藝術類、視覺藝術類、工藝藝術類",
    "申請方式":"電話預約",
    "展演點數量":1,
    "description":"",
    "address":"106台灣台北市大安區杭州南路二段55號",
    "district":"大安區"
    }
  },
  {
    "type": "Feature",
    "geometry": {
       "type": "Point",
       "coordinates":  [ 121.5206671,25.0577788 ]
    },
    "properties": {
    "展演地":"捷運雙連站",
    "主管機關":"臺北捷運公司",
    "開放表演類型":"表演藝術類(限5人以下團體及個人，電子類 樂器及鼓除外)",
    "申請方式":"線上登記",
    "展演點數量":1,
    "description":"",
    "address":"104台灣台北市大同區民生西路47號雙連",
    "district":"大同區"
    }
  },
  {
    "type": "Feature",
    "geometry": {
       "type": "Point",
       "coordinates":  [ 121.5679552,25.0367511 ]
    },
    "properties": {
    "展演地":"遠百信義A13",
    "主管機關":"遠百信義A13",
    "開放表演類型":"一般表演/視覺/音樂/工藝類型節目，但較高音量的節目除外。",
    "申請方式":"電子郵件申請",
    "展演點數量":1,
    "description":"",
    "address":"110台灣台北市信義區松仁路58號",
    "district":"信義區"
    }
  },
  {
    "type": "Feature",
    "geometry": {
       "type": "Point",
       "coordinates":  [ 121.5659555,25.0343073 ]
    },
    "properties": {
    "展演地":"微風南山",
    "主管機關":"微風南山",
    "開放表演類型":"表演藝術類、視覺藝術類、工藝藝術類",
    "申請方式":"電子郵件申請",
    "展演點數量":3,
    "description":"",
    "address":"110台灣台北市信義區松智路17號",
    "district":"信義區"
    }
  },
  {
    "type": "Feature",
    "geometry": {
       "type": "Point",
       "coordinates":  [ 121.5249762,25.0842798 ]
    },
    "properties": {
    "展演地":"捷運劍潭站",
    "主管機關":"臺北捷運公司",
    "開放表演類型":"表演藝術類",
    "申請方式":"線上登記",
    "展演點數量":1,
    "description":"",
    "address":"111台灣台北市士林區中山北路五段65號劍潭",
    "district":"士林區"
    }
  },
  {
    "type": "Feature",
    "geometry": {
       "type": "Point",
       "coordinates":  [ 121.6047663,25.0536372 ]
    },
    "properties": {
    "展演地":"瓶蓋工廠台北製造所",
    "主管機關":"臺北市產業發展局",
    "開放表演類型":"表演藝術類",
    "申請方式":"電子郵件申請",
    "展演點數量":3,
    "description":"",
    "address":"115台灣台北市南港區南港路二段13號",
    "district":"南港區"
    }
  },
  {
    "type": "Feature",
    "geometry": {
       "type": "Point",
       "coordinates":  [ 121.5659995,25.0353558 ]
    },
    "properties": {
    "展演地":"ATT 4 FUN(信義店)",
    "主管機關":"吸引力股份有限公司",
    "開放表演類型":"表演藝術類、視覺藝術類",
    "申請方式":"電子郵件",
    "展演點數量":9,
    "description":"",
    "address":"110台灣台北市信義區松壽路12號",
    "district":"信義區"
    }
  },
  {
    "type": "Feature",
    "geometry": {
       "type": "Point",
       "coordinates":  [ 121.5659995,25.0353558 ]
    },
    "properties": {
    "展演地":"ATT 4 FUN(大直店)",
    "主管機關":"吸引力股份有限公司",
    "開放表演類型":"表演藝術類、視覺藝術類、工藝藝術類",
    "申請方式":"電子郵件",
    "展演點數量":5,
    "description":"",
    "address":"110台灣台北市信義區松壽路12號",
    "district":"信義區"
    }
  },
  {
    "type": "Feature",
    "geometry": {
       "type": "Point",
       "coordinates":  [ 121.5458298,25.0424137 ]
    },
    "properties": {
    "展演地":"瑠公公園",
    "主管機關":"臺北市政府工務局公園路燈工程管理處",
    "開放表演類型":"表演藝術類、視覺藝術類、工藝藝術類",
    "申請方式":"線上登記",
    "展演點數量":1,
    "description":"",
    "address":"106台灣台北市大安區大安路一段瑠公公園",
    "district":"大安區"
    }
  },
  {
    "type": "Feature",
    "geometry": {
       "type": "Point",
       "coordinates":  [ 121.5029144,25.1364364 ]
    },
    "properties": {
    "展演地":"北投七星公園",
    "主管機關":"臺北市政府工務局公園路燈工程管理處陽明山公園管理所",
    "開放表演類型":"表演藝術類、視覺藝術類、工藝藝術類",
    "申請方式":"線上登記",
    "展演點數量":1,
    "description":"",
    "address":"112台灣台北市北投區七星街七星公園",
    "district":"北投區"
    }
  },
  {
    "type": "Feature",
    "geometry": {
       "type": "Point",
       "coordinates":  [ 121.5879355,24.9683095 ]
    },
    "properties": {
    "展演地":"貓空站戶外廣場",
    "主管機關":"臺北捷運公司",
    "開放表演類型":"表演藝術類、視覺藝術類、工藝藝術類",
    "申請方式":"線上登記",
    "展演點數量":2,
    "description":"",
    "address":"116台灣台北市文山區貓空站",
    "district":"文山區"
    }
  },
  {
    "type": "Feature",
    "geometry": {
       "type": "Point",
       "coordinates":  [ 121.5243691,25.0851242 ]
    },
    "properties": {
    "展演地":"臺北表演藝術中心",
    "主管機關":"臺北表演藝術中心",
    "開放表演類型":"表演藝術類、視覺藝術類",
    "申請方式":"線上登記",
    "展演點數量":3,
    "description":"",
    "address":"111台灣台北市士林區劍潭路1號",
    "district":"士林區"
    }
  },
  {
    "type": "Feature",
    "geometry": {
       "type": "Point",
       "coordinates":  [ 121.599042,25.0526926 ]
    },
    "properties": {
    "展演地":"臺北流行音樂中心",
    "主管機關":"臺北流行音樂中心",
    "開放表演類型":"表演藝術類",
    "申請方式":"電子郵件",
    "展演點數量":3,
    "description":"",
    "address":"115台灣台北市南港區市民大道八段99號",
    "district":"南港區"
    }
  },
  {
    "type": "Feature",
    "geometry": {
       "type": "Point",
       "coordinates":  [ 121.574187,25.0629778 ]
    },
    "properties": {
    "展演地":"台北花市",
    "主管機關":"市場處",
    "開放表演類型":"以管弦樂樂器音樂演奏項目表演藝術類為主",
    "申請方式":"電子郵件",
    "展演點數量":3,
    "description":"",
    "address":"114台灣台北市内湖區新湖三路28號切花、資材、辦公室A館B館盆花",
    "district":"內湖區"
    }
  },
  {
    "type": "Feature",
    "geometry": {
       "type": "Point",
       "coordinates":  [ 121.5570625,25.0822446 ]
    },
    "properties": {
    "展演地":"NOKE忠泰樂生活",
    "主管機關":"忠泰商場事業股份有限公司",
    "開放表演類型":"表演藝術類",
    "申請方式":"電子郵件",
    "展演點數量":1,
    "description":"",
    "address":"10491台灣台北市中山區樂群三路200號",
    "district":"中山區"
    }
  },
  {
    "type": "Feature",
    "geometry": {
       "type": "Point",
       "coordinates":  [ 121.5032328,25.0365665 ]
    },
    "properties": {
    "展演地":"廣州街-環河南路口三角小舞台",
    "主管機關":"市場處",
    "開放表演類型":"表演藝術類、視覺藝術類、工藝藝術類",
    "申請方式":"電話預約",
    "展演點數量":1,
    "description":"",
    "address":"台灣台北市廣州街",
    "district":"士林區"
    }
  },
  {
    "type": "Feature",
    "geometry": {
       "type": "Point",
       "coordinates":  [ 121.579919,25.0509726 ]
    },
    "properties": {
    "展演地":"錫口廊道北側",
    "主管機關":"臺北市政府工務局公園路燈工程管理處",
    "開放表演類型":"表演藝術類、視覺藝術類、工藝藝術類",
    "申請方式":"線上登記",
    "展演點數量":1,
    "description":"",
    "address":"115台灣台北市南港區南港路三段 錫口廊道健行步道",
    "district":"南港區"
    }
  },
  {
    "type": "Feature",
    "geometry": {
       "type": "Point",
       "coordinates":  [ 121.5162386,25.0474322 ]
    },
    "properties": {
    "展演地":"東森廣場臺北車站K區地下街",
    "主管機關":"東森得易購股份有限公司",
    "開放表演類型":"表演藝術類、視覺藝術類",
    "申請方式":"現場登記",
    "展演點數量":4,
    "description":"",
    "address":"103台灣台北市中正區忠孝西路一段47號",
    "district":"中正區"
    }
  }
]
}