{"type":"FeatureCollection","features":[{"type":"Feature","properties":{"wholesale_name":"三重魚市","wholesale_code":"三重","retail_name":"三峽公有市場","category":"漁產","category_code":"fishery"},"geometry":{"type":"LineString","coordinates":[[121.4735,25.0651],[121.370671,24.934939]]}},{"type":"Feature","properties":{"wholesale_name":"三重魚市","wholesale_code":"三重","retail_name":"下庄公有市場","category":"漁產","category_code":"fishery"},"geometry":{"type":"LineString","coordinates":[[121.4735,25.0651],[121.399865,25.146582]]}},{"type":"Feature","properties":{"wholesale_name":"三重魚市","wholesale_code":"三重","retail_name":"中央公有市場","category":"漁產","category_code":"fishery"},"geometry":{"type":"LineString","coordinates":[[121.4735,25.0651],[121.5008,25.064323]]}},{"type":"Feature","properties":{"wholesale_name":"三重魚市","wholesale_code":"三重","retail_name":"中山公有零售市場","category":"漁產","category_code":"fishery"},"geometry":{"type":"LineString","coordinates":[[121.4735,25.0651],[121.4427,25.170409]]}},{"type":"Feature","properties":{"wholesale_name":"台北魚市","wholesale_code":"台北","retail_name":"中山大樓","category":"漁產","category_code":"fishery"},"geometry":{"type":"LineString","coordinates":[[121.5617,25.0625],[121.533628,25.064251]]}},{"type":"Feature","properties":{"wholesale_name":"台北魚市","wholesale_code":"台北","retail_name":"中山市場","category":"漁產","category_code":"fishery"},"geometry":{"type":"LineString","coordinates":[[121.5617,25.0625],[121.521261,25.050091]]}},{"type":"Feature","properties":{"wholesale_name":"台北魚市","wholesale_code":"台北","retail_name":"中崙市場(BOT)","category":"漁產","category_code":"fishery"},"geometry":{"type":"LineString","coordinates":[[121.5617,25.0625],[121.552445,25.047963]]}},{"type":"Feature","properties":{"wholesale_name":"三重魚市","wholesale_code":"三重","retail_name":"中正中繼市場","category":"漁產","category_code":"fishery"},"geometry":{"type":"LineString","coordinates":[[121.4735,25.0651],[121.658972,25.068162]]}},{"type":"Feature","properties":{"wholesale_name":"三重魚市","wholesale_code":"三重","retail_name":"中正美食廣場","category":"漁產","category_code":"fishery"},"geometry":{"type":"LineString","coordinates":[[121.4735,25.0651],[121.460255,25.137366]]}},{"type":"Feature","properties":{"wholesale_name":"台北魚市","wholesale_code":"台北","retail_name":"中研市場","category":"漁產","category_code":"fishery"},"geometry":{"type":"LineString","coordinates":[[121.5617,25.0625],[121.606829,25.05467]]}},{"type":"Feature","properties":{"wholesale_name":"台北魚市","wholesale_code":"台北","retail_name":"信義市場(108)","category":"漁產","category_code":"fishery"},"geometry":{"type":"LineString","coordinates":[[121.5617,25.0625],[121.499701,25.035103]]}},{"type":"Feature","properties":{"wholesale_name":"台北魚市","wholesale_code":"台北","retail_name":"光復市場","category":"漁產","category_code":"fishery"},"geometry":{"type":"LineString","coordinates":[[121.5617,25.0625],[121.56772,25.033131]]}},{"type":"Feature","properties":{"wholesale_name":"三重魚市","wholesale_code":"三重","retail_name":"光明公有市場","category":"漁產","category_code":"fishery"},"geometry":{"type":"LineString","coordinates":[[121.4735,25.0651],[121.491414,25.057157]]}},{"type":"Feature","properties":{"wholesale_name":"三重魚市","wholesale_code":"三重","retail_name":"光明公有市場2樓","category":"漁產","category_code":"fishery"},"geometry":{"type":"LineString","coordinates":[[121.4735,25.0651],[121.491414,25.057157]]}},{"type":"Feature","properties":{"wholesale_name":"台北魚市","wholesale_code":"台北","retail_name":"八德市場(110)","category":"漁產","category_code":"fishery"},"geometry":{"type":"LineString","coordinates":[[121.5617,25.0625],[121.563561,25.03593]]}},{"type":"Feature","properties":{"wholesale_name":"台北魚市","wholesale_code":"台北","retail_name":"北投中繼市場","category":"漁產","category_code":"fishery"},"geometry":{"type":"LineString","coordinates":[[121.5617,25.0625],[121.502681,25.132303]]}},{"type":"Feature","properties":{"wholesale_name":"台北魚市","wholesale_code":"台北","retail_name":"南松市場","category":"漁產","category_code":"fishery"},"geometry":{"type":"LineString","coordinates":[[121.5617,25.0625],[121.570551,25.050877]]}},{"type":"Feature","properties":{"wholesale_name":"台北魚市","wholesale_code":"台北","retail_name":"南門中繼市場","category":"漁產","category_code":"fishery"},"geometry":{"type":"LineString","coordinates":[[121.5617,25.0625],[121.534563,25.026456]]}},{"type":"Feature","properties":{"wholesale_name":"三重魚市","wholesale_code":"三重","retail_name":"和平街攤販集中區","category":"漁產","category_code":"fishery"},"geometry":{"type":"LineString","coordinates":[[121.4735,25.0651],[121.505029,24.992102]]}},{"type":"Feature","properties":{"wholesale_name":"三重魚市","wholesale_code":"三重","retail_name":"土城公有零售市場","category":"漁產","category_code":"fishery"},"geometry":{"type":"LineString","coordinates":[[121.4735,25.0651],[121.443018,24.974944]]}},{"type":"Feature","properties":{"wholesale_name":"台北魚市","wholesale_code":"台北","retail_name":"士東市場","category":"漁產","category_code":"fishery"},"geometry":{"type":"LineString","coordinates":[[121.5617,25.0625],[121.519827,25.092857]]}},{"type":"Feature","properties":{"wholesale_name":"台北魚市","wholesale_code":"台北","retail_name":"士林市場(109)","category":"漁產","category_code":"fishery"},"geometry":{"type":"LineString","coordinates":[[121.5617,25.0625],[121.525697,25.095036]]}},{"type":"Feature","properties":{"wholesale_name":"台北魚市","wholesale_code":"台北","retail_name":"大直市場","category":"漁產","category_code":"fishery"},"geometry":{"type":"LineString","coordinates":[[121.5617,25.0625],[121.533628,25.064251]]}},{"type":"Feature","properties":{"wholesale_name":"台北魚市","wholesale_code":"台北","retail_name":"大龍市場(108)","category":"漁產","category_code":"fishery"},"geometry":{"type":"LineString","coordinates":[[121.5617,25.0625],[121.5141,25.0749]]}},{"type":"Feature","properties":{"wholesale_name":"台北魚市","wholesale_code":"台北","retail_name":"安東市場","category":"漁產","category_code":"fishery"},"geometry":{"type":"LineString","coordinates":[[121.5617,25.0625],[121.534563,25.026456]]}},{"type":"Feature","properties":{"wholesale_name":"台北魚市","wholesale_code":"台北","retail_name":"建國市場","category":"漁產","category_code":"fishery"},"geometry":{"type":"LineString","coordinates":[[121.5617,25.0625],[121.533628,25.064251]]}},{"type":"Feature","properties":{"wholesale_name":"三重魚市","wholesale_code":"三重","retail_name":"後埔公有市場","category":"漁產","category_code":"fishery"},"geometry":{"type":"LineString","coordinates":[[121.4735,25.0651],[121.458873,25.006606]]}},{"type":"Feature","properties":{"wholesale_name":"三重魚市","wholesale_code":"三重","retail_name":"忠厚公有市場","category":"漁產","category_code":"fishery"},"geometry":{"type":"LineString","coordinates":[[121.4735,25.0651],[121.640863,25.065988]]}},{"type":"Feature","properties":{"wholesale_name":"台北魚市","wholesale_code":"台北","retail_name":"成功中繼市場","category":"漁產","category_code":"fishery"},"geometry":{"type":"LineString","coordinates":[[121.5617,25.0625],[121.534563,25.026456]]}},{"type":"Feature","properties":{"wholesale_name":"台北魚市","wholesale_code":"台北","retail_name":"成德市場","category":"漁產","category_code":"fishery"},"geometry":{"type":"LineString","coordinates":[[121.5617,25.0625],[121.606829,25.05467]]}},{"type":"Feature","properties":{"wholesale_name":"台北魚市","wholesale_code":"台北","retail_name":"新富市場","category":"漁產","category_code":"fishery"},"geometry":{"type":"LineString","coordinates":[[121.5617,25.0625],[121.499891,25.034887]]}},{"type":"Feature","properties":{"wholesale_name":"台北魚市","wholesale_code":"台北","retail_name":"木新市場","category":"漁產","category_code":"fishery"},"geometry":{"type":"LineString","coordinates":[[121.5617,25.0625],[121.570296,24.989467]]}},{"type":"Feature","properties":{"wholesale_name":"台北魚市","wholesale_code":"台北","retail_name":"木柵市場","category":"漁產","category_code":"fishery"},"geometry":{"type":"LineString","coordinates":[[121.5617,25.0625],[121.5655,24.9827]]}},{"type":"Feature","properties":{"wholesale_name":"三重魚市","wholesale_code":"三重","retail_name":"東勢公有市場","category":"漁產","category_code":"fishery"},"geometry":{"type":"LineString","coordinates":[[121.4735,25.0651],[121.377254,25.068775]]}},{"type":"Feature","properties":{"wholesale_name":"台北魚市","wholesale_code":"台北","retail_name":"東門市場","category":"漁產","category_code":"fishery"},"geometry":{"type":"LineString","coordinates":[[121.5617,25.0625],[121.5267,25.0346]]}},{"type":"Feature","properties":{"wholesale_name":"台北魚市","wholesale_code":"台北","retail_name":"松山市場","category":"漁產","category_code":"fishery"},"geometry":{"type":"LineString","coordinates":[[121.5617,25.0625],[121.575896,25.050351]]}},{"type":"Feature","properties":{"wholesale_name":"台北魚市","wholesale_code":"台北","retail_name":"松江市場","category":"漁產","category_code":"fishery"},"geometry":{"type":"LineString","coordinates":[[121.5617,25.0625],[121.533628,25.064251]]}},{"type":"Feature","properties":{"wholesale_name":"三重魚市","wholesale_code":"三重","retail_name":"枋寮公有市場","category":"漁產","category_code":"fishery"},"geometry":{"type":"LineString","coordinates":[[121.4735,25.0651],[121.500961,25.000577]]}},{"type":"Feature","properties":{"wholesale_name":"三重魚市","wholesale_code":"三重","retail_name":"林口公有市場","category":"漁產","category_code":"fishery"},"geometry":{"type":"LineString","coordinates":[[121.4735,25.0651],[121.391483,25.077745]]}},{"type":"Feature","properties":{"wholesale_name":"三重魚市","wholesale_code":"三重","retail_name":"林森攤販集中區","category":"漁產","category_code":"fishery"},"geometry":{"type":"LineString","coordinates":[[121.4735,25.0651],[121.658759,25.063797]]}},{"type":"Feature","properties":{"wholesale_name":"三重魚市","wholesale_code":"三重","retail_name":"民享公有市場","category":"漁產","category_code":"fishery"},"geometry":{"type":"LineString","coordinates":[[121.4735,25.0651],[121.474073,25.003591]]}},{"type":"Feature","properties":{"wholesale_name":"台北魚市","wholesale_code":"台北","retail_name":"水源市場","category":"漁產","category_code":"fishery"},"geometry":{"type":"LineString","coordinates":[[121.5617,25.0625],[121.535007,25.013742]]}},{"type":"Feature","properties":{"wholesale_name":"台北魚市","wholesale_code":"台北","retail_name":"永吉市場","category":"漁產","category_code":"fishery"},"geometry":{"type":"LineString","coordinates":[[121.5617,25.0625],[121.56772,25.033131]]}},{"type":"Feature","properties":{"wholesale_name":"三重魚市","wholesale_code":"三重","retail_name":"永安公有市場","category":"漁產","category_code":"fishery"},"geometry":{"type":"LineString","coordinates":[[121.4735,25.0651],[121.514272,25.004216]]}},{"type":"Feature","properties":{"wholesale_name":"台北魚市","wholesale_code":"台北","retail_name":"永春市場(111)","category":"漁產","category_code":"fishery"},"geometry":{"type":"LineString","coordinates":[[121.5617,25.0625],[121.531598,25.104673]]}},{"type":"Feature","properties":{"wholesale_name":"台北魚市","wholesale_code":"台北","retail_name":"永樂市場(1樓)","category":"漁產","category_code":"fishery"},"geometry":{"type":"LineString","coordinates":[[121.5617,25.0625],[121.5104,25.0548]]}},{"type":"Feature","properties":{"wholesale_name":"三重魚市","wholesale_code":"三重","retail_name":"泰山公有市場","category":"漁產","category_code":"fishery"},"geometry":{"type":"LineString","coordinates":[[121.4735,25.0651],[121.433653,25.056131]]}},{"type":"Feature","properties":{"wholesale_name":"三重魚市","wholesale_code":"三重","retail_name":"湳興公有市場","category":"漁產","category_code":"fishery"},"geometry":{"type":"LineString","coordinates":[[121.4735,25.0651],[121.45543,25.007356]]}},{"type":"Feature","properties":{"wholesale_name":"三重魚市","wholesale_code":"三重","retail_name":"溪洲公有市場","category":"漁產","category_code":"fishery"},"geometry":{"type":"LineString","coordinates":[[121.4735,25.0651],[121.516597,25.013606]]}},{"type":"Feature","properties":{"wholesale_name":"三重魚市","wholesale_code":"三重","retail_name":"澳底公有市場","category":"漁產","category_code":"fishery"},"geometry":{"type":"LineString","coordinates":[[121.4735,25.0651],[121.926917,25.054775]]}},{"type":"Feature","properties":{"wholesale_name":"台北魚市","wholesale_code":"台北","retail_name":"環南中繼市場","category":"漁產","category_code":"fishery"},"geometry":{"type":"LineString","coordinates":[[121.5617,25.0625],[121.499891,25.034887]]}},{"type":"Feature","properties":{"wholesale_name":"台北魚市","wholesale_code":"台北","retail_name":"直興市場","category":"漁產","category_code":"fishery"},"geometry":{"type":"LineString","coordinates":[[121.5617,25.0625],[121.501766,25.039382]]}},{"type":"Feature","properties":{"wholesale_name":"三重魚市","wholesale_code":"三重","retail_name":"礁溪公有市場","category":"漁產","category_code":"fishery"},"geometry":{"type":"LineString","coordinates":[[121.4735,25.0651],[121.376129,24.928297]]}},{"type":"Feature","properties":{"wholesale_name":"三重魚市","wholesale_code":"三重","retail_name":"秀豐公有市場(攤集區)","category":"漁產","category_code":"fishery"},"geometry":{"type":"LineString","coordinates":[[121.4735,25.0651],[121.662034,25.068507]]}},{"type":"Feature","properties":{"wholesale_name":"三重魚市","wholesale_code":"三重","retail_name":"第一公有市場","category":"漁產","category_code":"fishery"},"geometry":{"type":"LineString","coordinates":[[121.4735,25.0651],[121.63812,25.22147]]}},{"type":"Feature","properties":{"wholesale_name":"台北魚市","wholesale_code":"台北","retail_name":"興隆市場","category":"漁產","category_code":"fishery"},"geometry":{"type":"LineString","coordinates":[[121.5617,25.0625],[121.570296,24.989467]]}},{"type":"Feature","properties":{"wholesale_name":"台北魚市","wholesale_code":"台北","retail_name":"蘭州市場","category":"漁產","category_code":"fishery"},"geometry":{"type":"LineString","coordinates":[[121.5617,25.0625],[121.5156,25.066]]}},{"type":"Feature","properties":{"wholesale_name":"台北魚市","wholesale_code":"台北","retail_name":"西寧市場","category":"漁產","category_code":"fishery"},"geometry":{"type":"LineString","coordinates":[[121.5617,25.0625],[121.506879,25.048078]]}},{"type":"Feature","properties":{"wholesale_name":"台北魚市","wholesale_code":"台北","retail_name":"西湖市場","category":"漁產","category_code":"fishery"},"geometry":{"type":"LineString","coordinates":[[121.5617,25.0625],[121.5666,25.0825]]}},{"type":"Feature","properties":{"wholesale_name":"三重魚市","wholesale_code":"三重","retail_name":"觀光攤販集中區","category":"漁產","category_code":"fishery"},"geometry":{"type":"LineString","coordinates":[[121.4735,25.0651],[121.654316,25.060973]]}},{"type":"Feature","properties":{"wholesale_name":"三重魚市","wholesale_code":"三重","retail_name":"重新公有市場","category":"漁產","category_code":"fishery"},"geometry":{"type":"LineString","coordinates":[[121.4735,25.0651],[121.488534,25.061008]]}},{"type":"Feature","properties":{"wholesale_name":"三重魚市","wholesale_code":"三重","retail_name":"金龍公有市場","category":"漁產","category_code":"fishery"},"geometry":{"type":"LineString","coordinates":[[121.4735,25.0651],[121.629518,25.068392]]}},{"type":"Feature","properties":{"wholesale_name":"台北魚市","wholesale_code":"台北","retail_name":"長春市場","category":"漁產","category_code":"fishery"},"geometry":{"type":"LineString","coordinates":[[121.5617,25.0625],[121.54234,25.05473]]}},{"type":"Feature","properties":{"wholesale_name":"台北魚市","wholesale_code":"台北","retail_name":"雙連市場","category":"漁產","category_code":"fishery"},"geometry":{"type":"LineString","coordinates":[[121.5617,25.0625],[121.516861,25.056847]]}},{"type":"Feature","properties":{"wholesale_name":"三重魚市","wholesale_code":"三重","retail_name":"頂埔公有市場","category":"漁產","category_code":"fishery"},"geometry":{"type":"LineString","coordinates":[[121.4735,25.0651],[121.415179,24.95816]]}},{"type":"Feature","properties":{"wholesale_name":"三重魚市","wholesale_code":"三重","retail_name":"麗林公有市場","category":"漁產","category_code":"fishery"},"geometry":{"type":"LineString","coordinates":[[121.4735,25.0651],[121.367576,25.068859]]}},{"type":"Feature","properties":{"wholesale_name":"台北魚市","wholesale_code":"台北","retail_name":"龍城市場","category":"漁產","category_code":"fishery"},"geometry":{"type":"LineString","coordinates":[[121.5617,25.0625],[121.576802,25.049725]]}}]}