{"type":"FeatureCollection","features":[{"type":"Feature","properties":{"wholesale_name":"全國家禽行情","wholesale_code":"NATIONAL","retail_name":"中山市場","category":"家禽","category_code":"poultry"},"geometry":{"type":"LineString","coordinates":[[121.535,25.048],[121.521261,25.050091]]}},{"type":"Feature","properties":{"wholesale_name":"全國家禽行情","wholesale_code":"NATIONAL","retail_name":"中崙市場(BOT)","category":"家禽","category_code":"poultry"},"geometry":{"type":"LineString","coordinates":[[121.535,25.048],[121.552445,25.047963]]}},{"type":"Feature","properties":{"wholesale_name":"全國家禽行情","wholesale_code":"NATIONAL","retail_name":"中研市場","category":"家禽","category_code":"poultry"},"geometry":{"type":"LineString","coordinates":[[121.535,25.048],[121.606829,25.05467]]}},{"type":"Feature","properties":{"wholesale_name":"全國家禽行情","wholesale_code":"NATIONAL","retail_name":"信義市場(108)","category":"家禽","category_code":"poultry"},"geometry":{"type":"LineString","coordinates":[[121.535,25.048],[121.499701,25.035103]]}},{"type":"Feature","properties":{"wholesale_name":"全國家禽行情","wholesale_code":"NATIONAL","retail_name":"光復市場","category":"家禽","category_code":"poultry"},"geometry":{"type":"LineString","coordinates":[[121.535,25.048],[121.56772,25.033131]]}},{"type":"Feature","properties":{"wholesale_name":"全國家禽行情","wholesale_code":"NATIONAL","retail_name":"八德市場(110)","category":"家禽","category_code":"poultry"},"geometry":{"type":"LineString","coordinates":[[121.535,25.048],[121.563561,25.03593]]}},{"type":"Feature","properties":{"wholesale_name":"全國家禽行情","wholesale_code":"NATIONAL","retail_name":"北投中繼市場","category":"家禽","category_code":"poultry"},"geometry":{"type":"LineString","coordinates":[[121.535,25.048],[121.502681,25.132303]]}},{"type":"Feature","properties":{"wholesale_name":"全國家禽行情","wholesale_code":"NATIONAL","retail_name":"南松市場","category":"家禽","category_code":"poultry"},"geometry":{"type":"LineString","coordinates":[[121.535,25.048],[121.570551,25.050877]]}},{"type":"Feature","properties":{"wholesale_name":"全國家禽行情","wholesale_code":"NATIONAL","retail_name":"南門中繼市場","category":"家禽","category_code":"poultry"},"geometry":{"type":"LineString","coordinates":[[121.535,25.048],[121.534563,25.026456]]}},{"type":"Feature","properties":{"wholesale_name":"全國家禽行情","wholesale_code":"NATIONAL","retail_name":"士東市場","category":"家禽","category_code":"poultry"},"geometry":{"type":"LineString","coordinates":[[121.535,25.048],[121.519827,25.092857]]}},{"type":"Feature","properties":{"wholesale_name":"全國家禽行情","wholesale_code":"NATIONAL","retail_name":"士林市場(109)","category":"家禽","category_code":"poultry"},"geometry":{"type":"LineString","coordinates":[[121.535,25.048],[121.525697,25.095036]]}},{"type":"Feature","properties":{"wholesale_name":"全國家禽行情","wholesale_code":"NATIONAL","retail_name":"大直市場","category":"家禽","category_code":"poultry"},"geometry":{"type":"LineString","coordinates":[[121.535,25.048],[121.533628,25.064251]]}},{"type":"Feature","properties":{"wholesale_name":"全國家禽行情","wholesale_code":"NATIONAL","retail_name":"大龍市場(108)","category":"家禽","category_code":"poultry"},"geometry":{"type":"LineString","coordinates":[[121.535,25.048],[121.5141,25.0749]]}},{"type":"Feature","properties":{"wholesale_name":"全國家禽行情","wholesale_code":"NATIONAL","retail_name":"安東市場","category":"家禽","category_code":"poultry"},"geometry":{"type":"LineString","coordinates":[[121.535,25.048],[121.534563,25.026456]]}},{"type":"Feature","properties":{"wholesale_name":"全國家禽行情","wholesale_code":"NATIONAL","retail_name":"建國市場","category":"家禽","category_code":"poultry"},"geometry":{"type":"LineString","coordinates":[[121.535,25.048],[121.533628,25.064251]]}},{"type":"Feature","properties":{"wholesale_name":"全國家禽行情","wholesale_code":"NATIONAL","retail_name":"成功中繼市場","category":"家禽","category_code":"poultry"},"geometry":{"type":"LineString","coordinates":[[121.535,25.048],[121.534563,25.026456]]}},{"type":"Feature","properties":{"wholesale_name":"全國家禽行情","wholesale_code":"NATIONAL","retail_name":"成德市場","category":"家禽","category_code":"poultry"},"geometry":{"type":"LineString","coordinates":[[121.535,25.048],[121.606829,25.05467]]}},{"type":"Feature","properties":{"wholesale_name":"全國家禽行情","wholesale_code":"NATIONAL","retail_name":"新富市場","category":"家禽","category_code":"poultry"},"geometry":{"type":"LineString","coordinates":[[121.535,25.048],[121.499891,25.034887]]}},{"type":"Feature","properties":{"wholesale_name":"全國家禽行情","wholesale_code":"NATIONAL","retail_name":"木新市場","category":"家禽","category_code":"poultry"},"geometry":{"type":"LineString","coordinates":[[121.535,25.048],[121.570296,24.989467]]}},{"type":"Feature","properties":{"wholesale_name":"全國家禽行情","wholesale_code":"NATIONAL","retail_name":"木柵市場","category":"家禽","category_code":"poultry"},"geometry":{"type":"LineString","coordinates":[[121.535,25.048],[121.5655,24.9827]]}},{"type":"Feature","properties":{"wholesale_name":"全國家禽行情","wholesale_code":"NATIONAL","retail_name":"東門市場","category":"家禽","category_code":"poultry"},"geometry":{"type":"LineString","coordinates":[[121.535,25.048],[121.5267,25.0346]]}},{"type":"Feature","properties":{"wholesale_name":"全國家禽行情","wholesale_code":"NATIONAL","retail_name":"松江市場","category":"家禽","category_code":"poultry"},"geometry":{"type":"LineString","coordinates":[[121.535,25.048],[121.533628,25.064251]]}},{"type":"Feature","properties":{"wholesale_name":"全國家禽行情","wholesale_code":"NATIONAL","retail_name":"水源市場","category":"家禽","category_code":"poultry"},"geometry":{"type":"LineString","coordinates":[[121.535,25.048],[121.535007,25.013742]]}},{"type":"Feature","properties":{"wholesale_name":"全國家禽行情","wholesale_code":"NATIONAL","retail_name":"永吉市場","category":"家禽","category_code":"poultry"},"geometry":{"type":"LineString","coordinates":[[121.535,25.048],[121.56772,25.033131]]}},{"type":"Feature","properties":{"wholesale_name":"全國家禽行情","wholesale_code":"NATIONAL","retail_name":"永春市場(111)","category":"家禽","category_code":"poultry"},"geometry":{"type":"LineString","coordinates":[[121.535,25.048],[121.531598,25.104673]]}},{"type":"Feature","properties":{"wholesale_name":"全國家禽行情","wholesale_code":"NATIONAL","retail_name":"永樂市場(1樓)","category":"家禽","category_code":"poultry"},"geometry":{"type":"LineString","coordinates":[[121.535,25.048],[121.5104,25.0548]]}},{"type":"Feature","properties":{"wholesale_name":"全國家禽行情","wholesale_code":"NATIONAL","retail_name":"環南中繼市場","category":"家禽","category_code":"poultry"},"geometry":{"type":"LineString","coordinates":[[121.535,25.048],[121.499891,25.034887]]}},{"type":"Feature","properties":{"wholesale_name":"全國家禽行情","wholesale_code":"NATIONAL","retail_name":"直興市場","category":"家禽","category_code":"poultry"},"geometry":{"type":"LineString","coordinates":[[121.535,25.048],[121.501766,25.039382]]}},{"type":"Feature","properties":{"wholesale_name":"全國家禽行情","wholesale_code":"NATIONAL","retail_name":"興隆市場","category":"家禽","category_code":"poultry"},"geometry":{"type":"LineString","coordinates":[[121.535,25.048],[121.570296,24.989467]]}},{"type":"Feature","properties":{"wholesale_name":"全國家禽行情","wholesale_code":"NATIONAL","retail_name":"華山市場","category":"家禽","category_code":"poultry"},"geometry":{"type":"LineString","coordinates":[[121.535,25.048],[121.52477,25.04425]]}},{"type":"Feature","properties":{"wholesale_name":"全國家禽行情","wholesale_code":"NATIONAL","retail_name":"蘭州市場","category":"家禽","category_code":"poultry"},"geometry":{"type":"LineString","coordinates":[[121.535,25.048],[121.5156,25.066]]}},{"type":"Feature","properties":{"wholesale_name":"全國家禽行情","wholesale_code":"NATIONAL","retail_name":"西寧市場","category":"家禽","category_code":"poultry"},"geometry":{"type":"LineString","coordinates":[[121.535,25.048],[121.506879,25.048078]]}},{"type":"Feature","properties":{"wholesale_name":"全國家禽行情","wholesale_code":"NATIONAL","retail_name":"西湖市場","category":"家禽","category_code":"poultry"},"geometry":{"type":"LineString","coordinates":[[121.535,25.048],[121.5666,25.0825]]}},{"type":"Feature","properties":{"wholesale_name":"全國家禽行情","wholesale_code":"NATIONAL","retail_name":"長春市場","category":"家禽","category_code":"poultry"},"geometry":{"type":"LineString","coordinates":[[121.535,25.048],[121.54234,25.05473]]}},{"type":"Feature","properties":{"wholesale_name":"全國家禽行情","wholesale_code":"NATIONAL","retail_name":"雙連市場","category":"家禽","category_code":"poultry"},"geometry":{"type":"LineString","coordinates":[[121.535,25.048],[121.516861,25.056847]]}},{"type":"Feature","properties":{"wholesale_name":"全國家禽行情","wholesale_code":"NATIONAL","retail_name":"龍城市場","category":"家禽","category_code":"poultry"},"geometry":{"type":"LineString","coordinates":[[121.535,25.048],[121.576802,25.049725]]}}]}