{
   "type": "FeatureCollection",
   "features": [
  {
    "type": "Feature",
    "geometry": {
       "type": "Point",
       "coordinates":  [ 121.45255,25.0361555 ]
    },
    "properties": {
    "作業時間":"10:00~18:00",
    "日期":"2025/05/31",
    "類型":"活動",
    "捐血點/主辦單位":"謝洪麗珠景觀花藝社",
    "地點":"新北市新莊區中華路+復興路口(配合新莊號)",
    "等候人數":"0",
    "活動ID":"0P143481189247581909",
    "頁碼":1,
    "縣市":"新北市"
    }
  },
  {
    "type": "Feature",
    "geometry": {
       "type": "Point",
       "coordinates":  [ 121.4364984,25.1956711 ]
    },
    "properties": {
    "作業時間":"10:00~17:00",
    "日期":"2025/05/31",
    "類型":"活動",
    "捐血點/主辦單位":"淡水海洋都心二期",
    "地點":"新北市淡水區新市三路二段217號",
    "等候人數":"0",
    "活動ID":"0P143481185510076423",
    "頁碼":1,
    "縣市":"新北市"
    }
  },
  {
    "type": "Feature",
    "geometry": {
       "type": "Point",
       "coordinates":  [ 121.4284421,24.9954547 ]
    },
    "properties": {
    "作業時間":"11:00~17:00",
    "日期":"2025/05/31",
    "類型":"活動",
    "捐血點/主辦單位":"秀泰生活樹林店",
    "地點":"新北市樹林區樹新路40-6號",
    "等候人數":"0",
    "活動ID":"0P143481184975197495",
    "頁碼":1,
    "縣市":"新北市"
    }
  },
  {
    "type": "Feature",
    "geometry": {
       "type": "Point",
       "coordinates":  [ 121.4706982,25.0315012 ]
    },
    "properties": {
    "作業時間":"08:00~17:00",
    "日期":"",
    "類型":"固定點",
    "捐血點/主辦單位":"板橋捐血站",
    "地點":"新北市板橋區雙十路三段27號2樓(捷運板南線BL江子翠捷運站1號出口，向前直走步行約5分鐘)",
    "等候人數":"0",
    "活動ID":"0P091704359095276093",
    "頁碼":1,
    "縣市":"新北市"
    }
  },
  {
    "type": "Feature",
    "geometry": {
       "type": "Point",
       "coordinates":  [ 121.4206913,24.9870942 ]
    },
    "properties": {
    "作業時間":"09:00~17:00",
    "日期":"",
    "類型":"固定點",
    "捐血點/主辦單位":"樹林捐血室",
    "地點":"新北市樹林區中山路一段276號6樓",
    "等候人數":"0",
    "活動ID":"0P091704355546518552",
    "頁碼":1,
    "縣市":"新北市"
    }
  },
  {
    "type": "Feature",
    "geometry": {
       "type": "Point",
       "coordinates":  [ 121.4594333,25.0085455 ]
    },
    "properties": {
    "作業時間":"10:00~18:00(114/5/26~5/29暫停作業)",
    "日期":"",
    "類型":"固定點",
    "捐血點/主辦單位":"府中捐血室(114/5/26~5/29暫停作業)",
    "地點":"中山路一段50巷36號2樓之4(捷運板南線BL府中站2號出口，往中山路步行約10分鐘)",
    "等候人數":"0",
    "活動ID":"0P091704350639145021",
    "頁碼":1,
    "縣市":"新北市"
    }
  },
  {
    "type": "Feature",
    "geometry": {
       "type": "Point",
       "coordinates":  [ 121.5127029,25.0014294 ]
    },
    "properties": {
    "作業時間":"09:00~17:00",
    "日期":"",
    "類型":"固定點",
    "捐血點/主辦單位":"中和號捐血車",
    "地點":"新北市中和區中安街圖書館旁(823公園內，捷運中和新蘆線O永安市場站步行約5分鐘)",
    "等候人數":"0",
    "活動ID":"0P091704335103226040",
    "頁碼":1,
    "縣市":"新北市"
    }
  },
  {
    "type": "Feature",
    "geometry": {
       "type": "Point",
       "coordinates":  [ 121.45255,25.0361555 ]
    },
    "properties": {
    "作業時間":"10:00~18:00",
    "日期":"",
    "類型":"固定點",
    "捐血點/主辦單位":"新莊號捐血車",
    "地點":"新北市新莊區中華路一段+復興路一段交叉口(新莊綜合運動場旁，捷運中和新蘆線O新莊站1號出口，往中華路方向步行約10分鐘)",
    "等候人數":"0",
    "活動ID":"0P091704334568357022",
    "頁碼":1,
    "縣市":"新北市"
    }
  },
  {
    "type": "Feature",
    "geometry": {
       "type": "Point",
       "coordinates":  [ 121.4487807,24.9853715 ]
    },
    "properties": {
    "作業時間":"10:00~18:00(僅每週六、日提供作業。114/5/17、5/18、5/25、5/31、6/1、6/7暫停作業)",
    "日期":"",
    "類型":"固定點",
    "捐血點/主辦單位":"土城號捐血車(114/5/17、5/18、5/25、5/31、6/1、6/7暫停作業)",
    "地點":"新北市土城區裕民路171巷裕民廣場內(捷運板南線BL海山站3號出口，往裕民路方向步行約10分鐘)",
    "等候人數":"-",
    "活動ID":"0P091704330475710563",
    "頁碼":1,
    "縣市":"新北市"
    }
  },
  {
    "type": "Feature",
    "geometry": {
       "type": "Point",
       "coordinates":  [ 121.5373757,24.9827674 ]
    },
    "properties": {
    "作業時間":"09:00~17:00",
    "日期":"",
    "類型":"固定點",
    "捐血點/主辦單位":"新店捐血室",
    "地點":"新北市新店區民權路95號6樓之2(江陵金融大樓元大銀行樓上，捷運松山新店線G大坪林站1號出口，步行約5分鐘)",
    "等候人數":"0",
    "活動ID":"0P091704328118015564",
    "頁碼":1,
    "縣市":"新北市"
    }
  },
  {
    "type": "Feature",
    "geometry": {
       "type": "Point",
       "coordinates":  [ 121.6567136,25.0637253 ]
    },
    "properties": {
    "作業時間":"09:00~17:00(每週六公休)",
    "日期":"",
    "類型":"固定點",
    "捐血點/主辦單位":"汐止捐血室",
    "地點":"新北市汐止區新台五路一段207號11樓B室(汐止農會樓上)",
    "等候人數":"0",
    "活動ID":"0P091704323845620050",
    "頁碼":2,
    "縣市":"新北市"
    }
  },
  {
    "type": "Feature",
    "geometry": {
       "type": "Point",
       "coordinates":  [ 121.4887094,25.057692 ]
    },
    "properties": {
    "作業時間":"09:00~17:00",
    "日期":"",
    "類型":"固定點",
    "捐血點/主辦單位":"三重捐血室",
    "地點":"新北市三重區重新路四段12號7樓之2(捷運中和新蘆線O菜寮站2號出口步行5分鐘)",
    "等候人數":"0",
    "活動ID":"0P091704323480509078",
    "頁碼":2,
    "縣市":"新北市"
    }
  },
  {
    "type": "Feature",
    "geometry": {
       "type": "Point",
       "coordinates":  [ 121.396941,25.0794058 ]
    },
    "properties": {
    "作業時間":"09:30~16:30(每月26日)",
    "日期":"",
    "類型":"巡迴車",
    "捐血點/主辦單位":"林口區巡迴捐血車(每月26日)",
    "地點":"粉寮路一段77-2號(粉寮路一段與工六路口交叉口)",
    "等候人數":"0",
    "活動ID":"0P094389946210577192",
    "頁碼":2,
    "縣市":"新北市"
    }
  },
  {
    "type": "Feature",
    "geometry": {
       "type": "Point",
       "coordinates":  [ 121.3749834,24.9327705 ]
    },
    "properties": {
    "作業時間":"09:30~16:30(每月8日)",
    "日期":"",
    "類型":"巡迴車",
    "捐血點/主辦單位":"三峽區巡迴捐血車(每月8日)",
    "地點":"中華路、愛國路交叉口(中華路愛國路停車場旁(三峽祥耀停車場))",
    "等候人數":"0",
    "活動ID":"0P094386558402749634",
    "頁碼":2,
    "縣市":"新北市"
    }
  },
  {
    "type": "Feature",
    "geometry": {
       "type": "Point",
       "coordinates":  [ 121.4269332,24.9936848 ]
    },
    "properties": {
    "作業時間":"09:30~16:30(每月10、16 日)",
    "日期":"",
    "類型":"巡迴車",
    "捐血點/主辦單位":"樹林區巡迴捐血車(每月10、16 日)",
    "地點":"保安街一段32號(濟安宮前)",
    "等候人數":"0",
    "活動ID":"0P094386040239780094",
    "頁碼":2,
    "縣市":"新北市"
    }
  },
  {
    "type": "Feature",
    "geometry": {
       "type": "Point",
       "coordinates":  [ 121.349591,24.9574289 ]
    },
    "properties": {
    "作業時間":"09:30~16:30(每月9日)",
    "日期":"",
    "類型":"巡迴車",
    "捐血點/主辦單位":"鶯歌區巡迴捐血車(每月9日)",
    "地點":"中山路150號(新北市立圖書館鶯歌分館前)",
    "等候人數":"0",
    "活動ID":"0P094380875575622468",
    "頁碼":2,
    "縣市":"新北市"
    }
  },
  {
    "type": "Feature",
    "geometry": {
       "type": "Point",
       "coordinates":  [ 121.4443711,25.1782682 ]
    },
    "properties": {
    "作業時間":"09:30~16:30(每月19日)",
    "日期":"",
    "類型":"巡迴車",
    "捐血點/主辦單位":"淡水區巡迴捐血車(每月19日)",
    "地點":"中山北路一段160號(水碓派出所前)",
    "等候人數":"0",
    "活動ID":"0P094380427301663938",
    "頁碼":2,
    "縣市":"新北市"
    }
  },
  {
    "type": "Feature",
    "geometry": {
       "type": "Point",
       "coordinates":  [ 121.4277399,25.0506571 ]
    },
    "properties": {
    "作業時間":"09:30~16:30(每月27日)",
    "日期":"",
    "類型":"巡迴車",
    "捐血點/主辦單位":"泰山區巡迴捐血車(每月27日)",
    "地點":"明志路二段139號(文程廣場)",
    "等候人數":"0",
    "活動ID":"0P094379136324502398",
    "頁碼":2,
    "縣市":"新北市"
    }
  },
  {
    "type": "Feature",
    "geometry": {
       "type": "Point",
       "coordinates":  [ 121.4736747,25.0846636 ]
    },
    "properties": {
    "作業時間":"09:30~16:30(每月23日)",
    "日期":"",
    "類型":"巡迴車",
    "捐血點/主辦單位":"蘆洲區巡迴捐血車(每月23日)",
    "地點":"三民路95號(區公所前)",
    "等候人數":"0",
    "活動ID":"0P094378314888068354",
    "頁碼":2,
    "縣市":"新北市"
    }
  },
  {
    "type": "Feature",
    "geometry": {
       "type": "Point",
       "coordinates":  [ 121.5202731,25.0086794 ]
    },
    "properties": {
    "作業時間":"09:30~16:30(每月14日)",
    "日期":"",
    "類型":"巡迴車",
    "捐血點/主辦單位":"永和區巡迴捐血車(每月14日)",
    "地點":"永和區竹林路+國光路交叉口(國父紀念館側門)",
    "等候人數":"0",
    "活動ID":"0P091704348282559021",
    "頁碼":2,
    "縣市":"新北市"
    }
  },
  {
    "type": "Feature",
    "geometry": {
       "type": "Point",
       "coordinates":  [ 121.5663884,25.0352534 ]
    },
    "properties": {
    "作業時間":"11:00~18:00",
    "日期":"2025/05/31",
    "類型":"活動",
    "捐血點/主辦單位":"國際獅子會300A 1區台北市大眾獅子會",
    "地點":"臺北市信義區松壽路16巷",
    "等候人數":"0",
    "活動ID":"0P143481189603602982",
    "頁碼":1,
    "縣市":"臺北市"
    }
  },
  {
    "type": "Feature",
    "geometry": {
       "type": "Point",
       "coordinates":  [ 121.5374572,25.0318211 ]
    },
    "properties": {
    "作業時間":"09:00~17:00(114/5/5~5/9暫停作業)",
    "日期":"",
    "類型":"固定點",
    "捐血點/主辦單位":"大安號捐血車",
    "地點":"台北市大安區建國南路二段大安森林公園地下停車場入口旁空地(捷運淡水信義線R大安森林公園站5號出口，步行約5分鐘)",
    "等候人數":"0",
    "活動ID":"0P091704354367760507",
    "頁碼":1,
    "縣市":"臺北市"
    }
  },
  {
    "type": "Feature",
    "geometry": {
       "type": "Point",
       "coordinates":  [ 121.5484258,25.0415111 ]
    },
    "properties": {
    "作業時間":"11:00~19:00",
    "日期":"",
    "類型":"固定點",
    "捐血點/主辦單位":"忠孝捐血室",
    "地點":"B1東區地下街9號出口旁副走道(第四廣場旁)",
    "等候人數":"0",
    "活動ID":"0P091704351818993076",
    "頁碼":1,
    "縣市":"臺北市"
    }
  },
  {
    "type": "Feature",
    "geometry": {
       "type": "Point",
       "coordinates":  [ 121.5153266,25.0466575 ]
    },
    "properties": {
    "作業時間":"11:00~19:00(114/5/5~5/9暫停作業)",
    "日期":"",
    "類型":"固定點",
    "捐血點/主辦單位":"新光站前號捐血車",
    "地點":"台北市中正區忠孝西路一段66號面對新光摩天大樓左側腹地(捷運台北車站M6出口，步行約5分鐘)",
    "等候人數":"0",
    "活動ID":"0P091704339830832536",
    "頁碼":1,
    "縣市":"臺北市"
    }
  },
  {
    "type": "Feature",
    "geometry": {
       "type": "Point",
       "coordinates":  [ 121.5077531,25.0424546 ]
    },
    "properties": {
    "作業時間":"13:00~21:00",
    "日期":"",
    "類型":"固定點",
    "捐血點/主辦單位":"峨嵋號捐血車",
    "地點":"台北市萬華區峨嵋街立體停車場旁(昆明街口，捷運板南線BL西門站6號出口，步行約10分鐘)",
    "等候人數":"0",
    "活動ID":"0P091704339396863519",
    "頁碼":1,
    "縣市":"臺北市"
    }
  },
  {
    "type": "Feature",
    "geometry": {
       "type": "Point",
       "coordinates":  [ 121.5166385,25.0412666 ]
    },
    "properties": {
    "作業時間":"10:00~18:00(114/4/28~4/30暫停作業)",
    "日期":"",
    "類型":"固定點",
    "捐血點/主辦單位":"公園號捐血車",
    "地點":"台北市中正區公園路+襄陽路口(捷運淡水信義線R台大醫院站4號出口)",
    "等候人數":"0",
    "活動ID":"0P091704334024478005",
    "頁碼":1,
    "縣市":"臺北市"
    }
  },
  {
    "type": "Feature",
    "geometry": {
       "type": "Point",
       "coordinates":  [ 121.544009,25.0520785 ]
    },
    "properties": {
    "作業時間":"09:00~17:00(每週日公休。)",
    "日期":"",
    "類型":"固定點",
    "捐血點/主辦單位":"長春捐血室",
    "地點":"台北市松山區復興北路69號5樓(捷運文湖線BR南京復興站5號出口，步行約3分鐘)",
    "等候人數":"0",
    "活動ID":"0P091704328573146537",
    "頁碼":1,
    "縣市":"臺北市"
    }
  },
  {
    "type": "Feature",
    "geometry": {
       "type": "Point",
       "coordinates":  [ 121.5175482,25.0329071 ]
    },
    "properties": {
    "作業時間":"08:00~17:30",
    "日期":"",
    "類型":"固定點",
    "捐血點/主辦單位":"南海捐血室",
    "地點":"台北市中正區南海路1號3樓(南門市場對面，中正紀念堂站1號出口，步行約3分鐘)",
    "等候人數":"0",
    "活動ID":"0P091704327939267519",
    "頁碼":1,
    "縣市":"臺北市"
    }
  },
  {
    "type": "Feature",
    "geometry": {
       "type": "Point",
       "coordinates":  [ 121.471672,25.1274294 ]
    },
    "properties": {
    "作業時間":"08:00~17:00",
    "日期":"",
    "類型":"固定點",
    "捐血點/主辦單位":"關渡捐血室",
    "地點":"台北市北投區立德路123號(和信醫院旁，捷運淡水信義線R忠義站，步行約10分鐘)",
    "等候人數":"0",
    "活動ID":"0P091704322667872905",
    "頁碼":1,
    "縣市":"臺北市"
    }
  },
  {
    "type": "Feature",
    "geometry": {
       "type": "Point",
       "coordinates":  [ 121.5645397,25.0371645 ]
    },
    "properties": {
    "作業時間":"09:00~17:00(每週六、日公休)",
    "日期":"",
    "類型":"固定點",
    "捐血點/主辦單位":"市府捐血室",
    "地點":"台北市信義區市府路1號，市政府西大門內左側(1.捷運板南線BL市政府站2號出口。2.捷運淡水信義線R台北101/世貿站4號出口。均步行約10分鐘)",
    "等候人數":"0",
    "活動ID":"0P091704322201751023",
    "頁碼":1,
    "縣市":"臺北市"
    }
  },
  {
    "type": "Feature",
    "geometry": {
       "type": "Point",
       "coordinates":  [ 121.5249268,25.0933199 ]
    },
    "properties": {
    "作業時間":"09:30~16:30(每月17日)",
    "日期":"",
    "類型":"巡迴車",
    "捐血點/主辦單位":"士林區巡迴捐血車(每月17日)",
    "地點":"大東路士林國小前",
    "等候人數":"0",
    "活動ID":"0P094384341544681006",
    "頁碼":2,
    "縣市":"臺北市"
    }
  },
  {
    "type": "Feature",
    "geometry": {
       "type": "Point",
       "coordinates":  [ 121.5932303,25.0829856 ]
    },
    "properties": {
    "作業時間":"09:30~16:30(每月24日)",
    "日期":"",
    "類型":"巡迴車",
    "捐血點/主辦單位":"內湖區巡迴捐血車(每月24日)",
    "地點":"成功路四段166號(七海餐廳前)",
    "等候人數":"0",
    "活動ID":"0P094383895459579510",
    "頁碼":2,
    "縣市":"臺北市"
    }
  },
  {
    "type": "Feature",
    "geometry": {
       "type": "Point",
       "coordinates":  [ 121.6057,25.0544 ]
    },
    "properties": {
    "作業時間":"09:30~16:30(每月7日，逢遇週六、日休息)",
    "日期":"",
    "類型":"巡迴車",
    "捐血點/主辦單位":"南港區巡迴捐血車(每月7日)",
    "地點":"南港路二段18號",
    "等候人數":"0",
    "活動ID":"0P094379764687471839",
    "頁碼":2,
    "縣市":"臺北市"
    }
  }
]
}